"license_number","address","zipcode","lat","lon","house_number","road","town","state","postcode"
"LB-99194","560  HARRISON AVE, ROXBURY, MA  02118","02118",42.3320639,-71.0793557,"","Harrison Avenue","Boston","Massachusetts","02118"
"LB-441473","1924  BEACON ST, BRIGHTON, MA  02135","02135",42.3364043,-71.1495572,"1924","Beacon Street","Boston","Massachusetts","02135"
"LB-173360","1800  CENTRE ST, WEST ROXBURY, MA  02132","02132",42.2862705,-71.1518966,"1800","Centre Street","Boston","Massachusetts","02132"
"LB-99212","45  SCHOOL ST, BOSTON, MA  02108","02108",42.3580374,-71.0593875,"45","School Street","Boston","Massachusetts","02108"
"LB-99415","71 1/2  CHARLES ST, BOSTON, MA  02114","02114",42.3601352,-71.0708162,"144","Charles Street","Boston","Massachusetts","02114"
"LB-98779","199  COMMONWEALTH AVE, BOSTON, MA  02116","02116",42.3515906,-71.0809592,"199","Commonwealth Avenue","Boston","Massachusetts","02116"
"LB-440972","269  HUNTINGTON AVE, BOSTON, MA  02115","02115",42.2686133,-71.1181165,"269","Huntington Avenue","Boston","Massachusetts","02137"
"LB-440974","15  WILLIAM C KELLY SQ, EAST BOSTON, MA  02128","02128","","","","","","","None"
"LB-99098","80 - 82  CAUSEWAY ST, BOSTON, MA  02114","02114",42.3645436,-71.0630843,"","Causeway Street","Boston","Massachusetts","02222"
"LB-99152","22  LIBERTY DR, BOSTON, MA  02210","02210",42.3545759,-71.0452627,"22","Liberty Drive","Boston","Massachusetts","02210"
"LB-99230","60  STATE ST, BOSTON, MA  02109","02109",42.3596782,-71.056579,"60","State Street","Boston","Massachusetts","02109"
"LB-99438","539  WASHINGTON ST, BOSTON, MA  02111","02111",42.3539631,-71.0622304,"539","Washington Street","Boston","Massachusetts","02111"
"LB-99445","2  SEAPORT LN, BOSTON, MA  02210","02210",42.3490483,-71.0407647,"2","Seaport Lane","Boston","Massachusetts","02210"
"LB-99163","157 - 159  NEWBURY ST, BOSTON, MA  02116","02116",42.3505265,-71.0783948,"160","Newbury Street","Boston","Massachusetts","02116"
"LB-99562","11  FAN PIER BLVD, BOSTON, MA  02210","02210",42.3541329,-71.0457126,"11","Fan Pier Boulevard","Boston","Massachusetts","02210"
"LB-99110","1 - 7  DALTON ST, BOSTON, MA  02115","02115",42.3473409,-71.0853024,"","Massachusetts Turnpike","Boston","Massachusetts","02199"
"LB-99379","100 - 134  FANEUIL HALL MARKETPLACE, BOSTON, MA  02109","02109","","","","","","","None"
"LB-98971","353  CAMBRIDGE ST, BRIGHTON, MA  02134","02134",42.3520495,-71.1416702,"593","Cambridge Street","Boston","Massachusetts","02134"
"LB-99592","5 - 9  HUDSON ST, BOSTON, MA  02111","02111",42.3497805,-71.060454,"66","Hudson Street","Boston","Massachusetts","02111"
"LB-99488","490  HARRISON AVE, ROXBURY, MA  02118","02118",42.3422401,-71.0657456,"490","Harrison Avenue","Boston","Massachusetts","02118"
"LB-98972","166  CANAL ST, BOSTON, MA  02114","02114",42.3649898,-71.0609832,"166","Canal Street","Boston","Massachusetts","02114"
"LB-138282","150  BENNINGTON ST, EAST BOSTON, MA  02128","02128",42.3769629,-71.0336372,"150","Bennington Street","Boston","Massachusetts","02128"
"LB-102060","892  SOUTH ST, ROSLINDALE, MA  02131","02131",42.2884751,-71.1347415,"892-904","South Street","Boston","Massachusetts","02131"
"LB-99080","230  NORTHERN AVE, BOSTON, MA  02210","02210",42.3520026,-71.0437765,"85","Northern Avenue","Boston","Massachusetts","02210"
"LB-99654","20  HUDSON ST, BOSTON, MA  02111","02111",42.3504181,-71.0599612,"20","Hudson Street","Boston","Massachusetts","02111"
"LB-99703","379   381  HANOVER ST, BOSTON, MA  02113","02113","","","","","","","None"
"LB-433376","1918  BEACON ST, BRIGHTON, MA  02135","02135",42.3365357,-71.1491516,"1918-1920","Beacon Street","Boston","Massachusetts","02135"
"LB-102015","170  SALEM ST, BOSTON, MA  02113","02113",42.3662551,-71.0550054,"170","Salem Street","Boston","Massachusetts","02113"
"LB-433078","700  ATLANTIC AVE, BOSTON, MA  02110","02110",42.3517316,-71.0554854,"700","Atlantic Avenue","Boston","Massachusetts","02110"
"LB-100940","430  WILLIAM F MCCLELLAN HWY, EAST BOSTON, MA  02128","02128",42.3920389,-71.0132465,"430","McClellan Highway","Boston","Massachusetts","02150"
"LB-140281","1047   1051  DORCHESTER AVE, DORCHESTER, MA  02125","02125","","","","","","","None"
"LB-432765","1  COURT ST, BOSTON, MA  02108","02108",42.3589983,-71.0580261,"73","Tremont Street","Boston","Massachusetts","02108"
"LB-451072","748A  HUNTINGTON AVE, BOSTON, MA  02115","02115","","","","","","","None"
"LB-99363","126  STATE ST, BOSTON, MA  02109","02109",42.3593013,-71.0545645,"126","State Street","Boston","Massachusetts","02109"
"LB-447986","86  MASSACHUSETTS AVE, BOSTON, MA  02115","02115",42.3487565,-71.0883372,"86","Massachusetts Avenue","Boston","Massachusetts","02115"
"LB-101980","11  WORMWOOD ST, BOSTON, MA  02210","02210",42.3471037,-71.0495327,"27-43","Wormwood Street","Boston","Massachusetts","02210"
"LB-447833","466B  WASHINGTON ST, BRIGHTON, MA  02135","02135",42.3512152,-71.1694072,"648","Washington Street","Boston","Massachusetts","02135"
"LB-99809","800  BOYLSTON ST, BOSTON, MA  02199","02199",42.3471718,-71.0825069,"800","Boylston Street","Boston","Massachusetts","02199"
"LB-99584","1  SIXTH ST, CHARLESTOWN, MA  02129","02129",42.3750966,-71.054926,"","Chelsea Street","Boston","Massachusetts","02129"
"LB-451081","266  NEWBURY ST, BOSTON, MA  02116","02116",42.3491798,-71.0831909,"266","Newbury Street","Boston","Massachusetts","02116"
"LB-449187","60  OLD COLONY AV, SOUTH BOSTON, MA  02127","02127",42.3361937,-71.0555717,"60","Old Colony Avenue","Boston","Massachusetts","01125"
"LB-101577","100  NORTHERN AVE, BOSTON, MA  02210","02210",42.3523486,-71.0434736,"100","Northern Avenue","Boston","Massachusetts","02210"
"LB-99306","100  HIGH ST, BOSTON, MA  02110","02110",42.3544401,-71.0556228,"100","High Street","Boston","Massachusetts","02110"
"LB-99810","200-299  FANEUIL HALL MARKETPLACE, BOSTON, MA  02109","02109","","","","","","","None"
"LB-451086","103  NEWBURY ST, BOSTON, MA  02116","02116",42.3516999,-71.0754159,"103","Newbury Street","Boston","Massachusetts","02116"
"LB-420671","LOGAN AIRPORT TERMINAL A, EAST BOSTON, MA  02128","02128",42.3649131,-71.0204236,"","Logan Airport Terminal A","Boston","Massachusetts","02128"
"LB-451090","1  WESTINGHOUSE PLZ, HYDE PARK, MA  02136","02136",42.2467886,-71.1310099,"1","Westinghouse Plaza","Boston","Massachusetts","02136"
"LB-98932","384  BOYLSTON ST, BOSTON, MA  02116","02116",42.3512763,-71.0718677,"384-390","Boylston Street","Boston","Massachusetts","02116"
"LB-98926","903-905  BOYLSTON ST, BOSTON, MA  02115","02115",42.3484507,-71.0842219,"903","Boylston Street","Boston","Massachusetts","02115"
"LB-99689","306  NORTHERN AVE, BOSTON, MA  02210","02210",42.3471071,-71.0341176,"306","Northern Avenue","Boston","Massachusetts","02210"
"LB-396066","47  FARNSWORTH ST, BOSTON, MA  02210","02210",42.3521823,-71.0475699,"47-53","Farnsworth Street","Boston","Massachusetts","02210"
"LB-450409","755  BOYLSTON ST, BOSTON, MA  02116","02116",42.3493945,-71.0810279,"755","Boylston Street","Boston","Massachusetts","02116"
"LB-447984","69  L ST, SOUTH BOSTON, MA  02127","02127",42.3352051,-71.0354114,"75","L Street","Boston","Massachusetts","02127"
"LB-445992","231  BUNKER HILL ST, CHARLESTOWN, MA  02129","02129",42.3794795,-71.0633001,"229;231","Bunker Hill Street","Boston","Massachusetts","02129"
"LB-98819","LOGAN AIRPORT, TERMINAL B, EAST BOSTON, MA  02128","02128","","","","","","","None"
"LB-445819","1040  WASHINGTON ST, ROXBURY, MA  02118","02118",42.3329262,-71.0810342,"","Washington Street","Boston","Massachusetts","02118"
"LB-99769","480  COLUMBUS AVE, ROXBURY, MA  02118","02118",42.3311252,-71.0946996,"1234","Columbus Avenue","Boston","Massachusetts","02120"
"LB-445325","514  GALLIVAN BL, DORCHESTER, MA  02124","02124","","","","","","","None"
"LB-102051","246 DORCHESTER ST, SOUTH BOSTON, MA  02127","02127",42.3325129,-71.0512173,"246","Dorchester Street","Boston","Massachusetts","02127"
"LB-102056","62 WASHINGTON ST, BRIGHTON, MA  02135","02135",42.3433222,-71.1424345,"62","Washington Street","Boston","Massachusetts","02135"
"LB-101844","700  AMERICAN LEGION HWY, ROSLINDALE, MA  02131","02131",42.2812734,-71.1157881,"780","American Legion Highway","Boston","Massachusetts","02131"
"LB-101961","94 - 96  SALEM ST, BOSTON, MA  02113","02113",42.364631,-71.0555266,"114","Salem Street","Boston","Massachusetts","02113"
"LB-408189","401  PARK DR, BOSTON, MA  02215","02215",42.3440899,-71.1030535,"401","Park Drive","Boston","Massachusetts","02215"
"LB-99579","592A - 592  TREMONT ST, ROXBURY, MA  02118","02118","","","","","","","None"
"LB-445700","411  ADAMS ST, DORCHESTER, MA  02122","02122",42.2952288,-71.0563867,"411","Adams Street","Boston","Massachusetts","02122"
"LB-139450","660  WASHINGTON ST, BOSTON, MA  02111","02111",42.3518586,-71.0621269,"660","Washington Street","Boston","Massachusetts","02111"
"LB-99222","144 South St, Jamaica Plain, MA 02130","02130",42.3050894,-71.1145161,"144","South Street","Boston","Massachusetts","02130"
"LB-99580","204-204A Hanover St, Boston, MA 02113","02113","","","","","","","None"
"LB-99402","300 Faneuil Hall Marketplace, Boston, MA 02109","02109","","","","","","","None"
"LB-101610","219 Tremont St, Boston, MA 02116","02116",42.3515336,-71.0651209,"219","Tremont Street","Boston","Massachusetts","02116"
"LB-101852","1151 Blue Hill Ave, Dorchester, MA 02124","02124","","","","","","","None"
"LB-614490","123 Newbury St, Boston, MA 02116","02116",42.35144,-71.0765568,"123","Newbury Street","Boston","Massachusetts","02116"
"LB-615293","36-38 Harrison Ave, Boston, MA 02111","02111",42.3510583,-71.061352,"75","Harrison Avenue","Boston","Massachusetts","02111"
"LB-608529","604 Blue Hill Ave, Dorchester, MA 02121","02121","","","","","","","None"
"LB-101675","88 Exeter St, Boston, MA 02116","02116",42.3485942,-71.0788563,"88","Exeter Street","Boston","Massachusetts","02116"
"LB-615311","1829 Centre St, West Roxbury, MA 02132","02132",42.2870522,-71.1536805,"1829","Centre Street","Boston","Massachusetts","02132"
"LB-101926","1055 Truman Pkwy, Hyde Park, MA 02136","02136",42.2387423,-71.1254315,"","Truman Parkway","Milton","Massachusetts","02136"
"LB-615273","371 Centre St, Jamaica Plain, MA 02130","02130",42.322397,-71.1088341,"371A","Centre Street","Boston","Massachusetts","02130"
"LB-101574","543-561 Washington St, Boston, MA 02111","02111","","","","","","","None"
"LB-99345","128 Brighton Ave, Allston, MA 02134","02134",42.3525753,-71.1313217,"128","Brighton Avenue","Boston","Massachusetts","02134"
"LB-99286","4187-4195 Washington St, Roslindale, MA 02131","02131","","","","","","","None"
"LB-99339","722 Commonwealth Ave, Boston, MA 02215","02215",42.3495616,-71.1062532,"","Harvard Street","Boston","Massachusetts","02215"
"LB-523190","507 Massachusetts Ave, Roxbury, MA 02118","02118",42.3301551,-71.0697088,"927;929;931","Massachusetts Avenue","Boston","Massachusetts","02118"
"LB-99538","669A Centre St, Jamaica Plain, MA 02130","02130","","","","","","","None"
"LB-99042","1363 Boylston St, Boston, MA 02215","02215",42.3440772,-71.1004466,"1363","Boylston Street","Boston","Massachusetts","02215"
"LB-613851","750 Tremont St, Roxbury, MA 02118","02118",42.3356687,-71.0869956,"","Tremont Street","Boston","Massachusetts","02115"
"LB-101876","527-531 Dudley St, Roxbury, MA 02119","02119","","","","","","","None"
"LB-316991","181 Chestnut Hill Ave, Brighton, MA 02135","02135",42.3416795,-71.1546359,"181","Chestnut Hill Avenue","Boston","Massachusetts","02135"
"LB-99747","130 Dartmouth St, Boston, MA 02116","02116",42.3466407,-71.075888,"126","Dartmouth Street","Boston","Massachusetts","02116"
"LB-612375","279 Massachusetts Ave, Boston, MA 02115","02115",42.3462064,-71.0872039,"160","Massachusetts Avenue","Boston","Massachusetts","02215"
"LB-612513","164 Brighton Ave, Allston, MA 02134","02134",42.3529425,-71.1327768,"164","Brighton Avenue","Boston","Massachusetts","02134"
"LB-99446","264 E Berkeley St, Boston, MA 02118","02118",42.3432598,-71.0628033,"264","East Berkeley Street","Boston","Massachusetts","02118"
"LB-612517","89 Heath St, Mission Hill, MA 02120","02120",42.3267062,-71.101789,"89;91;97","Heath Street","Boston","Massachusetts","02120"
"LB-607843","636-638 Bennington St, East Boston, MA 02128","02128",42.3852178,-71.0112134,"740","Bennington Street","Boston","Massachusetts","02128"
"LB-99237","340 Stuart St, Boston, MA 02116","02116",42.3484549,-71.0759021,"441","Stuart Street","Boston","Massachusetts","02116"
"LB-525934","500 Boylston St, Boston, MA 02116","02116",42.3504303,-71.0739556,"500","Boylston Street","Boston","Massachusetts","02116"
"LB-99570","20-26 Charles St, Boston, MA 02114","02114",42.3601352,-71.0708162,"144","Charles Street","Boston","Massachusetts","02114"
"LB-99754","81 L St, South Boston, MA 02127","02127",42.3346688,-71.0355523,"81","L Street","Boston","Massachusetts","02127"
"LB-101902","45 Massachusetts Ave, Boston, MA 02115","02115",42.3499012,-71.089264,"45","Massachusetts Avenue","Boston","Massachusetts","02115"
"LB-101643","1 Avenue de Lafayette, Boston, MA 02111","02111",42.3534041,-71.0607712,"1","Avenue De Lafayette","Boston","Massachusetts","02111"
"LB-99586","67 Main St, Charlestown, MA 02129","02129",42.3736375,-71.062397,"67","Main Street","Boston","Massachusetts","02129"
"LB-583152","1 N Beacon St, Allston, MA 02134","02134",42.3536117,-71.1377864,"","North Beacon Street","Boston","Massachusetts","02134"
"LB-99181","54 Devonshire St, Boston, MA 02109","02109",42.3582474,-71.0571837,"54-68","Devonshire Street","Boston","Massachusetts","02109"
"LB-161361","226 Newbury St, Boston, MA 02116","02116",42.3497151,-71.0812357,"226","Newbury Street","Boston","Massachusetts","02116"
"LB-101971","259 Dorchester St, South Boston, MA 02127","02127",42.336749,-71.0439341,"23","Dorchester Street","Boston","Massachusetts","02127"
"LB-612055","159 Washington St, Dorchester, MA 02121","02121",42.3032014,-71.0784065,"","Washington Street","Boston","Massachusetts","02121"
"LB-99389","111 Dartmouth St, Boston, MA 02116","02116",42.3464338,-71.0753432,"111","Dartmouth Street","Boston","Massachusetts","02116"
"LB-101898","435-439 Hyde Park Ave, Roslindale, MA 02131","02131",42.2856439,-71.1191564,"435-439;435R;435","Hyde Park Avenue","Boston","Massachusetts","02131"
"LB-99039","186 Tremont St, Boston, MA 02111","02111",42.3524366,-71.0643202,"186","Tremont Street","Boston","Massachusetts","02111"
"LB-612065","19-23 Hudson St, Boston, MA 02111","02111",42.3497805,-71.060454,"66","Hudson Street","Boston","Massachusetts","02111"
"LB-594303","45 Court St, Boston, MA 02108","02108",42.359148,-71.0591141,"40","Court Street","Boston","Massachusetts","02108"
"LB-611807","2 Drydock Ave, Boston, MA 02210","02210",42.3445088,-71.0386425,"","Drydock Avenue","Boston","Massachusetts","02210"
"LB-98905","88 Van Ness St, Boston, MA 02215","02215",42.3449777,-71.0998669,"92","Van Ness Street","Boston","Massachusetts","02115"
"LB-610495","546 Centre St, Jamaica Plain, MA 02130","02130",42.3087556,-71.1223939,"917","Centre Street","Boston","Massachusetts","02130"
"LB-485388","40 Trinity Place, Boston, MA 02116","02116",42.3484279,-71.0750133,"40","Trinity Place","Boston","Massachusetts","02116"
"LB-99425","888 Boylston St, Boston, MA 02199","02199",42.3480424,-71.082783,"888","Boylston Street","Boston","Massachusetts","02199"
"LB-99556","137 Brighton Ave, Allston, MA 02134","02134",42.353085,-71.1313186,"137","Brighton Avenue","Boston","Massachusetts","02134"
"LB-446754","1 East Pier Dr, East Boston, MA 02128","02128",42.3649637,-71.0415335,"1","East Pier Drive","Boston","Massachusetts","02128"
"LB-610850","1154-1156 Dorchester Ave, Dorchester, MA 02125","02125","","","","","","","None"
"LB-126649","Logan Airport Terminal B, East Boston, MA 02128","02128",42.364416,-71.0195614,"31","Logan Airport Terminal B","Boston","Massachusetts","02128"
"LB-418633","113 H St, South Boston, MA 02127","02127",42.3340395,-71.0416622,"111;113","H Street","Boston","Massachusetts","02127"
"LB-148028","0 Thompson Island, Boston, MA 02128","02128",42.3071308,-71.0103919,"","Thompson Island Path","Boston","Massachusetts","02171"
"LB-99356","81-91 Pier 4 Blvd, Boston, MA 02210","02210","","","","","","","None"
"LB-101905","890-896 Morton St, Mattapan, MA 02126","02126","","","","","","","None"
"LB-99245","500 Boylston St Boston, MA 02116","02116",42.3504303,-71.0739556,"500","Boylston Street","Boston","Massachusetts","02116"
"LB-98813","1391 River St, Hyde Park, MA 02136","02136",42.2541811,-71.1290718,"1391","River Street","Boston","Massachusetts","02136"
"LB-99057","658-660 E Broadway, South Boston, MA 02127","02127","","","","","","","None"
"LB-101886","540 Gallivan Blvd, Dorchester, MA 02122","02122",42.2830152,-71.0547044,"540","Gallivan Boulevard","Boston","Massachusetts","02122"
"LB-99315","3 Battery Wharf, Boston, MA 02109","02109",42.3673416,-71.0503884,"3","Battery Wharf","Boston","Massachusetts","02109"
"LB-609123","27 Northern Ave, Boston, MA 02210","02210",42.3534518,-71.0474273,"27","Northern Avenue","Boston","Massachusetts","02210"
"LB-609061","50-90 Pier 4 Blvd, Boston, MA 02210","02210","","","","","","","None"
"LB-99259","120 Beverly St, Boston, MA 02114","02114",42.3654433,-71.0595928,"97-115","Beverly Street","Boston","Massachusetts","02114"
"LB-99751","81-85 Guest St, Brighton, MA 02135","02135","","","","","","","None"
"LB-99229","150 Canal St, Boston, MA 02114","02114",42.3648417,-71.0607328,"150","Canal Street","Boston","Massachusetts","02114"
"LB-99251","255-257 Tremont St, Boston, MA 02116","02116",42.3435615,-71.0724028,"570","Tremont Street","Boston","Massachusetts","02118"
"LB-99432","1357 Washington St, Roxbury, MA 02118","02118",42.3329262,-71.0810342,"","Washington Street","Boston","Massachusetts","02118"
"LB-464464","38 Maverick Square, East Boston, MA 02128","02128",42.3700424,-71.0393039,"36,38","Maverick Square","Boston","Massachusetts","02128"
"LB-98812","1 South Station, Boston, MA 02110","02110",42.3485571,-71.058168,"","South Station Connector","Boston","Massachusetts","02284"
"LB-99041","425 Summer St, Boston, MA 02210","02210",42.3461583,-71.0433047,"425","Summer Street","Boston","Massachusetts","02210"
"LB-101619","500 Commonwealth Ave, Boston, MA 02215","02215",42.3485642,-71.0959729,"500","Commonwealth Avenue","Boston","Massachusetts","02215"
"LB-101887","500-520 Geneva Ave, Dorchester, MA 02122","02122",42.2985187,-71.0631598,"519,521","Geneva Avenue","Boston","Massachusetts","02124"
"LB-100129","625 American Legion Hwy, Roslindale, MA 02131","02131",42.2856051,-71.1109334,"625","American Legion Highway","Boston","Massachusetts","02131"
"LB-99157","27 Columbus Ave, Boston, MA 02116","02116",42.3474407,-71.0733054,"","Columbus Avenue","Boston","Massachusetts","02117"
"LB-99539","234-236 Newbury St, Boston, MA 02116","02116","","","","","","","None"
"LB-587125","2296-2306 Washington St, Roxbury, MA 02119","02119","","","","","","","None"
"LB-100093","465 Washington St, Dorchester, MA 02124","02124",42.2950618,-71.0723375,"465","Washington Street","Boston","Massachusetts","02124"
"LB-99793","123-125 Salem St, Boston, MA 02113","02113",42.364631,-71.0555266,"114","Salem Street","Boston","Massachusetts","02113"
"LB-99128","2201 Faneuil Hall Market Place, Boston, MA 02109","02109","","","","","","","None"
"LB-101625","110 Huntington Ave, Boston, MA 02116","02116",42.3472309,-71.0775836,"110","Huntington Avenue","Boston","Massachusetts","02116"
"LB-100094","695 Columbia Rd, Dorchester, MA 02125","02125",42.3199901,-71.0617387,"707","Columbia Road","Boston","Massachusetts","02125"
"LB-98893","71-79 Warrenton St, Boston, MA 02116","02116","","","","","","","None"
"LB-99764","565 Boylston St, Boston, MA 02116","02116",42.3506683,-71.0763672,"565","Boylston Street","Boston","Massachusetts","02116"
"LB-99058","734 E Broadway, South Boston, MA 02127","02127",42.3357939,-71.0362097,"728-734A","East Broadway","Boston","Massachusetts","02127"
"LB-99386","700 Boylston St., Boston, MA 02116","02116",42.3493298,-71.0786547,"700","Boylston Street","Boston","Massachusetts","02116"
"LB-605536","12 Derne St., Boston, MA 02114","02114",42.3595447,-71.063349,"12","Derne Street","Boston","Massachusetts","02114"
"LB-99294","12-18 LaGrange St, Boston, MA 02116","02116",42.3516057,-71.0637798,"55","LaGrange Street","Boston","Massachusetts","02111"
"LB-101174","413 Centre St., Jamaica Plain, MA 02130","02130",42.3215088,-71.1109022,"413","Centre Street","Boston","Massachusetts","02130"
"LB-101992","1229 Commonwealth Ave, Allston, MA 02134","02134",42.3504552,-71.1314891,"1229","Commonwealth Avenue","Boston","Massachusetts","02134"
"LB-606465","1443 Commonwealth Av., Brighton, MA 02135","02135",42.3488155,-71.1403863,"1443","Commonwealth Avenue","Boston","Massachusetts","02134"
"LB-606872","29-35 Temple Place, Boston, MA 02111","02111","","","","","","","None"
"LB-99034","30 Melcher St, Boston, MA 02210","02210",42.3495925,-71.0502372,"49","Melcher Street","Boston","Massachusetts","02210"
"LB-100205","115 Water St., Boston, MA 02109","02109",42.3580394,-71.0545938,"115,117","Water Street","Boston","Massachusetts","02109"
"LB-356763","29-35 Temple Place, Boston, MA 02111","02111","","","","","","","None"
"LB-605609","627 Tremont St.,  Roxbury, MA 02116","02116",42.3356687,-71.0869956,"","Tremont Street","Boston","Massachusetts","02115"
"LB-601424","1 First Ave, Charlestown, MA 02129","02129",42.3719234,-71.0513271,"1","First Avenue","Boston","Massachusetts","02129"
"LB-607096","71 - 75 W Broadway, South Boston, MA 02127","02127",42.3376545,-71.0490301,"368","West Broadway","Boston","Massachusetts","02127"
"LB-606874","373-375 W Broadway, South Boston, MA  02127","02127","","","","","","","None"
"LB-99252","268 Tremont St, Boston, MA 02116","02116",42.3435615,-71.0724028,"570","Tremont Street","Boston","Massachusetts","02118"
"LB-606692","1234 Columbus Av., Roxbury, MA 02120","02120",42.3284635,-71.0963827,"1234","Columbus Avenue","Boston","Massachusetts","02120"
"LB-607625","164 Brighton Av., Allston, MA 02134","02134",42.3529425,-71.1327768,"164","Brighton Avenue","Boston","Massachusetts","02134"
"LB-606268","484 Centre St., Jamaica Plain, MA 02130","02130",42.3185589,-71.1121538,"484","Centre Street","Boston","Massachusetts","02130"
"LB-100307","661 VFW Pw., Chestnut Hill, MA 02467","02467","","","","","","","None"
"LB-370669","397B W Broadway, South Boston, MA 02127","02127",42.3368734,-71.0487097,"397B","West Broadway","Boston","Massachusetts","02127"
"LB-494678","12 Brighton Ave, Allston, MA 02134","02134",42.3531573,-71.132895,"161","Brighton Avenue","Boston","Massachusetts","02134"
"LB-101153","150 Charles St., Boston, MA 02114","02114",42.3601077,-71.0709826,"150","Charles Street","Boston","Massachusetts","02114"
"LB-101237","1106 Boylston St., Boston, MA 02115","02115",42.3468331,-71.088552,"1106","Boylston Street","Boston","Massachusetts","02115"
"LB-606745","102 Waltham St., Roxbury, MA 02118","02118","","","","","","","None"
"LB-157964","772 Adams St, Dorchester, MA 02122","02122",42.2950981,-71.056235,"417","Adams Street","Boston","Massachusetts","02122"
"LB-606313","23 Dry Dock Av., Boston, MA 02210","02210","","","","","","","None"
"LB-555282","36 Harrison Ave, Boston, MA 02111","02111",42.3517707,-71.0609858,"36;38","Harrison Avenue","Boston","Massachusetts","02111"
"LB-561966","4228 Washington St., Roslindale, MA 02131","02131",42.2861791,-71.1280429,"4228;4230","Washington Street","Boston","Massachusetts","02131"
"LB-99421","401 D St, Boston, MA 02210","02210",42.343647,-71.0446391,"401-403","D Street","Boston","Massachusetts","02210"
"LB-370660","173 Newbury St., Boston, MA 02116","02116",42.3507162,-71.0792053,"173","Newbury Street","Boston","Massachusetts","02116"
"LB-99746","173 Massachusetts Ave, Boston, MA 02115","02115",42.3458732,-71.0874014,"173","Massachusetts Avenue","Boston","Massachusetts","02115"
"LB-606468","111  Brighton Av., Allston, MA 02134","02134",42.3529953,-71.1306217,"111","Brighton Avenue","Boston","Massachusetts","02134"
"LB-99650","527 Tremont St, Boston, MA 02116","02116",42.3435615,-71.0724028,"570","Tremont Street","Boston","Massachusetts","02118"
"LB-101966","1772 Dorchester Ave, Dorchester, MA 02124","02124",42.2897364,-71.0630618,"1772","Dorchester Avenue","Boston","Massachusetts","02124"
"LB-542604","500 Terminal Rd., East Boston, MA 02128","02128",42.3675505,-71.0182872,"400","Terminal Road","Boston","Massachusetts","02128"
"LB-99984","15 Westland Av., Boston, MA 02115","02115",42.3438923,-71.0872674,"15","Westland Avenue","Boston","Massachusetts","02115"
"LB-606805","107 State St., Boston, MA 02109","02109",42.3590745,-71.0549706,"107","State Street","Boston","Massachusetts","02109"
"LB-606873","29-35 Temple Place, Boston, MA 02111","02111","","","","","","","None"
"LB-100513","659 Centre St., Jamaica Plain, MA 02130","02130",42.3128481,-71.1144589,"659","Centre Street","Boston","Massachusetts","02130"
"LB-359625","24 District Av., Dorchester, MA 02125","02125",42.3254625,-71.0625426,"27","District Avenue","Boston","Massachusetts","02125"
"LB-99625","391 D St, Boston, MA 02210","02210",42.3429549,-71.0453482,"391-395","D Street","Boston","Massachusetts","02210"
"LB-101028","181 Cambridge St., Boston, MA 02114","02114",42.3620025,-71.0653418,"181","Cambridge Street","Boston","Massachusetts","02114"
"LB-547630","42 Beach St., Boston, MA 02111","02111",42.351589,-71.0609056,"42","Beach Street","Boston","Massachusetts","02111"
"LB-541579","1024 Massachusetts Ave, Roxbury, MA 02118","02118",42.3301551,-71.0697088,"927;929;931","Massachusetts Avenue","Boston","Massachusetts","02118"
"LB-447987","1420 - 1440 Soldiers Field Rd., Brighton, MA 02135","02135","","","","","","","None"
"LB-100849","631A  - 683 VFW Pw., Chestnut Hill, MA 02467","02467","","","","","","","None"
"LB-606747","371 W Broadway, South Boston, MA 02127","02127",42.3377689,-71.0495639,"371","West Broadway","Boston","Massachusetts","02127"
"LB-100165","64 Staniford St., Boston, MA 02114","02114",42.362842,-71.0641231,"64;66;68;70;72;74","Staniford Street","Boston","Massachusetts","02222"
"LB-607082","303 Meridian St, East Boston, Ma 02128","02128",42.3799816,-71.0392407,"391","Meridian Street","Boston","Massachusetts","02128"
"LB-606486","636 Beacon St., Boston, MA 02215","02215",42.3494682,-71.0952586,"636","Beacon Street","Boston","Massachusetts","02215"
"LB-101568","265 Tremont St, Boston, MA 02116","02116",42.3505047,-71.0656724,"263;265","Tremont Street","Boston","Massachusetts","97005"
"LB-169337","401 -  403 D St., Boston, MA 02210","02210",42.343647,-71.0446391,"401-403","D Street","Boston","Massachusetts","02210"
"LB-100333","375 Longwood Av., Boston, MA 02215","02215",42.340018,-71.1082765,"375","Longwood Avenue","Boston","Massachusetts","20052"
"LB-99238","51 Stuart Street, Boston, MA 02116","02116",42.3512385,-71.0641941,"51","Stuart Street","Boston","Massachusetts","02116"
"LB-99283","25 School St, Boston, MA 02108","02108",42.3576641,-71.0590082,"25","School Street","Boston","Massachusetts","02203"
"LB-605595","177 Saint Botolph St, Boston, MA 02115","02115",42.3431952,-71.0831608,"177","Saint Botolph Street","Boston","Massachusetts","02199"
"LB-582213","533 Commonwealth Ave, Boston, MA 02215","02215",42.3507045,-71.1115489,"","Commonwealth Avenue","Boston","Massachusetts","02215"
"LB-101611","71-73 Meridian St, East Boston, MA 02128","02128",42.3799816,-71.0392407,"391","Meridian Street","Boston","Massachusetts","02128"
"LB-605672","13 Buswell St, Boston, MA 02215","02215",42.3478482,-71.1050734,"","Harvard Street","Boston","Massachusetts","02215"
"LB-605591","162 Saint Botolph St, Boston, MA 02115","02115",42.3429418,-71.0828929,"162","Saint Botolph Street","Boston","Massachusetts","02199"
"LB-98912","1 Lincoln St, Boston, MA 02111","02111",42.3527552,-71.0584604,"1","Lincoln Street","Boston","Massachusetts","02111"
"LB-99169","53 Northern Ave, Boston, MA 02210","02210",42.3520026,-71.0437765,"85","Northern Avenue","Boston","Massachusetts","02210"
"LB-101849","399 West Broadway, South Boston, MA 02127","02127",42.3370518,-71.0486017,"397;399;401","West Broadway","Boston","Massachusetts","02127"
"LB-101923","1623 Tremont St, Boston, MA 02120","02120",42.3338956,-71.103449,"1623","Tremont Street","Boston","Massachusetts","02120"
"LB-98781","374-380 Commonwealth Ave, Boston, MA 02215","02215","","","","","","","None"
"LB-101954","280 Centre St, Jamaica Plain, MA 02130","02130",42.3226614,-71.1015966,"280","Centre Street","Boston","Massachusetts","02130"
"LB-101636","138-150 Saint James Ave, Boston, MA 02116","02116","","","","","","","None"
"LB-525498","470 Meridian St, East Boston, MA 02128","02128",42.3829903,-71.0396724,"468,470","Meridian Street","Boston","Massachusetts","02128"
"LB-99168","777 Boylston St, Boston, MA 02116","02116",42.3492918,-71.0814093,"777","Boylston Street","Boston","Massachusetts","02116"
"LB-605593","174 Saint Botolph St, Boston, MA 02115","02115",42.3426857,-71.0832037,"174","Saint Botolph Street","Boston","Massachusetts","02199"
"LB-99129","58-60 Long Wharf, Boston, MA 02110","02110",42.3599045,-71.0501009,"1","Long Wharf","Boston","Massachusetts","02129"
"LB-99328","2 Drydock Ave, Boston, MA 02210","02210",42.3445088,-71.0386425,"","Drydock Avenue","Boston","Massachusetts","02210"
"LB-605859","224 Newbury St, Boston, MA 02116","02116",42.3497364,-71.0811581,"224-A","Newbury Street","Boston","Massachusetts","02116"
"LB-99316","115 Federal St, Boston, MA 02110","02110",42.3561453,-71.056645,"30-36","Federal Street","Boston","Massachusetts","02110"
"LB-99404","399 Chestnut Hill Ave, Brighton, MA 02135","02135",42.3348494,-71.1502867,"399","Chestnut Hill Avenue","Boston","Massachusetts","02135"
"LB-102055","488 Centre St, Jamaica Plain, MA 02130","02130",42.3184835,-71.1122123,"488","Centre Street","Boston","Massachusetts","02130"
"LB-99162","22 Liberty Drive, Boston, MA 02210","02210",42.3545759,-71.0452627,"22","Liberty Drive","Boston","Massachusetts","02210"
"LB-99070","391 D St, Boston, MA 02210","02210",42.3429549,-71.0453482,"391-395","D Street","Boston","Massachusetts","02210"
"LB-605596","185 Saint Botolph St, Boston, MA 02115","02115",42.3430359,-71.0833535,"185","Saint Botolph Street","Boston","Massachusetts","02199"
"LB-605364","102 Waltham St, Boston, MA 02118","02118",42.3428337,-71.0701786,"66","Waltham Street","Boston","Massachusetts","02118"
"LB-605351","709 East Broadway, South Boston, MA 02127","02127",42.3354805,-71.0370145,"709","East Broadway","Boston","Massachusetts","02127"
"LB-99094","3 Harvard Ave, Allston, MA 02134","02134",42.3552418,-71.1328691,"3","Harvard Avenue","Boston","Massachusetts","02134"
"LB-605669","126 Bay State Rd, Boston, MA 02215","02215",42.3500003,-71.0989783,"126","Bay State Road","Boston","Massachusetts","02215"
"LB-606086","288 Washington St, Brighton, MA 02135","02135",42.3486219,-71.150458,"288","Washington Street","Boston","Massachusetts","02135"
"LB-605592","164 Saint Botolph St, Boston, MA 02115","02115",42.3428895,-71.0829268,"164","Saint Botolph Street","Boston","Massachusetts","02199"
"LB-99007","1 International Place, Boston, MA 02110","02110",42.3557866,-71.0521134,"1","Purchase Street","Boston","Massachusetts","02110"
"LB-99680","1100 Boylston St, Boston, MA 02115","02115",42.3468089,-71.0884618,"1108;1100","Boylston Street","Boston","Massachusetts","02115"
"LB-604772","400 Newbury St, Boston, MA 02115","02115",42.3477243,-71.0886043,"","","Boston","Massachusetts","02115"
"LB-605594","172 Saint Botolph St, Boston, MA 02115","02115",42.342718,-71.0831356,"172","Saint Botolph Street","Boston","Massachusetts","02199"
"LB-99069","40 Court St, Boston, MA 02108","02108",42.3589365,-71.0592762,"40","Court Street","Boston","Massachusetts","02108"
"LB-353145","371 Dorchester Ave, South Boston, MA 02127","02127",42.3356288,-71.0580535,"371","Dorchester Avenue","Boston","Massachusetts","02127"
"LB-603681","9 District Ave, Dorchester, MA 02125","02125",42.3254625,-71.0625426,"27","District Avenue","Boston","Massachusetts","02125"
"LB-99350","286 Hanover St, Boston, MA 02113","02113",42.3639661,-71.0545475,"284,286","Hanover Street","Boston","Massachusetts","02113"
"LB-603679","48 Blue Hill Ave, Roxbury, MA 02119","02119",42.3204289,-71.0777465,"133","Blue Hill Avenue","Boston","Massachusetts","02119"
"LB-603676","926 Morton St, Dorchester, MA 02124","02124",42.2760531,-71.0743885,"1130","Morton Street","Boston","Massachusetts","02124"
"LB-603680","336 Newbury St, Boston, MA 02115","02115",42.3482979,-71.086494,"334","Newbury Street","Boston","Massachusetts","02115"
"LB-101635","400 Soldiers Field Rd, Allston, MA 02134","02134",42.3602992,-71.1181585,"400","Soldiers Field Road","Boston","Massachusetts","02134"
"LB-101867","225-227 Cambridge St, Allston, MA 02134","02134",42.3548604,-71.1343425,"417;419;421;423;425;427;429;431;433","Cambridge Street","Boston","Massachusetts","02134"
"LB-99779","89 Charles St, Boston, MA 02114","02114",42.358592,-71.0705091,"89","Charles Street","Boston","Massachusetts","02114"
"LB-98811","150-152 Commonwealth Ave, Boston, MA 02116","02116","","","","","","","None"
"LB-101663","119 Merrimac St, Boston, MA 02114","02114",42.3638891,-71.0633291,"","Merrimac Street","Boston","Massachusetts","02222"
"LB-603706","533-545 Commonwealth Ave, Boston, MA 02215","02215","","","","","","","None"
"LB-603744","702 Washington St, Boston, MA 02111","02111",42.3510772,-71.0628588,"702","Washington Street","Boston","Massachusetts","02111"
"LB-604354","400 Newbury St, Boston, MA 02115","02115",42.3477243,-71.0886043,"","","Boston","Massachusetts","02115"
"LB-131728","27 Harbor Point Blvd, Dorchester, MA 02125","02125",42.3192667,-71.0429056,"","Harbor Point Boulevard","Boston","Massachusetts","02127"
"LB-603690","1750 Washington St, Roxbury, MA 02118","02118",42.3329262,-71.0810342,"","Washington Street","Boston","Massachusetts","02118"
"LB-603611","80 Boylston St, Boston, MA 02116","02116",42.3520163,-71.0650278,"76,78,80,82,84","Boylston Street","Boston","Massachusetts","02116"
"LB-603763","280 Shawmut Ave, Roxbury, MA 02118","02118",42.3371017,-71.0784027,"539","Shawmut Avenue","Boston","Massachusetts","02118"
"LB-603766","1 Harborside Drive, East Boston, MA 02128","02128",42.3611052,-71.0247381,"1","Harborside Drive","Boston","Massachusetts","02128"
"LB-603404","280 Western Ave, Allston, MA 02134","02134",42.3629943,-71.1342279,"280","Western Avenue","Boston","Massachusetts","02134"
"LB-601428","720A-720 Shawmut Ave, Roxbury, MA 02119","02119","","","","","","","None"
"LB-601427","809-811 Harrison Ave, Boston, MA 02118","02118","","","","","","","None"
"LB-601425","296 Washington St, Brighton, MA 02135","02135",42.3512152,-71.1694072,"648","Washington Street","Boston","Massachusetts","02135"
"LB-98793","326 Washington St, Brighton, MA 02135","02135",42.3488192,-71.1520174,"326","Washington Street","Boston","Massachusetts","02135"
"LB-601401","258 W Fifth St, South Boston, MA 02127","02127",42.3354842,-71.0490962,"258","West Fifth Street","Boston","Massachusetts","02127"
"LB-601426","563 Columbus Ave, Boston, MA 02118","02118",42.3411163,-71.0814058,"563","Columbus Avenue","Boston","Massachusetts","02118"
"LB-601455","1078 Dorchester Ave, Dorchester, MA 02125","02125",42.2875487,-71.0900606,"1078","Blue Hill Avenue","Boston","Massachusetts","02124"
"LB-99791","322-328 Washington St, Boston, MA 02108","02108","","","","","","","None"
"LB-102054","32 Bennington St, East Boston, MA 02128","02128",42.3753905,-71.0378445,"32;34","Bennington Street","Boston","Massachusetts","02128"
"LB-495217","200 Logan Airport Terminal B, East Boston, MA 02128","02128",42.364416,-71.0195614,"31","Logan Airport Terminal B","Boston","Massachusetts","02128"
"LB-601418","40 W Third St, South Boston, MA 02127","02127",42.3388831,-71.0488173,"235","West Third Street","Boston","Massachusetts","02127"
"LB-601416","40 W Third St, South Boston, MA 02127","02127",42.3388831,-71.0488173,"235","West Third Street","Boston","Massachusetts","02127"
"LB-99834","77 Seaport Blvd, Boston, MA 02210","02210",42.3520455,-71.0465655,"77","Seaport Boulevard","Boston","Massachusetts","02210"
"LB-599543","2306 Washington St, Roxbury, MA 02119","02119",42.3158813,-71.0982345,"3064","Washington Street","Boston","Massachusetts","02119"
"LB-598595","43-61 Pier 4 Blvd, Boston, MA 02210","02210","","","","","","","None"
"LB-599561","175 N. Harvard St, Allston, MA 02134","02134",42.3641571,-71.1293351,"175","North Harvard Street","Boston","Massachusetts","02163"
"LB-98847","44 Commonwealth Ave, Boston, MA 02116","02116",42.3527603,-71.0733515,"44","Commonwealth Avenue","Boston","Massachusetts","02116"
"LB-599562","355 Bennington St, East Boston, MA 02128","02128",42.3793682,-71.0259848,"355","Bennington Street","Boston","Massachusetts","02128"
"LB-138437","18 Tremont St, Boston, MA 02108","02108",42.3588311,-71.0596792,"18","Tremont Street","Boston","Massachusetts","02108"
"LB-99831","78-80 Salem St, Boston, MA 02113","02113",42.364631,-71.0555266,"114","Salem Street","Boston","Massachusetts","02113"
"LB-139452","569-575 Columbus Ave, Boston, MA 02118","02118","","","","","","","None"
"LB-99133","224-226 Market St, Brighton, MA 02135","02135","","","","","","","None"
"LB-599523","63 Franklin St, Boston, MA 02110","02110",42.355335,-71.0585975,"59,63","Franklin Street","Boston","Massachusetts","02110"
"LB-153841","207 Maverick St, East Boston, MA 02128","02128",42.3717603,-71.0426195,"","Maverick Street","Boston","Massachusetts","02128"
"LB-599554","539 Tremont St, Boston, MA 02116","02116",42.3447601,-71.071426,"539","Tremont Street","Boston","Massachusetts","02116"
"LB-599551","100 Western Ave, Allston, MA 02134","02134",42.3631369,-71.1316343,"212;230","Western Avenue","Boston","Massachusetts","02134"
"LB-599529","1001 Boylston St, Boston, MA 02215","02215",42.3474002,-71.0884602,"400","Newbury Street","Boston","Massachusetts","02215"
"LB-599026","1203 Dorchester Ave, Dorchester, MA 02125","02125",42.3173451,-71.0567193,"981","Dorchester Avenue","Boston","Massachusetts","02125"
"LB-575004","39 First Ave, Charlestown, MA 02129","02129",42.3757492,-71.0531038,"","Chelsea Street","Boston","Massachusetts","02129"
"LB-598072","381 Centre St, Jamaica Plain, MA 02130","02130",42.3223412,-71.1092763,"381","Centre Street","Boston","Massachusetts","02130"
"LB-99166","175 Temont St, Boston, MA 02111","02111","","","","","","","None"
"LB-597998","108 Lincoln St, Boston, MA 02111","02111",42.3515792,-71.0581293,"108","Lincoln Street","Boston","Massachusetts","02111"
"LB-598405","90 Van Ness St, Boston, MA 02215","02215",42.3449777,-71.0998669,"92","Van Ness Street","Boston","Massachusetts","02115"
"LB-598009","269-271 Meridian St, East Boston, MA 02128","02128",42.3799816,-71.0392407,"391","Meridian Street","Boston","Massachusetts","02128"
"LB-99242","429 W Broadway, South Boston, MA 02127","02127",42.3362671,-71.0474628,"429;431","West Broadway","Boston","Massachusetts","02127"
"LB-597503","1001 Boylston St, Boston, MA 02215","02215",42.3474002,-71.0884602,"400","Newbury Street","Boston","Massachusetts","02215"
"LB-98981","11 W Broadway, South Boston, MA 02127","02127",42.3424489,-71.0567145,"11","West Broadway","Boston","Massachusetts","02127"
"LB-99216","60 Seaport Blvd, Boston, MA 02210","02210",42.3529334,-71.0469809,"60","Seaport Boulevard","Boston","Massachusetts","02210"
"LB-598021","1415 Tremont St, Mission Hill, MA 02120","02120",42.3338184,-71.1037788,"1631","Tremont Street","Boston","Massachusetts","02120"
"LB-99244","100 Peterborough St, Boston, MA 02215","02215",42.3430238,-71.0993993,"100","Peterborough Street","Boston","Massachusetts","02215"
"LB-99632","381 Centre St, Jamaica Plain, MA 02130","02130",42.3223412,-71.1092763,"381","Centre Street","Boston","Massachusetts","02130"
"LB-99352","100 Legends Way, Boston, MA 02114","02114",42.3657428,-71.0624257,"100","Legends Way","Boston","Massachusetts","02114"
"LB-349572","25 District Ave, Dorchester, MA 02125","02125",42.3257458,-71.0621649,"25","District Avenue","Boston","Massachusetts","02125"
"LB-101650","89 Broad St, Boston, MA 02110","02110",42.3573743,-71.052889,"89","Broad Street","Boston","Massachusetts","02110"
"LB-597972","301 Adams St, Dorchester, MA 02122","02122",42.2950981,-71.056235,"417","Adams Street","Boston","Massachusetts","02122"
"LB-99035","1310 Dorchester Ave, Dorchester, MA 02122","02122",42.2973827,-71.0610034,"1565","Dorchester Avenue","Boston","Massachusetts","02122"
"LB-101660","425 Summer St, Boston, MA 02210","02210",42.3461583,-71.0433047,"425","Summer Street","Boston","Massachusetts","02210"
"LB-598023","1211 Dorchester Ave, Dorchester, MA 02125","02125",42.30996,-71.0587597,"1211","Dorchester Avenue","Boston","Massachusetts","02125"
"LB-101570","100 Arlington St, Boston, MA 02116","02116",42.3500184,-71.0696298,"100","Arlington Street","Boston","Massachusetts","02116"
"LB-99388","324 A St., Boston, MA 02210","02210",42.3493416,-71.0496394,"324","A Street","Boston","Massachusetts","02210"
"LB-596687","1395 - 1405 Washington St., Roxbury, MA 02118","02118","","","","","","","None"
"LB-155715","3710A Washington St., Jamaica Plain, MA 02130","02130","","","","","","","None"
"LB-596679","873 South St., Roslindale, MA 02131","02131",42.2889846,-71.1338312,"873","South Street","Boston","Massachusetts","02131"
"LB-387124","10 Temple Pl., Boston, MA 02111","02111",42.3554974,-71.0623776,"10","Temple Place","Boston","Massachusetts","02111"
"LB-540101","157 Brighton Av., Allston, MA 02134","02134",42.353286,-71.1323436,"157","Brighton Avenue","Boston","Massachusetts","02134"
"LB-596653","606 Centre St., Jamaica Plain, MA 02130","02130",42.3144887,-71.1139106,"606","Centre Street","Boston","Massachusetts","02130"
"LB-596693","3531 Washington St., Jamaica Plain, MA 02130","02130",42.3053331,-71.1088099,"3531","Washington Street","Boston","Massachusetts","02130"
"LB-99452","30 Rowes Wharf, Boston, MA 02110","02110",42.3571387,-71.0507043,"30","Rowes Wharf","Boston","Massachusetts","02110"
"LB-596016","1010 William T Morrissey Blvd, Dorchester, MA 02122","02122",42.2884076,-71.0442162,"995","William T. Morrissey Boulevard","Boston","Massachusetts","02122"
"LB-596096","311 Summer St, Boston, MA 02210","02210",42.349301,-71.0489389,"323-329","A Street","Boston","Massachusetts","02210"
"LB-162572","346 Hanover St, Boston, MA 02113","02113",42.365,-71.0534074,"346","Hanover Street","Boston","Massachusetts","02113"
"LB-596585","130 Tremont St, Boston, MA 02111","02111",42.3560879,-71.0620971,"58","Winter Street","Boston","Massachusetts","02108"
"LB-99330","50B Dalton St, Boston, MA 02115","02115",42.3473409,-71.0853024,"","Massachusetts Turnpike","Boston","Massachusetts","02199"
"LB-596573","223 Newbury St, Boston, MA 02116","02116",42.3500537,-71.0816069,"223","Newbury Street","Boston","Massachusetts","02116"
"LB-546003","3840 Washington St, Roslindale, MA 02131","02131",42.2970053,-71.1166897,"3840","Washington Street","Boston","Massachusetts","02130"
"LB-596045","154 Maverick St, East Boston, MA 02128","02128",42.3699087,-71.0379066,"154","Maverick Street","Boston","Massachusetts","02128"
"LB-595024","480-490 Harrison Ave, Boston, MA","None","","","","","","","None"
"LB-101647","1 Seaport Lane, Boston, MA 02210","02210",42.3494924,-71.0412442,"1","Seaport Lane","Boston","Massachusetts","02210"
"LB-596551","660B Centre St, Jamaica Plain, MA 02130","02130",42.3127361,-71.1139939,"660B","Centre Street","Boston","Massachusetts","02130"
"LB-98787","7-8 Park St Boston, MA 02108","02108",42.357097,-71.0626133,"5","Park Street","Boston","Massachusetts","02108"
"LB-99546","288 Hanover St, Boston, MA 02113","02113",42.36401,-71.0545011,"288,288A","Hanover Street","Boston","Massachusetts","02113"
"LB-98889","3 Appleton St, Boston, MA 02116","02116",42.3467455,-71.0696785,"1;3","Appleton Street","Boston","Massachusetts","02117"
"LB-596091","175 Newbury St, Boston, MA 02116","02116",42.3506946,-71.0792873,"175","Newbury Street","Boston","Massachusetts","02116"
"LB-596042","154 Maverick St, East Boston, MA 02128","02128",42.3699087,-71.0379066,"154","Maverick Street","Boston","Massachusetts","02128"
"LB-596018","14A Hudson St, Boston, MA 02111","02111",42.3497805,-71.060454,"66","Hudson Street","Boston","Massachusetts","02111"
"LB-595701","1010 William T Morrissey Blvd, Dorchester, MA 02122","02122",42.2884076,-71.0442162,"995","William T. Morrissey Boulevard","Boston","Massachusetts","02122"
"LB-594990","50 Northern Ave, Boston, MA 02210","02210",42.3535931,-71.0461764,"50","Northern Avenue","Boston","Massachusetts","02210"
"LB-98891","225 Northern Ave, Boston, MA 02210","02210",42.3484812,-71.0386608,"225","Northern Avenue","Boston","Massachusetts","02210"
"LB-595036","704 E Broadway, South Boston, MA 02127","02127",42.3358087,-71.0372606,"700-704","East Broadway","Boston","Massachusetts","02127"
"LB-100320","301 Warren St, Roxbury, MA 02119","02119",42.3203413,-71.0822694,"301","Warren Street","Boston","Massachusetts","02119"
"LB-595045","1746-1752 Washington St, Boston, MA 02118","02118","","","","","","","None"
"LB-595181","70 Pier 4 Blvd, Boston, MA 02210","02210","","","","","","","None"
"LB-595032","376 Warren St, Roxbury, MA 02119","02119",42.3180395,-71.0816675,"376","Warren Street","Boston","Massachusetts","02119"
"LB-99188","232 Old Colony Ave, South Boston, MA 02127","02127",42.3323256,-71.0533001,"232","Old Colony Avenue","Boston","Massachusetts","01125"
"LB-595074","257 W Broadway, South Boston, MA 02127","02127",42.3376545,-71.0490301,"368","West Broadway","Boston","Massachusetts","02127"
"LB-99652","40 Harrison Ave, Boston, MA 02111","02111",42.3516471,-71.0610302,"40,42,44","Harrison Avenue","Boston","Massachusetts","02111"
"LB-99322","94-160 Guest St, Brighton, MA 02135","02135","","","","","","","None"
"LB-595198","777 Boylston St, Boston, MA 02116","02116",42.3492918,-71.0814093,"777","Boylston Street","Boston","Massachusetts","02116"
"LB-595031","40 Franklin St, Boston, MA 02110","02110",42.3557586,-71.0587515,"40","Franklin Street","Boston","Massachusetts","02110"
"LB-101659","25-29 Charles St, Boston, MA 02108","02108",42.3569147,-71.069653,"25-29","Charles Street","Boston","Massachusetts","02114"
"LB-334563","842 Beacon St, Boston, MA 02215","02215",42.3464645,-71.1059639,"910","Beacon Street","Boston","Massachusetts","02215"
"LB-128574","146-146A Tremon T Boston, MA 02111","02111","","","","","","","None"
"LB-595016","61 Salem St. Boston, MA 02113","02113",42.3631967,-71.0560442,"61","Salem Street","Boston","Massachusetts","02113"
"LB-5670","","None","","","","","","","None"
"LB-595019","595 Tremont St, Roxbury, MA 02118","02118",42.3356687,-71.0869956,"","Tremont Street","Boston","Massachusetts","02115"
"LB-595508","851 Beacon St, Boston, MA 02215","02215",42.3467838,-71.1035541,"","Harvard Street","Boston","Massachusetts","02215"
"LB-481086","232 Old Colony Ave, South Boston, MA 02127","02127",42.3323256,-71.0533001,"232","Old Colony Avenue","Boston","Massachusetts","01125"
"LB-595598","191 W Atlantic Ave, Boston, MA 02110","02110",42.3601996,-71.0524197,"191W","Atlantic Avenue","Boston","Massachusetts","02110"
"LB-593664","91 Sprague St, Hyde Park, MA 02136","02136",42.2351686,-71.1402506,"91","Sprague Street","Boston","Massachusetts","02136"
"LB-99191","58 Pier 4 Blvd, Boston, MA 02210","02210","","","","","","","None"
"LB-593663","169 Harvard Ave, Allston, MA 02134","02134",42.3513539,-71.1317379,"169","Harvard Avenue","Boston","Massachusetts","02134"
"LB-98975","100 Legends Way, Boston, MA 02114","02114",42.3657428,-71.0624257,"100","Legends Way","Boston","Massachusetts","02114"
"LB-593661","116 Salem St, Boston, MA 02113","02113",42.364631,-71.0555266,"114","Salem Street","Boston","Massachusetts","02113"
"LB-99756","5 Copley Place, Boston, MA 02116","02116","","","","","","","None"
"LB-593597","1135 Harrison Ave, Roxbury, MA 02119","02119",42.3302231,-71.0823058,"1135","Harrison Avenue","Boston","Massachusetts","02119"
"LB-593698","336 Sumner St, East Boston, MA 02128","02128",42.3672898,-71.035729,"336","Sumner Street","Boston","Massachusetts","02128"
"LB-101634","1 Hotel Drive, East Boston, MA 02128","02128",42.3673817,-71.0228001,"1","Hotel Drive","Boston","Massachusetts","02128"
"LB-99318","Location: 70  Pier 4 Bl Boston, MA  02210","02210","","","","","","","None"
"LB-99609","70 Pier 4 Blvd, Boston, MA 02210","02210","","","","","","","None"
"LB-101657","155 Portland St, Boston, MA 02114","02114",42.3642031,-71.0613475,"155","Portland Street","Boston","Massachusetts","02114"
"LB-593662","762 Adams St, Dorchester, MA 02122","02122",42.2837404,-71.0553084,"762","Adams Street","Boston","Massachusetts","02122"
"LB-99206","50 Park Plaza, Boston, MA 02116","02116",42.3509619,-71.0696163,"50","Park Plaza","Boston","Massachusetts","02116"
"LB-101654","207 Porter St, East Boston, MA 02128","02128",42.3701473,-71.0318328,"207","Porter Street","Boston","Massachusetts","02128"
"LB-98925","505 Congress St, Boston, MA 02210","02210",42.3480229,-71.0412999,"505","Congress Street","Boston","Massachusetts","02210"
"LB-593791","65 Atlantic Ave, Boston, MA 02110","02110",42.362888,-71.0512112,"65","Atlantic Avenue","Boston","Massachusetts","02110"
"LB-98974","100 Legends Way, Boston, MA 02114","02114",42.3657428,-71.0624257,"100","Legends Way","Boston","Massachusetts","02114"
"LB-593758","506-512A Park Drive, Boston, MA 02215","02215","","","","","","","None"
"LB-593697","170 South St, Jamaica Plain, MA 02130","02130",42.3039684,-71.1145147,"170-174","South Street","Boston","Massachusetts","02130"
"LB-593692","1001 Boylston St, Boston, MA 02215","02215",42.3474002,-71.0884602,"400","Newbury Street","Boston","Massachusetts","02215"
"LB-99178","3 North Square, Boston, MA 02113","02113",42.3640694,-71.0533173,"3","North Square","Boston","Massachusetts","02113"
"LB-593736","48 Corinth St, Roslindale, MA 02131","02131",42.2859787,-71.129188,"48","Corinth Street","Boston","Massachusetts","02131"
"LB-99417","9 Park St, Boston, MA 02108","02108",42.3576412,-71.0629056,"9","Park Street","Boston","Massachusetts","02108"
"LB-358431","2 Belgrade Ave, Roslindale, MA 02131","02131",42.286908,-71.1301096,"2","Belgrade Avenue","Boston","Massachusetts","02131"
"LB-99331","100 Legends Way, Boston, MA 02114","02114",42.3657428,-71.0624257,"100","Legends Way","Boston","Massachusetts","02114"
"LB-592817","3141 Washington St, Jamaica Plain, MA 02130","02130",42.3141555,-71.1002035,"3141","Washington Street","Boston","Massachusetts","02130"
"LB-99247","525 Tremont St, Boston, MA 02116","02116",42.3446217,-71.0709205,"525","Tremont Street","Boston","Massachusetts","02116"
"LB-592818","300 Warren St, Roxbury, MA 02119","02119",42.3178057,-71.0821958,"","Warren Street","Boston","Massachusetts","02119"
"LB-99616","101-103 Brighton Ave, Allston, MA 02134","02134",42.3531573,-71.132895,"161","Brighton Avenue","Boston","Massachusetts","02134"
"LB-98933","65 Exeter St, Boston, MA 02199","02199",42.3490394,-71.0794633,"65","Exeter Street","Boston","Massachusetts","02116"
"LB-99788","512 Commonwealth Ave, Boston, MA 02215","02215",42.3507045,-71.1115489,"","Commonwealth Avenue","Boston","Massachusetts","02215"
"LB-592854","657 Washington St, Dorchester, MA 02124","02124",42.2779856,-71.0694936,"992","Washington Street","Boston","Massachusetts","02124"
"LB-592801","571-575 Washington St, Brighton, MA 02135","02135","","","","","","","None"
"LB-101622","61-69 Exeter St, Boston, MA 02199","02199","","","","","","","None"
"LB-592796","1595-1609 Blue Hill Ave, Mattapan, MA 02126","02126","","","","","","","None"
"LB-592810","388 Blue Hill Ave, Dorchester, MA 02121","02121",42.3113821,-71.0808655,"388","Blue Hill Avenue","Boston","Massachusetts","02121"
"LB-540090","2 Avenue de Lafayette, Boston, MA 02111","02111",42.353684,-71.0612964,"2","Avenue De Lafayette","Boston","Massachusetts","02111"
"LB-592816","1200 Tremont St, Boston, MA 02120","02120",42.3327489,-71.1007407,"1548;1550","Tremont Street","Boston","Massachusetts","02120"
"LB-99267","103 Porter St, East Boston, MA 02128","02128",42.3698556,-71.0297018,"222","Porter Street","Boston","Massachusetts","02128"
"LB-98961","115 Stuart St, Boston, MA 02116","02116",42.351257,-71.0650021,"115","Stuart Street","Boston","Massachusetts","02116"
"LB-98890","100  Atlantic Ave, Boston, MA 02110","02110",42.3546439,-71.0516469,"470","Atlantic Avenue","Boston","Massachusetts","02110"
"LB-99218","4 Liberty Sq, Boston, MA 02109","02109",42.3580404,-71.0547256,"4","Liberty Square","Boston","Massachusetts","02109"
"LB-492559","260 E Eighth St, South Boston, MA 02127","02127",42.3314086,-71.0394625,"550","East Eighth Street","Boston","Massachusetts","02127"
"LB-99366","26 Exeter St, Boston, MA 02116","02116",42.3506427,-71.0797122,"","Public Alley 434","Boston","Massachusetts","02116"
"LB-590956","198 Humboldt Ave, Dorchester, MA 02121","02121","","","","","","","None"
"LB-590954","432 Geneva Ave, Dorchester, MA  02122","02122",42.2985187,-71.0631598,"519,521","Geneva Avenue","Boston","Massachusetts","02124"
"LB-98946","777-793 Boylston St, Boston, MA 02116","02116","","","","","","","None"
"LB-98945","761 Boylston St, Boston, MA 02116","02116",42.3493465,-71.0812032,"761","Boylston Street","Boston","Massachusetts","02116"
"LB-99634","205-207 Newbury St, Boston, MA 02116","02116",42.350232,-71.0809431,"205-207","Newbury Street","Boston","Massachusetts","02116"
"LB-99184","270 Northern Ave, Boston, MA 02210","02210",42.3486714,-71.0377691,"260;270","Northern Avenue","Boston","Massachusetts","02210"
"LB-99426","604 Columbus Ave, Roxbury, MA 02118","02118",42.3311252,-71.0946996,"1234","Columbus Avenue","Boston","Massachusetts","02120"
"LB-101944","175-179 Wolcott Square, Hyde Park, MA 02136","02136","","","","","","","None"
"LB-99298","6 W Broadway, South Boston, MA 02127","02127",42.3432243,-71.0569734,"6","West Broadway","Boston","Massachusetts","02127"
"LB-591051","567 Bennington St, East Boston, MA 02128","02128",42.3824987,-71.0181506,"567","Bennington Street","Boston","Massachusetts","02128"
"LB-590358","1301-1305 Boylston St, Boston, MA 02215","02215","","","","","","","None"
"LB-590408","1102 Washington St, Boston, MA 02118","02118",42.3441831,-71.0655817,"1102","Washington Street","Boston","Massachusetts","02118"
"LB-98916","255 State St, Boston, MA 02110","02110",42.3593913,-71.0510643,"255","State Street","Boston","Massachusetts","02110"
"LB-590359","1301-1305 Boylston St, Boston, MA 02215","02215","","","","","","","None"
"LB-590360","1301-1305 Boylston St, Boston, MA 02215","02215","","","","","","","None"
"LB-590354","1301-1305 Boylston St, Boston, MA 02215","02215","","","","","","","None"
"LB-101973","330 Newbury St, Boston, MA 02115","02115",42.3483506,-71.0862624,"330","Newbury Street","Boston","Massachusetts","02115"
"LB-590940","471 W Broadway, South Boston, MA 02127","02127",42.3355799,-71.0461966,"471","West Broadway","Boston","Massachusetts","02127"
"LB-100642","163 Old Colony Av., South Boston, MA 02127","02127",42.3340363,-71.0550394,"163","Old Colony Avenue","Boston","Massachusetts","01125"
"LB-463565","306 Northern Av., Boston, MA 02210","02210",42.3471071,-71.0341176,"306","Northern Avenue","Boston","Massachusetts","02210"
"LB-516903","737 Huntington Av., Boston, MA 02115","02115",42.3421227,-71.0856638,"","Huntington Avenue","Boston","Massachusetts","02115"
"LB-99665","212 - 222 Stuart St., Boston, MA 02116","02116","","","","","","","None"
"LB-98955","161 - 165 Brighton Av., Allston, MA 02134","02134",42.3531573,-71.132895,"161","Brighton Avenue","Boston","Massachusetts","02134"
"LB-314275","199 N. Harvard St., Allston, MA 02134","02134",42.3634369,-71.130034,"199","North Harvard Street","Boston","Massachusetts","02134"
"LB-101894","303 Huntington Av., Boston, MA 02115","02115",42.3413019,-71.0873115,"303;305;307","Huntington Avenue","Boston","Massachusetts","02115"
"LB-101621","40 Dalton St., Boston, MA 02115","02115",42.3464136,-71.0851372,"40","Dalton Street","Boston","Massachusetts","02215"
"LB-589188","961 Commonwealth Av., Boston, MA 02215","02215",42.3520884,-71.1191029,"961","Commonwealth Avenue","Boston","Massachusetts","02215"
"LB-99763","14 Hudson St., Boston, MA 02111","02111",42.3497805,-71.060454,"66","Hudson Street","Boston","Massachusetts","02111"
"LB-587880","284 Amory St, Jamaica Plain, MA 02130","02130",42.3144172,-71.1040271,"284","Amory Street","Boston","Massachusetts","02130"
"LB-99686","350-352 Hanover St, Boston, MA 02113","02113",42.3639956,-71.0542732,"290-296","Hanover Street","Boston","Massachusetts","02113"
"LB-587892","1410 Centre St, Roslindale, MA 02131","02131",42.2939487,-71.1361806,"1410","Centre Street","Boston","Massachusetts","02131"
"LB-101871","71-75 Canal St, Boston, MA 02114","02114",42.3645013,-71.0600577,"104,108","Canal Street","Boston","Massachusetts","02114"
"LB-99019","498 Commonwealth Ave, Boston, MA 02215","02215",42.3507045,-71.1115489,"","Commonwealth Avenue","Boston","Massachusetts","02215"
"LB-589038","77 Summer St, Boston, MA 02111","02111",42.3540798,-71.0588133,"75,77,79","Summer Street","Boston","Massachusetts","02111"
"LB-587870","103 State St, Boston, MA 02109","02109",42.359398,-71.0532633,"175","State Street","Boston","Massachusetts","02109"
"LB-101851","108 Blue Hill Ave, Roxbury, MA 02119","02119",42.3204289,-71.0777465,"133","Blue Hill Avenue","Boston","Massachusetts","02119"
"LB-162511","253 Summer St, Boston, MA 02210","02210",42.3504753,-71.051246,"","Summer Street","Boston","Massachusetts","02205"
"LB-587869","283 Tremont St, Boston, MA 02116","02116",42.3496701,-71.0655801,"283","Tremont Street","Boston","Massachusetts","02116"
"LB-588304","986 Blue Hill Ave, Dorchester, MA 02124","02124","","","","","","","None"
"LB-588316","13 Meridian St, East Boston, MA 02128","02128",42.3706043,-71.0387471,"13,15","Meridian Street","Boston","Massachusetts","02128"
"LB-101250","168 Western Ave, Allston, MA 02134","02134",42.3628852,-71.1284047,"168","Western Avenue","Boston","Massachusetts","02134"
"LB-142890","11-17 Bennington St, East Boston, MA 02128","02128",42.3852178,-71.0112134,"740","Bennington Street","Boston","Massachusetts","02128"
"LB-98808","0 Rice St, East Boston, MA 02128","02128","","","","","","","None"
"LB-99516","145 Charles St, Boston, MA 02114","02114",42.3603766,-71.0706361,"145","Charles Street","Boston","Massachusetts","02114"
"LB-99126","75 Northern Ave, Boston, MA 02210","02210",42.3523127,-71.0452956,"75","Northern Avenue","Boston","Massachusetts","02210"
"LB-101640","275 Tremont St, Boston, MA 02116","02116",42.3500364,-71.0656381,"275","Tremont Street","Boston","Massachusetts","02116"
"LB-587130","789 Adams St, Dorchester, MA 02124","02124",42.283202,-71.0559319,"789","Adams Street","Boston","Massachusetts","02124"
"LB-102013","739 Park St, Mission Hill, MA 02120","02120","","","","","","","None"
"LB-587119","289 Devonshire St, Boston, MA 02110","02110",42.3541606,-71.0579374,"289,291","Devonshire Street","Boston","Massachusetts","02110"
"LB-98792","24 Washington St, Dorchester, MA 02121","02121",42.3032014,-71.0784065,"","Washington Street","Boston","Massachusetts","02121"
"LB-99387","132 Brookline Ave, Boston, MA 02215","02215",42.345085,-71.1005241,"132","Brookline Avenue","Boston","Massachusetts","02215"
"LB-100606","692 Columbia Rd, Dorchester, MA 02125","02125",42.320208,-71.0624825,"692","Columbia Road","Boston","Massachusetts","02125"
"LB-99210","65-67 Maverick Sq, East Boston, MA 02128","02128",42.3695141,-71.0391337,"41","Maverick Square","Boston","Massachusetts","02128"
"LB-587134","100 Arlington St, Boston, MA 02116","02116",42.3500184,-71.0696298,"100","Arlington Street","Boston","Massachusetts","02116"
"LB-584345","59 Meridian St, East Boston, MA 02128","02128",42.3717506,-71.038814,"59","Meridian Street","Boston","Massachusetts","02128"
"LB-98915","558 Washington  St, Boston, MA 02111","02111",42.353697,-71.0621541,"558","Washington Street","Boston","Massachusetts","02111"
"LB-99785","665 Boylston St, Boston, MA 02116","02116",42.3500248,-71.0787676,"665","Boylston Street","Boston","Massachusetts","02116"
"LB-101935","356 Washington St, Brighton, MA 02135","02135",42.3512152,-71.1694072,"648","Washington Street","Boston","Massachusetts","02135"
"LB-565890","45 Broad St, Boston, MA 02109","02109",42.3581855,-71.0543971,"41,43,45","Broad Street","Boston","Massachusetts","02109"
"LB-584369","361 Hanover St, Boston, MA 02113","02113",42.3646474,-71.0533924,"361","Hanover Street","Boston","Massachusetts","02113"
"LB-99068","112 Canal St, Boston, MA 02114","02114",42.3643761,-71.0605041,"112","Canal Street","Boston","Massachusetts","02222"
"LB-584375","1 Harborside Drive, East Boston, MA 02128","02128",42.3611052,-71.0247381,"1","Harborside Drive","Boston","Massachusetts","02128"
"LB-584372","1894 Centre St, West Roxbury, MA 02132","02132",42.2797633,-71.1586754,"2064","Centre Street","Boston","Massachusetts","02132"
"LB-584646","1234 Columbus Ave, Roxbury, MA 02120","02120",42.3284635,-71.0963827,"1234","Columbus Avenue","Boston","Massachusetts","02120"
"LB-584634","1114 Boylston St, Boston, MA 02115","02115",42.346782,-71.0886933,"1114","Boylston Street","Boston","Massachusetts","02215"
"LB-100024","944 Bennington St, East Boston, MA 02128","02128",42.3861986,-71.0096919,"944","Bennington Street","Boston","Massachusetts","02128"
"LB-202196","1004  Bennington St, East Boston, MA 02128","02128",42.3868844,-71.0067874,"1004","Bennington Street","Boston","Massachusetts","02128"
"LB-584097","78 Arlington Ave, Charlestown, MA 02129","02129",42.3871841,-71.0750043,"78","Arlington Avenue","Boston","Massachusetts","02145"
"LB-584086","964 Saratoga St, East Boston, MA 02128","02128",42.3871787,-71.0086006,"964","Saratoga Street","Boston","Massachusetts","02128"
"LB-584080","432 Geneva Ave, Dorchester, MA 02122","02122",42.2985187,-71.0631598,"519,521","Geneva Avenue","Boston","Massachusetts","02124"
"LB-584070","102 Meridian St, East Boston, MA 02128","02128",42.3727313,-71.0392539,"102","Meridian Street","Boston","Massachusetts","02128"
"LB-584103","474 Shawmut Ave, Roxbury, MA  02118","02118",42.3385645,-71.0759106,"474","Shawmut Avenue","Boston","Massachusetts","02118"
"LB-532151","6 Tremont St, Brighton, MA 02135","02135",42.3505623,-71.1686813,"2","Tremont Street","Boston","Massachusetts","02135"
"LB-584447","15 Necco St, Boston, MA 02210","02210",42.3490753,-71.0515638,"15","Necco Street","Boston","Massachusetts","02205"
"LB-582324","2 Perkins St, Jamaica Plain, MA 02130","02130",42.3217903,-71.1104649,"2","Perkins Street","Boston","Massachusetts","02130"
"LB-99800","121 Seaport Blvd, Boston, MA 02210","02210",42.3508234,-71.0446509,"113;121;129","Seaport Boulevard","Boston","Massachusetts","02210"
"LB-101857","740-742 Blue Hill Ave, Dorchester, MA 02121","02121","","","","","","","None"
"LB-583877","254 Bennington St, East Boston, MA 02128","02128",42.3786116,-71.0293682,"254;256","Bennington Street","Boston","Massachusetts","02128"
"LB-583839","654 Centre St, Jamaica Plain, MA 02130","02130",42.3130254,-71.1139436,"654","Centre Street","Boston","Massachusetts","02130"
"LB-583884","191 Talbot Ave, Dorchester, MA 02124","02124",42.2918769,-71.0776513,"215","Talbot Avenue","Boston","Massachusetts","02124"
"LB-98978","1410-1420 Centre St, Roslindale, MA 02131","02131","","","","","","","None"
"LB-583907","147 Brighton Ave, Allston, MA 02134","02134",42.3531363,-71.1317298,"147","Brighton Avenue","Boston","Massachusetts","02134"
"LB-583866","333 Border St, East Boston, MA 02128","02128",42.3790099,-71.0398691,"331;333;335","Border Street","Boston","Massachusetts","02128"
"LB-583841","1301 Blue Hill Ave, Mattapan, MA 02126","02126",42.2858277,-71.0910166,"","Blue Hill Avenue","Boston","Massachusetts","02126"
"LB-126366","1238 River St, Hyde Park, MA 02136","02136",42.2535401,-71.1294832,"1409","River Street","Boston","Massachusetts","02136"
"LB-99493","88 Sleeper St, Boston, MA 02210","02210",42.3537458,-71.0487048,"88","Sleeper Street","Boston","Massachusetts","02210"
"LB-99120","15-41 Lansdowne St, Boston, MA 02215","02215","","","","","","","None"
"LB-98788","1 Morrell St, West Roxbury, MA 02132","02132",42.2733954,-71.1684535,"26","Morrell Street","Boston","Massachusetts","02132"
"LB-581007","800 Boylston St Boston, MA 02199","02199",42.3471804,-71.0811146,"800","Boylston Street","Boston","Massachusetts","02199"
"LB-582370","4249 Washington St, Roslindale, MA 02131","02131",42.2856827,-71.1291403,"4249","Washington Street","Boston","Massachusetts","02131"
"LB-582381","10 - 18 Bowdoin St, Dorchester, MA 02121","02121",42.3037124,-71.0709991,"141","Bowdoin Street","Boston","Massachusetts","02122"
"LB-99498","18 Corinth St, Roslindale, MA 02131","02131",42.2864509,-71.1298209,"18","Corinth Street","Boston","Massachusetts","02131"
"LB-582320","1410-1420 Centre St, Roslindale, MA 02131","02131","","","","","","","None"
"LB-582291","565 Sumner St, East Boston, MA 02128","02128",42.3639106,-71.0284498,"565","Sumner Street","Boston","Massachusetts","02128"
"LB-99359","85 Causeway St, Boston, MA 02114","02114",42.364582,-71.0624441,"85","Causeway Street","Boston","Massachusetts","02114"
"LB-139226","326 Sumner St, East Boston, MA 02128","02128",42.3643282,-71.0292329,"545","Sumner Street","Boston","Massachusetts","02128"
"LB-99118","22 LaGrange St, Boston, MA 02116","02116",42.3514253,-71.0634268,"22","LaGrange Street","Boston","Massachusetts","02116"
"LB-99603","130 Columbus Ave, Boston, MA 02116","02116",42.3474407,-71.0733054,"","Columbus Avenue","Boston","Massachusetts","02117"
"LB-99170","27 Clinton St, Boston, MA 02109","02109",42.3605749,-71.0549748,"27,28","Clinton Street","Boston","Massachusetts","02109"
"LB-99521","355 Hanover, St, Boston, MA 02113","02113","","","","","","","None"
"LB-99274","120 John F. Fitzgerald Surface Rd, Boston, MA 02109","02109",42.3618617,-71.0558355,"","John F. Fitzgerald Surface Road","Boston","Massachusetts","02109"
"LB-581005","800 Boylston St Boston, MA 02199","02199",42.3471804,-71.0811146,"800","Boylston Street","Boston","Massachusetts","02199"
"LB-99223","776 Boylston St, Boston, MA 02199","02199",42.3486759,-71.0816572,"776","Boylston Street","Boston","Massachusetts","02116"
"LB-102024","165 Belgrade Ave, Roslindale, MA 02131","02131",42.2860182,-71.1463011,"355","Belgrade Avenue","Boston","Massachusetts","02131"
"LB-581006","800 Boylston St Boston, MA 02199","02199",42.3471804,-71.0811146,"800","Boylston Street","Boston","Massachusetts","02199"
"LB-582328","86 Peterborough St, Boston, MA 02215","02215",42.3431499,-71.0989337,"86","Peterborough Street","Boston","Massachusetts","02215"
"LB-98996","67-91 Guest St, Brighton, MA 02135","02135",42.3571736,-71.146395,"40","Guest Street","Boston","Massachusetts","02135"
"LB-98917","200 Dartmouth St, Boston, MA 02116","02116",42.3488075,-71.0770784,"200","Dartmouth Street","Boston","Massachusetts","02116"
"LB-99755","762 Adams St, Dorchester, MA 02122","02122",42.2837404,-71.0553084,"762","Adams Street","Boston","Massachusetts","02122"
"LB-99576","667 E Broadway, South Boston, MA 02127","02127",42.3353808,-71.0378708,"667","East Broadway","Boston","Massachusetts","02127"
"LB-581520","204 Hanover St, Boston, MA 02113","02113",42.3639956,-71.0542732,"290-296","Hanover Street","Boston","Massachusetts","02113"
"LB-431061","1 Lovejoy Wharf, Boston, MA 02114","02114",42.3675944,-71.0593511,"1","Lovejoy Wharf","Boston","Massachusetts","02114"
"LB-99282","374 Congress St, Boston, MA 02210","02210",42.3500535,-71.0473357,"374","Congress Street","Boston","Massachusetts","02210"
"LB-98993","17 Union St, Boston, MA 02108","02108",42.3609067,-71.0567086,"17,21","Union Street","Boston","Massachusetts","02109"
"LB-99353","135 William T. Morrissey Blvd, Dorchester, MA 02125","02125",42.3156809,-71.0497589,"135","William T. Morrissey Boulevard","Boston","Massachusetts","02125"
"LB-581512","260 Bowdoin St, Dorchester, MA 02122","02122",42.3067763,-71.0666769,"260,264A","Bowdoin Street","Boston","Massachusetts","02125"
"LB-581511","Logan Airport Terminal C, East Boston, MA 02128","02128",42.3671734,-71.0179369,"1","Harborside Drive","Boston","Massachusetts","02128"
"LB-580947","1950 Washington St, Roxbury, MA 02118","02118",42.3329262,-71.0810342,"","Washington Street","Boston","Massachusetts","02118"
"LB-581522","85 Harvard Ave, Allston, MA 02134","02134",42.3535045,-71.1323534,"85","Harvard Avenue","Boston","Massachusetts","02134"
"LB-99104","465 Huntington Ave, Boston, MA 02115","02115",42.3392277,-71.0932497,"465","Huntington Avenue","Boston","Massachusetts","20052"
"LB-581524","204 Tremont St, Boston, MA 02116","02116",42.3435615,-71.0724028,"570","Tremont Street","Boston","Massachusetts","02118"
"LB-99712","116 Salem St, Boston MA, 02113","02113",42.364631,-71.0555266,"114","Salem Street","Boston","Massachusetts","02113"
"LB-580950","358-364 Hanover St, Boston, MA 02113","02113","","","","","","","None"
"LB-580946","264 Hyde Park Ave, Jamaica Plain, MA 02130","02130",42.2925352,-71.1175141,"262","Hyde Park Avenue","Boston","Massachusetts","02130"
"LB-99023","1391 Boylston St, Boston, MA 02215","02215",42.3441473,-71.0994082,"1350","Boylston Street","Boston","Massachusetts","02215"
"LB-98896","29-31 Austin St, Charlestown, MA 02129","02129",42.374134,-71.0682334,"","Austin Street","Boston","Massachusetts","02129"
"LB-580952","235A Newbury St, Boston, MA 02116","02116","","","","","","","None"
"LB-99204","107 Salem St, Boston, MA 02113","02113",42.3641676,-71.0553799,"107","Salem Street","Boston","Massachusetts","02113"
"LB-580953","89 Charles St, Boston, MA 02114","02114",42.358592,-71.0705091,"89","Charles Street","Boston","Massachusetts","02114"
"LB-580951","11 Parmenter St, Boston, MA 02113","02113",42.36394,-71.0550749,"20","Parmenter Street","Boston","Massachusetts","02113"
"LB-580948","75 Northern Ave, Boston, MA 02210","02210",42.3523127,-71.0452956,"75","Northern Avenue","Boston","Massachusetts","02210"
"LB-98810","70-80 Talbot Ave, Dorchester, MA 02124","02124",42.2939687,-71.0837106,"70-80","Talbot Avenue","Boston","Massachusetts","02124"
"LB-101906","32 Myrtle St, Boston, MA 02114","02114",42.3592653,-71.0657434,"32","Myrtle Street","Boston","Massachusetts","02114"
"LB-580949","18 Tremont St, Boston, MA 02108","02108",42.3588311,-71.0596792,"18","Tremont Street","Boston","Massachusetts","02108"
"LB-579057","120 Causeway St, Boston, MA 02114","02114",42.3658693,-71.0610763,"120","Causeway Street","Boston","Massachusetts","02114"
"LB-578476","699 Boylston St, Boston, MA 02116","02116",42.3496554,-71.0793002,"699","Boylston Street","Boston","Massachusetts","02116"
"LB-574901","1501 Dorchester Ave, Dorchester, MA 02122","02122",42.2973827,-71.0610034,"1565","Dorchester Avenue","Boston","Massachusetts","02122"
"LB-578145","1012 Bennington St, East Boston, MA 02128","02128",42.3852178,-71.0112134,"740","Bennington Street","Boston","Massachusetts","02128"
"LB-578142","973 Saratoga St, East Boston, MA 02128","02128",42.381444,-71.0234113,"587","Saratoga Street","Boston","Massachusetts","02128"
"LB-578143","3484 Washington St, Jamaica Plain, MA 02130","02130",42.3064549,-71.1072315,"3484","Washington Street","Boston","Massachusetts","02130"
"LB-99144","25 West St, Boston, MA 02111","02111",42.3549485,-71.0625313,"33,35","West Street","Boston","Massachusetts","02111"
"LB-163968","8 Summer St, Boston, MA 02110","02110",42.3554512,-71.0600046,"8","Summer Street","Boston","Massachusetts","02110"
"LB-578144","1231 River St, Hyde Park, MA 02136","02136",42.2561487,-71.1229106,"1231-1237","River Street","Boston","Massachusetts","02136"
"LB-578134","403A Centre St, Jamaica Plain, MA 02130","02130",42.3216052,-71.1103005,"403A","Centre Street","Boston","Massachusetts","02130"
"LB-98927","40 W Third St, South Boston, MA 02127","02127",42.3388831,-71.0488173,"235","West Third Street","Boston","Massachusetts","02127"
"LB-99444","1918 Dorchester Ave, Dorchester, MA 02124","02124",42.2838236,-71.0646286,"1918","Dorchester Avenue","Boston","Massachusetts","02124"
"LB-578128","2193 Commonwealth Ave, Brighton, MA 02135","02135",42.3463029,-71.1412151,"1515","Commonwealth Avenue","Boston","Massachusetts","02135"
"LB-99646","204 Tremont St, Boston, MA 02116","02116",42.3435615,-71.0724028,"570","Tremont Street","Boston","Massachusetts","02118"
"LB-99187","70 Sleeper St, Boston, MA 02210","02210",42.353879,-71.0482573,"70","Sleeper Street","Boston","Massachusetts","02210"
"LB-578146","1 Franklin Park Rd, Jamaica Plain, MA 02121","02121","","","","","","","None"
"LB-99640","50 Northern Ave, Boston, MA 02210","02210",42.3535931,-71.0461764,"50","Northern Avenue","Boston","Massachusetts","02210"
"LB-578141","3094 Washington St, Roxbury, MA 02119","02119",42.3158813,-71.0982345,"3064","Washington Street","Boston","Massachusetts","02119"
"LB-98983","710A-712 Centre St, Jamaica Plain, MA 02130","02130","","","","","","","None"
"LB-576201","500 Boylston St, Boston, MA 02116","02116",42.3504303,-71.0739556,"500","Boylston Street","Boston","Massachusetts","02116"
"LB-101985","1721 Washington St, Roxbury, MA 02118","02118",42.3329262,-71.0810342,"","Washington Street","Boston","Massachusetts","02118"
"LB-99365","406 Stuart St, Boston, MA 02116","02116",42.3488696,-71.0740539,"406","Stuart Street","Boston","Massachusetts","02116"
"LB-577220","98 Salem St, Boston, MA 02113","02113",42.3640332,-71.0557061,"98","Salem Street","Boston","Massachusetts","02113"
"LB-482851","Logan Airport, Terminal E, East Boston, MA 02128","02128","","","","","","","None"
"LB-99346","142 Berkeley St, Boston, MA 02116","02116",42.3524635,-71.0736472,"260","Berkeley Street","Boston","Massachusetts","02116"
"LB-577222","1184 Hyde Park Ave, Hyde Park, MA 02136","02136",42.2582797,-71.1233212,"1182;1184;1192","Hyde Park Avenue","Boston","Massachusetts","02137"
"LB-577242","37 Charles St, Boston, MA 02114","02114",42.3573051,-71.0697478,"37","Charles Street","Boston","Massachusetts","02114"
"LB-102021","1090 Commonwealth Ave, Boston, MA 02215","02215",42.3518736,-71.1240546,"1090","Commonwealth Avenue","Boston","Massachusetts","02134"
"LB-101975","35 W Milton St, Hyde Park, MA 02136","02136",42.2399588,-71.1414393,"35","West Milton Street","Boston","Massachusetts","02136"
"LB-99321","173-179 Portland St, Boston, MA 02114","02114",42.3648592,-71.0623587,"","Portland Street","Boston","Massachusetts","02222"
"LB-577122","1301 Blue Hill Ave, Mattapan, MA 02126","02126",42.2858277,-71.0910166,"","Blue Hill Avenue","Boston","Massachusetts","02126"
"LB-575867","43-61 Pier 4 Blvd, Boston, MA 02210","02210","","","","","","","None"
"LB-447985","165 D St, South Boston, MA 02127","02127",42.3366603,-71.0531527,"165","D Street","Boston","Massachusetts","01125"
"LB-577182","244 Meridian St, East Boston, MA 02128","02128",42.3759401,-71.0392901,"244","Meridian Street","Boston","Massachusetts","02128"
"LB-99305","22-26 W Broadway, South Boston, MA 02127","02127",42.3376545,-71.0490301,"368","West Broadway","Boston","Massachusetts","02127"
"LB-577217","93-95 Salem St, Boston, MA 02113","02113",42.364631,-71.0555266,"114","Salem Street","Boston","Massachusetts","02113"
"LB-576010","1041 Saratoga St, East Boston, MA 02128","02128",42.381444,-71.0234113,"587","Saratoga Street","Boston","Massachusetts","02128"
"LB-577208","567 Washington St, Brighton, MA 02135","02135",42.3512152,-71.1694072,"648","Washington Street","Boston","Massachusetts","02135"
"LB-99197","272 Boylston St, Boston, MA 02116","02116",42.3499207,-71.0779805,"640","Boylston Street","Boston","Massachusetts","02116"
"LB-577211","264 Huntington Ave, Boston, MA 02115","02115",42.2688532,-71.1177645,"264","Huntington Avenue","Boston","Massachusetts","02137"
"LB-99555","250 Huntington Ave, Boston, MA 02115","02115",42.3421227,-71.0856638,"","Huntington Avenue","Boston","Massachusetts","02115"
"LB-100377","500 Geneva Ave, Dorchester, MA 02122","02122",42.299241,-71.062748,"500","Geneva Avenue","Boston","Massachusetts","02122"
"LB-445209","102-110 Savin Hill Ave, Dorchester, MA 02125","02125",42.3118754,-71.0537955,"102-110","Savin Hill Avenue","Boston","Massachusetts","02125"
"LB-99165","267-269 Newbury St, Boston, MA 02116","02116",42.3505265,-71.0783948,"160","Newbury Street","Boston","Massachusetts","02116"
"LB-574247","401 Park Drive, Boston, MA 02215","02215",42.3440899,-71.1030535,"401","Park Drive","Boston","Massachusetts","02215"
"LB-99702","221 Hanover St, Boston, MA 02113","02113",42.3628165,-71.055248,"221","Hanover Street","Boston","Massachusetts","02113"
"LB-574154","164-170 Sumner St, East Boston, MA 02128","02128","","","","","","","None"
"LB-529346","500 Terminal Rd, East Boston, MA 02128","02128",42.3675505,-71.0182872,"400","Terminal Road","Boston","Massachusetts","02128"
"LB-99005","326-328 Commercial St, Boston, MA 02109","02109","","","","","","","None"
"LB-574563","298-300 Newbury St, Boston, MA 02115","02115",42.3487284,-71.0849057,"298-300","Newbury Street","Boston","Massachusetts","02115"
"LB-99671","256 Marginal St, East Boston, MA 02128","02128",42.3610786,-71.0351583,"","Alna Place","Boston","Massachusetts","02128"
"LB-573368","16 Brighton Ave, Allston, MA 02134","02134",42.3521033,-71.1258728,"16","Brighton Avenue","Boston","Massachusetts","02134"
"LB-574808","250 Seaver St, Dorchester, MA 02121","02121","","","","","","","None"
"LB-99674","75 Kneeland St, Boston, MA 02111","02111",42.350222,-71.060605,"75","Kneeland Street","Boston","Massachusetts","02111"
"LB-99825","383 Dorchester Ave, South Boston, MA 02127","02127",42.3349506,-71.0575918,"383","Dorchester Avenue","Boston","Massachusetts","02127"
"LB-559084","100 Legends Way, Boston, MA 02114","02114",42.3657428,-71.0624257,"100","Legends Way","Boston","Massachusetts","02114"
"LB-101639","196-200 Stuart St, Boston, MA 02116","02116","","","","","","","None"
"LB-349883","26 Ericsson St, Dorchester, MA 02122","02122",42.291784,-71.0402002,"26","Ericsson Street","Boston","Massachusetts","02122"
"LB-574260","350-352 Hanover St, Boston, MA 02113","02113",42.3639956,-71.0542732,"290-296","Hanover Street","Boston","Massachusetts","02113"
"LB-99443","131 State St, Boston, MA 02109","02109",42.3591655,-71.0541539,"131","State Street","Boston","Massachusetts","02109"
"LB-574267","15 William C Kelly Square, East Boston, MA 02128","02128","","","","","","","None"
"LB-574242","26 Ericsson St, Dorchester, MA 02122","02122",42.291784,-71.0402002,"26","Ericsson Street","Boston","Massachusetts","02122"
"LB-309815","51A Massachusetts Ave, Boston, MA 02115","02115",42.3462064,-71.0872039,"160","Massachusetts Avenue","Boston","Massachusetts","02215"
"LB-574955","966 Dorchester Ave, Dorchester, MA 02125","02125",42.3173451,-71.0567193,"981","Dorchester Avenue","Boston","Massachusetts","02125"
"LB-99748","308 Hanover St, Boston, MA 02113","02113",42.3642993,-71.0540953,"308","Hanover Street","Boston","Massachusetts","02113"
"LB-572966","192 Sumner St, East Boston, MA 02128","02128",42.3692619,-71.0401455,"190H,192","Sumner Street","Boston","Massachusetts","02128"
"LB-99202","222 Berkeley St, Boston, MA 02116","02116",42.3507002,-71.0734028,"222","Berkeley Street","Boston","Massachusetts","02116"
"LB-572334","133 Seaport Blvd, Boston MA, 02210","02210",42.3526687,-71.0475604,"55,57","Seaport Boulevard","Boston","Massachusetts","02210"
"LB-387106","340 Centre St, Jamaica Plain, MA 02130","02130",42.3087556,-71.1223939,"917","Centre Street","Boston","Massachusetts","02130"
"LB-99338","408 Newbury St, Boston, MA 02115","02115",42.3479344,-71.0887258,"408","Newbury Street","Boston","Massachusetts","02115"
"LB-98909","100 Hood Park Drive, Charlestown, MA 02129","02129",42.3794515,-71.073175,"100","Hood Park Drive","Boston","Massachusetts","02129"
"LB-572943","220-230 Columbia Rd, Dorchester, MA 02121","02121","","","","","","","None"
"LB-99676","1301 Boylston St, Boston, MA 02215","02215",42.3447447,-71.0983895,"","Boylston Street","Boston","Massachusetts","02215"
"LB-99131","85-87 Main St, Charlestown, MA 02129","02129",42.3783324,-71.0679676,"315","Main Street","Boston","Massachusetts","02129"
"LB-573361","912 Beacon St, Boston, MA 02215","02215",42.3466874,-71.1061893,"912","Beacon Street","Boston","Massachusetts","02215"
"LB-99103","14 David G Mugar Way, Boston, MA 02114","02114",42.3607926,-71.0712831,"14","David G. Mugar Way","Boston","Massachusetts","02114"
"LB-98904","110 Huntington Ave, Boston, MA 02116","02116",42.3472309,-71.0775836,"110","Huntington Avenue","Boston","Massachusetts","02116"
"LB-99369","126 Brookline Ave, Boston, MA 02215","02215",42.345344,-71.1000226,"122;126;130","Brookline Avenue","Boston","Massachusetts","02215"
"LB-572564","295 Huntington Ave, Boston, MA 02115","02115",42.3421227,-71.0856638,"","Huntington Avenue","Boston","Massachusetts","02115"
"LB-99643","21A Beacon St, Boston, MA 02108","02108",42.3561278,-71.0698034,"69","Beacon Street","Boston","Massachusetts","02108"
"LB-571369","815 Columbus Ave, Boston, MA 02118","02118",42.3460751,-71.0749751,"","Columbus Avenue","Boston","Massachusetts","02117"
"LB-98964","145 Ipswich St, Boston, MA 02215","02215",42.3474257,-71.0943647,"145","Ipswich Street","Boston","Massachusetts","02215"
"LB-353633","101 Seaport Blvd, Boston, MA 02210","02210",42.3512252,-71.0453952,"101","Seaport Boulevard","Boston","Massachusetts","02210"
"LB-99268","1430 VFW Parkway, West Roxbury, MA 02132","02132",42.2709134,-71.171842,"","Veterans of Foreign Wars Parkway","Boston","Massachusetts","02132"
"LB-99325","60 Seaport Blvd, Boston MA 02210","02210",42.3529334,-71.0469809,"60","Seaport Boulevard","Boston","Massachusetts","02210"
"LB-99150","76 Guest St, Brighton, MA 02135","02135",42.3570707,-71.1443609,"76","Guest Street","Boston","Massachusetts","02135"
"LB-571922","52 High St, Boston, MA 02110","02110",42.3540824,-71.0557685,"52","High Street","Boston","Massachusetts","02110"
"LB-476499","35 - 45 Lewis St, East Boston, MA 02128","02128","","","","","","","None"
"LB-99333","50A Dalton St, Boston, MA 02115","02115",42.3473409,-71.0853024,"","Massachusetts Turnpike","Boston","Massachusetts","02199"
"LB-98950","1 Franklin St, Boston, MA 02110","02110",42.3555958,-71.059424,"1","Franklin Street","Boston","Massachusetts","02110"
"LB-570350","33 North Square, Boston, MA 02113","02113",42.3635068,-71.0538624,"33","North Square","Boston","Massachusetts","02113"
"LB-568816","101 Arch St, Boston, MA 02110","02110",42.3550299,-71.05928,"93-101","Arch Street","Boston","Massachusetts","02110"
"LB-570847","313 Old Colony Ave, South Boston, MA 02127","02127",42.3290037,-71.0520943,"","Old Colony Avenue","Boston","Massachusetts","01125"
"LB-570339","299 Hancock St, Dorchester, MA 02125","02125",42.3082087,-71.0586785,"299","Hancock Street","Boston","Massachusetts","02122"
"LB-99287","25 Thomson Place, Boston, MA 02210","02210",42.3509722,-71.0473039,"25","Thomson Place","Boston","Massachusetts","02210"
"LB-98992","1321 Boylston St, Boston, MA 02215","02215",42.3444645,-71.0990561,"1321","Boylston Street","Boston","Massachusetts","02215"
"LB-99092","1122 Boylston St, Boston, MA 02215","02215",42.346712,-71.0888286,"1122","Boylston Street","Boston","Massachusetts","02115"
"LB-101859","213 Bowdoin St, Dorchester, MA 02122","02122",42.3069933,-71.0661865,"277","Bowdoin Street","Boston","Massachusetts","02122"
"LB-99246","69 Bromfield St, Boston, MA 02108","02108",42.3569556,-71.0607521,"53,55","Bromfield Street","Boston","Massachusetts","02108"
"LB-99308","240 Tremont St, Boston, MA 02116","02116",42.350885,-71.0645925,"240","Tremont Street","Boston","Massachusetts","02116"
"LB-480058","32 Cambridge St, Charlestown, MA 02129","02129",42.3839455,-71.0741487,"24","Cambridge Street","Boston","Massachusetts","02129"
"LB-569775","120 Boston St, Dorchester, MA 02125","02125",42.3085487,-71.0772206,"120","Devon Street","Boston","Massachusetts","02121"
"LB-569504","316 Newbury St, Boston, MA 02115","02115",42.3486116,-71.0854119,"316","Newbury Street","Boston","Massachusetts","02115"
"LB-99161","1001 Boylston St, Boston, MA 02215","02215",42.3474002,-71.0884602,"400","Newbury Street","Boston","Massachusetts","02215"
"LB-567244","2 Tremont St, Brighton, MA 02135","02135",42.3504633,-71.1683539,"2","Tremont Street","Boston","Massachusetts","02135"
"LB-99655","1045 Saratoga St, East Boston, MA 02128","02128",42.3859487,-71.0051106,"1045","Saratoga Street","Boston","Massachusetts","02128"
"LB-99136","367-371 Neponset Ave, Dorchester, MA 02122","02122","","","","","","","None"
"LB-173813","800 Boylston St, Boston, MA 02199","02199",42.3471718,-71.0825069,"800","Boylston Street","Boston","Massachusetts","02199"
"LB-99783","552 Tremont St, Roxbury, MA 02118","02118",42.3356687,-71.0869956,"","Tremont Street","Boston","Massachusetts","02115"
"LB-303392","280 Friend St, Boston, MA 02114","02114",42.3648354,-71.0617215,"101-111","Causeway Street","Boston","Massachusetts","02114"
"LB-336497","1514 Blue Hill Ave, Mattapan, MA 02126","02126",42.2723357,-71.0932558,"1514","Blue Hill Avenue","Boston","Massachusetts","02126"
"LB-98901","21 Beacon St, Boston, MA 02108","02108",42.3582087,-71.0623806,"21","Beacon Street","Boston","Massachusetts","02108"
"LB-99601","302 Centre St, Jamaica Plain, MA 02130","02130",42.3227037,-71.1032487,"302","Centre Street","Boston","Massachusetts","02120"
"LB-567239","160 Federal St, Boston, MA 02110","02110",42.3539605,-71.0560442,"160","Federal Street","Boston","Massachusetts","02110"
"LB-99457","1-3 Center Plaza, Boston, MA 02108","02108",42.3601998,-71.0608833,"1,2,3","Center Plaza","Boston","Massachusetts","02108"
"LB-568411","89 Salem St, Boston, MA 02113","02113",42.3637403,-71.0556792,"89","Salem Street","Boston","Massachusetts","02113"
"LB-401642","105 Chelsea St, East Boston, MA 02128","02128",42.3724412,-71.0354826,"105","Chelsea Street","Boston","Massachusetts","02128"
"LB-99459","600 Harrison Ave, Roxbury, MA 02118","02118",42.3320639,-71.0793557,"","Harrison Avenue","Boston","Massachusetts","02118"
"LB-567250","980 Saratoga St, East Boston, MA 02128","02128",42.3870108,-71.0071759,"980,982","Saratoga Street","Boston","Massachusetts","02128"
"LB-566967","334 E Eighth St, South Boston, MA 02127","02127",42.3313252,-71.0475882,"334","East Eighth Street","Boston","Massachusetts","02127"
"LB-101897","1253 Hyde Park Ave, Hyde Park, MA 02136","02136",42.256235,-71.1242514,"1253","Hyde Park Avenue","Boston","Massachusetts","02136"
"LB-567232","767 Centre St, Jamaica Plain, MA 02130","02130",42.3101744,-71.1152764,"767","Centre Street","Boston","Massachusetts","02130"
"LB-357778","47 Farnsworth St, Boston, MA 02210","02210",42.3521823,-71.0475699,"47-53","Farnsworth Street","Boston","Massachusetts","02210"
"LB-99633","87 Glenville Ave, Allston, MA 02134","02134",42.3495554,-71.1349974,"87","Glenville Avenue","Boston","Massachusetts","02134"
"LB-568382","25 Tyler St, Boston, MA 02111","02111",42.3507232,-71.0609733,"25","Tyler Street","Boston","Massachusetts","02111"
"LB-101618","22-28 Chandler St, Boston, MA 02116","02116","","","","","","","None"
"LB-562465","41 Anderson St, Boston, MA 02114","02114",42.3598437,-71.0679116,"41","Anderson Street","Boston","Massachusetts","02114"
"LB-566489","305 Guest St, Brighton, MA 02134","02134",42.355681,-71.1399912,"305","Guest Street","Boston","Massachusetts","02135"
"LB-352398","25 Harbor Shore Dr, Boston, MA 02210","02210",42.3528651,-71.0429628,"25","Harbor Shore Drive","Boston","Massachusetts","02210"
"LB-566504","1084 Boylston St, Boston, MA 02215","02215",42.3469152,-71.0880639,"1084","Boylston Street","Boston","Massachusetts","02115"
"LB-202268","2001 Washington St, Roxbury, MA 02120","02120",42.3337741,-71.081637,"2001","Washington Street","Boston","Massachusetts","02119"
"LB-565071","1260 Boylston St, Boston, MA 02215","02215",42.3447479,-71.0959609,"1260","Boylston Street","Boston","Massachusetts","02215"
"LB-511744","1263 River St, Hyde Park, MA 02136","02136",42.2560139,-71.1237614,"1263","River Street","Boston","Massachusetts","02136"
"LB-565079","1260 Boylston St, Boston, MA 02215","02215",42.3447479,-71.0959609,"1260","Boylston Street","Boston","Massachusetts","02215"
"LB-99719","48 Temple Place, Boston, MA 02111","02111",42.3552159,-71.0616211,"48,50","Temple Place","Boston","Massachusetts","02111"
"LB-99458","14-20 Linden St, Allston, MA 02134","02134",42.3554923,-71.1306195,"14-20","Linden Street","Boston","Massachusetts","02134"
"LB-460882","407 Meridian St, East Boston, MA 02128","02128",42.3804403,-71.0391193,"407","Meridian Street","Boston","Massachusetts","02128"
"LB-99010","3380 Washington St, Jamaica Plain, MA 02130","02130",42.303155,-71.1107444,"3593-3615","Washington Street","Boston","Massachusetts","02130"
"LB-563249","211 Hanover St, Boston, MA 02113","02113",42.3627119,-71.0553276,"211","Hanover Street","Boston","Massachusetts","02113"
"LB-99038","1505 Dorchester Ave, Dorchester, MA 02122","02122",42.2992547,-71.0605848,"1505","Dorchester Avenue","Boston","Massachusetts","02122"
"LB-564518","80 Charles St, Boston, MA 02114","02114",42.3581593,-71.0707145,"80","Charles Street","Boston","Massachusetts","02114"
"LB-101846","179 Commercial St, Boston, MA 02109","02109",42.3625673,-71.0518833,"179","Commercial Street","Boston","Massachusetts","02109"
"LB-99295","11 Dorchester St, South Boston, MA 02127","02127",42.3373051,-71.0436574,"11","Dorchester Street","Boston","Massachusetts","02127"
"LB-101665","257-261 Newbury St, Boston, MA 02116","02116",42.3496419,-71.0832176,"259","Newbury Street","Boston","Massachusetts","02116"
"LB-434033","401 Park Drive, Boston, MA 02215","02215",42.3440899,-71.1030535,"401","Park Drive","Boston","Massachusetts","02215"
"LB-98922","33 North Square, Boston, MA 02113","02113",42.3635068,-71.0538624,"33","North Square","Boston","Massachusetts","02113"
"LB-99645","17-23 Forsyth St, Boston, MA 02115","02115","","","","","","","None"
"LB-560485","175 Cambridge St, Boston, MA 02114","02114",42.3613534,-71.0661321,"","Cambridge Street","Boston","Massachusetts","02114"
"LB-369935","300 Logan Airport Terminal C, East Boston, MA 02128","02128",42.3671734,-71.0179369,"1","Harborside Drive","Boston","Massachusetts","02128"
"LB-99401","100 Huntington Ave, Boston, MA 02116","02116",42.3475381,-71.0765803,"100","Huntington Avenue","Boston","Massachusetts","02116"
"LB-562666","60 Belvidere St, Boston, MA 02199","02199",42.3461473,-71.0848983,"29","Belvidere Street","Boston","Massachusetts","02199"
"LB-99787","30 Bennington Street, East Boston, MA 02128","02128",42.3753522,-71.0379662,"30","Bennington Street","Boston","Massachusetts","02128"
"LB-99619","235A Newbury St, Boston, MA 02116","02116","","","","","","","None"
"LB-128263","540 Commonwealth Ave, Boston, MA 02215","02215",42.3484698,-71.0969597,"540","Commonwealth Avenue","Boston","Massachusetts","02215"
"LB-99902","360 Western Ave, Brighton, MA 02135","02135",42.3627858,-71.1369119,"360","Western Avenue","Boston","Massachusetts","02135"
"LB-445626","86 Peterborough St, Boston, MA 02215","02215",42.3431499,-71.0989337,"86","Peterborough Street","Boston","Massachusetts","02215"
"LB-532019","94 Shirley St, Roxbury, MA 02119","02119",42.3235552,-71.0722464,"30","Shirley Street","Boston","Massachusetts","02119"
"LB-529784","Logan Airport, Terminal E, East Boston, MA 02128","02128","","","","","","","None"
"LB-101580","100 Stuart St, Boston MA 02116","02116",42.3508269,-71.0655706,"100","Stuart Street","Boston","Massachusetts","02116"
"LB-559007","1463-1467 Dorchester Ave, Dorchester, MA 02122","02122","","","","","","","None"
"LB-100616","1223 Commonwealth, Allston, MA 02134","02134",42.3506919,-71.1309963,"1223","Commonwealth Avenue","Boston","Massachusetts","02134"
"LB-557424","210 N. Harvard St, Allston, MA 02134","02134",42.3625387,-71.1299906,"210","North Harvard Street","Boston","Massachusetts","02134"
"LB-162550","800 Boylston St, Boston, MA 02199","02199",42.3471718,-71.0825069,"800","Boylston Street","Boston","Massachusetts","02199"
"LB-101960","23 Corinth St, Roslindale, MA 02131","02131",42.2861923,-71.1300496,"23","Corinth Street","Boston","Massachusetts","02131"
"LB-98956","200 Brighton Ave, Allston, MA 02134","02134",42.3531162,-71.1343879,"200","Brighton Avenue","Boston","Massachusetts","02134"
"LB-98778","927-939 Boylston St, Boston, MA 02115","02115",42.3482863,-71.0848751,"","Massachusetts Avenue","Boston","Massachusetts","02115"
"LB-434282","950 American Legion Hwy, Hyde Park, MA 02136","02136",42.2743105,-71.1165235,"","American Legion Highway","Boston","Massachusetts","02131"
"LB-100327","580-582 Dorchester Ave, South Boston, MA 02127","02127","","","","","","","None"
"LB-465577","1231 River St, Hyde Park, MA 02136","02136",42.2561487,-71.1229106,"1231-1237","River Street","Boston","Massachusetts","02136"
"LB-537660","1 Harborside Dr, East Boston, MA 02128","02128",42.3611052,-71.0247381,"1","Harborside Drive","Boston","Massachusetts","02128"
"LB-99678","389 Centre St, Jamaica Plain, MA 02130","02130",42.3222413,-71.1095921,"389","Centre Street","Boston","Massachusetts","02130"
"LB-99797","28 Bennington St, East Boston, MA 02128","02128",42.3852178,-71.0112134,"740","Bennington Street","Boston","Massachusetts","02128"
"LB-101895","732 Huntington Ave, Mission Hill, MA 02120","02120",42.3341985,-71.1049059,"","Tremont Street","Boston","Massachusetts","02120"
"LB-101655","90 Tremont St, Boston, MA 02108","02108",42.3573301,-71.0606926,"90","Tremont Street","Boston","Massachusetts","02108"
"LB-102046","1153 Washington St, Mattapan, MA 02126","02126",42.2721856,-71.0681699,"","Washington Street","Boston","Massachusetts","02126"
"LB-98953","951 Boylston Street, Boston, MA 02115","02115",42.3467116,-71.0915312,"","Boylston Street","Boston","Massachusetts","02115"
"LB-99672","5268 Washington Street, West Roxbury, MA 02132","02132",42.2686626,-71.1490626,"4925","Washington Street","Boston","Massachusetts","02132"
"LB-101060","227 Hanover Street, Boston, MA 02113","02113",42.3629544,-71.0551479,"227","Hanover Street","Boston","Massachusetts","02113"
"LB-549406","96 Peterborough Street, Boston, MA 02215","02215",42.3430483,-71.0992983,"96","Peterborough Street","Boston","Massachusetts","02215"
"LB-553983","128 Brighton Ave, Allston, MA 02134","02134",42.3525753,-71.1313217,"128","Brighton Avenue","Boston","Massachusetts","02134"
"LB-554139","47 Farnsworth Street, Boston, MA 02210","02210",42.3521823,-71.0475699,"47-53","Farnsworth Street","Boston","Massachusetts","02210"
"LB-554019","164 - 170 Sumner Street, East Boston, MA 02128","02128","","","","","","","None"
"LB-554141","555 Talbot Ave, Dorchester, MA 02124","02124",42.2860989,-71.0646266,"555","Talbot Avenue","Boston","Massachusetts","02124"
"LB-99408","2 Center Plaza, Boston, MA 02108","02108",42.3600513,-71.0603435,"2","Center Plaza","Boston","Massachusetts","02108"
"LB-130749","168 Belgrade Ave, Roslindale, MA 02131","02131",42.286095,-71.1372008,"156;168","Belgrade Avenue","Boston","Massachusetts","02131"
"LB-554156","570 Columbus Ave, Boston, MA 02118","02118",42.3460751,-71.0749751,"","Columbus Avenue","Boston","Massachusetts","02117"
"LB-99802","545 Boylston Street, Boston, MA 02116","02116",42.3507554,-71.0757323,"545","Boylston Street","Boston","Massachusetts","02116"
"LB-555367","489 E Broadway, South Boston, MA 02127","02127",42.3352168,-71.0453161,"489;489A","East Broadway","Boston","Massachusetts","02127"
"LB-99659","222 Newbury Street, Boston, 02116","02116",42.3497578,-71.0810801,"222","Newbury Street","Boston","Massachusetts","02116"
"LB-99427","6 Beacon Street, Boston, MA 02108","02108",42.3581487,-71.0615206,"6","Beacon Street","Boston","Massachusetts","02108"
"LB-550556","115 Salem Street, Boston, MA 02113","02113",42.3644152,-71.055371,"115","Salem Street","Boston","Massachusetts","02113"
"LB-99124","11 Beacon Street, Boston, MA 02108","02108",42.3583818,-71.061713,"11","Beacon Street","Boston","Massachusetts","02108"
"LB-551991","290-298 Washington Street, Boston, MA 02135","02135","","","","","","","None"
"LB-99233","Location: 7  9 Stoughton St., Dorchester, MA 02125","02125","","","","","","","None"
"LB-101651","Location: 15 Beacon St., Boston, MA 02108","02108","","","","","","","None"
"LB-98962","77 - 79 Broadway, Boston, MA 02116","02116",42.3860359,-71.078212,"10;10A;12;12A;14;14A;16;16A","Broadway","Somerville","Massachusetts","02145"
"LB-98919","Location: 1 Marina Park Dr., Boston, MA 02210","02210","","","","","","","None"
"LB-101566","Location: 100B Warrenton St., Boston, MA 02116","02116","","","","","","","None"
"LB-99258","Location: 958 Tremont St., Roxbury, MA 02120","02120","","","","","","","None"
"LB-99190","Location: 49 Temple Pl., Boston, MA 02111","02111","","","","","","","None"
"LB-99361","Location: 205  207 Endicott St., Boston, MA 02113","02113","","","","","","","None"
"LB-99121","72 Brookline Ave, Boston, MA 02215","02215",42.3466525,-71.0991352,"73","Brookline Avenue","Boston","Massachusetts","02215"
"LB-550937","232 Newbury Street, Boston, MA 02116","02116",42.3496523,-71.081465,"232","Newbury Street","Boston","Massachusetts","02116"
"LB-99289","4511-4519 Washington Street, Roslindale, MA 02131","02131","","","","","","","None"
"LB-550945","1 Harborside Drive, East Boston, MA 02128","02128",42.3611052,-71.0247381,"1","Harborside Drive","Boston","Massachusetts","02128"
"LB-99060","658 E Eighth Street, South Boston, MA 02127","02127",42.3314086,-71.0394625,"550","East Eighth Street","Boston","Massachusetts","02127"
"LB-99575","542 Columbus Ave, Roxbury, MA 02118","02118",42.3311252,-71.0946996,"1234","Columbus Avenue","Boston","Massachusetts","02120"
"LB-551293","1 Lovejoy Wharf, Boston, MA 02114","02114",42.3675944,-71.0593511,"1","Lovejoy Wharf","Boston","Massachusetts","02114"
"LB-101579","4-8 Franklin Street, Allston, MA 02134","02134",42.3588428,-71.1331181,"92-86","Franklin Street","Boston","Massachusetts","02134"
"LB-98895","80 Atlantic Ave, Boston, MA 02110","02110",42.3624556,-71.0505091,"80","Atlantic Avenue","Boston","Massachusetts","02109"
"LB-99309","458 Western Ave, Brighton, MA 02135","02135",42.361937,-71.1422046,"458","Western Avenue","Boston","Massachusetts","02135"
"LB-99052","33A Union Street, Boston, MA 02108","02108",42.361502,-71.0572124,"55","Union Street","Boston","Massachusetts","02201"
"LB-551178","336 Sumner Street, East Boston, MA 02128","02128",42.3672898,-71.035729,"336","Sumner Street","Boston","Massachusetts","02128"
"LB-99228","1 Brigham Circle, Boston, MA 02115","02115","","","","","","","None"
"LB-551179","957 Commonwealth Ave, Boston, MA 02215","02215",42.352076,-71.1188741,"957","Commonwealth Avenue","Boston","Massachusetts","02215"
"LB-99770","78-80 Brighton Ave, Allston, MA 02134","02134",42.3531573,-71.132895,"161","Brighton Avenue","Boston","Massachusetts","02134"
"LB-99514","115 Causeway St, Boston, MA 02114","02114",42.3650755,-71.0614919,"115","Causeway Street","Boston","Massachusetts","02114"
"LB-425551","375 W Atlantic Ave, Boston, MA 02110","02110","","","","","","","None"
"LB-101922","39 Temple Place, Boston, MA 02111","02111",42.3550561,-71.0619843,"39","Temple Place","Boston","Massachusetts","02111"
"LB-101617","200 Boylston St, Boston MA 02116","02116",42.3520546,-71.068135,"200","Boylston Street","Boston","Massachusetts","02116"
"LB-99565","163 Newbury St, Boston, MA 02116","02116",42.350831,-71.0787883,"163","Newbury Street","Boston","Massachusetts","02116"
"LB-98944","276-278 Newbury St, Boston, MA 02116","02116","","","","","","","None"
"LB-98957","116-120 Brighton Ave, Allston, MA 02134","02134",42.3531573,-71.132895,"161","Brighton Avenue","Boston","Massachusetts","02134"
"LB-547071","604 Blue Hill Ave, Dorchester, MA 02121","02121","","","","","","","None"
"LB-99262","319-321 A St, Boston, MA 02210","02210",42.3495991,-71.0490643,"","Summer Street","Boston","Massachusetts","02210"
"LB-99093","178-188 Harvard Ave, Allston, MA 02134","02134","","","","","","","None"
"LB-101632","50 Park Plaza, Boston, MA 02116","02116",42.3509619,-71.0696163,"50","Park Plaza","Boston","Massachusetts","02116"
"LB-99706","190 North St, Boston, MA 02113","02113",42.363203,-71.0539508,"176,178","North Street","Boston","Massachusetts","02113"
"LB-99478","Logan Airport Terminal B, East Boston, MA 02128","02128",42.364416,-71.0195614,"31","Logan Airport Terminal B","Boston","Massachusetts","02128"
"LB-549183","18-20 Meridian St, East Boston, MA 02128","02128",42.3799816,-71.0392407,"391","Meridian Street","Boston","Massachusetts","02128"
"LB-549186","1231 Hyde Park Ave, Hyde Park, MA 02136","02136",42.2568203,-71.124108,"1231","Hyde Park Avenue","Boston","Massachusetts","02136"
"LB-99431","1234 Soldiers Field Rd, Brighton, MA 02134","02134",42.3634756,-71.1363168,"1234","Soldiers Field Road","Boston","Massachusetts","02135"
"LB-101572","Central Wharf, Boston, MA 02110","02110",42.3591768,-71.0503612,"","Boston HarborWalk","Boston","Massachusetts","02109"
"LB-128814","255 Newbury St, Boston, MA 02116","02116",42.3496892,-71.0830465,"255","Newbury Street","Boston","Massachusetts","02116"
"LB-99781","23 Hudson St, Boston MA 02111","02111",42.3505428,-71.0603665,"23","Hudson Street","Boston","Massachusetts","97005"
"LB-101667","215 Charles St, Boston, MA 02114","02114",42.3619187,-71.0701194,"215","Charles Street","Boston","Massachusetts","02114"
"LB-99198","911 Boylston St, Boston, MA 02115","02115",42.3483721,-71.0843802,"911","Boylston Street","Boston","Massachusetts","02115"
"LB-547046","112-114 Chelsea St, East Boston, MA 02128","02128",42.3806442,-71.0262919,"","Chelsea Street","Boston","Massachusetts","02128"
"LB-101637","296 State St, Boston, MA 02110","02110",42.3602004,-71.0508524,"296","State Street","Boston","Massachusetts","02109"
"LB-464491","1420-1440 Soldiers Field Rd, Brighton, MA 02135","02135","","","","","","","None"
"LB-99079","55 Hallet St, Boston, MA 02124","02124",42.282422,-71.047645,"55","Hallet Street","Boston","Massachusetts","02124"
"LB-98805","4-6 Boylston Place, Boston, MA 02116","02116",42.3520921,-71.0659752,"2","Boylston Place","Boston","Massachusetts","02116"
"LB-546598","1111-1113 Washington St, Mattapan, MA 02124","02124",42.2721856,-71.0681699,"","Washington Street","Boston","Massachusetts","02126"
"LB-99628","199 Sumner St, East Boston, MA 02128","02128",42.3689328,-71.0401751,"199","Sumner Street","Boston","Massachusetts","02128"
"LB-547016","16 Birch St, Roslindale, MA 02131","02131",42.2840362,-71.1333207,"119","Birch Street","Boston","Massachusetts","02131"
"LB-546856","411 Blue Hill Ave, Dorchester, MA 02121","02121",42.3109887,-71.0816606,"411","Blue Hill Avenue","Boston","Massachusetts","02121"
"LB-99577","636 Beacon St, Boston, MA 02215","02215",42.3494682,-71.0952586,"636","Beacon Street","Boston","Massachusetts","02215"
"LB-547014","80 Causeway St, Boston, MA 02114","02114",42.3654436,-71.0617658,"80","Causeway Street","Boston","Massachusetts","02114"
"LB-101576","401 D St, Boston, MA 02210","02210",42.343647,-71.0446391,"401-403","D Street","Boston","Massachusetts","02210"
"LB-98998","331-335 Columbus Ave, Boston, MA 02116","02116","","","","","","","None"
"LB-546442","805 Columbus Ave, Boston, MA 02115","02115",42.3377323,-71.0869991,"360","Huntington Avenue","Boston","Massachusetts","02115"
"LB-99091","100 Huntington Ave, Boston, MA 02116","02116",42.3475381,-71.0765803,"100","Huntington Avenue","Boston","Massachusetts","02116"
"LB-543916","272 Newbury St, Boston, MA 02116","02116",42.3491165,-71.0834219,"272","Newbury Street","Boston","Massachusetts","02116"
"LB-311416","711 Centre St, Jamaica Plain, MA 02130","02130",42.3113581,-71.1146111,"711","Centre Street","Boston","Massachusetts","02130"
"LB-99656","477 Shawmut Ave, Boston, MA 02118","02118",42.3389305,-71.0759086,"477","Shawmut Avenue","Boston","Massachusetts","02118"
"LB-546059","2296-2306 Washington St, Roxbury, MA 02119","02119","","","","","","","None"
"LB-101967","1911-1913 Dorchester Ave, Boston, MA 02124","02124","","","","","","","None"
"LB-546451","23 Hudson St, Boston, MA 02111","02111",42.3505428,-71.0603665,"23","Hudson Street","Boston","Massachusetts","97005"
"LB-98795","368-372 W Broadway, South Boston, MA 02127","02127","","","","","","","None"
"LB-9","","None","","","","","","","None"
"LB-99683","170 Brighton Ave, Allston, MA 02134","02134",42.3529636,-71.1329577,"170","Brighton Avenue","Boston","Massachusetts","02134"
"LB-99607","1116 Boylston St, Boston, MA 02215","02215",42.3467727,-71.0887739,"1116","Boylston Street","Boston","Massachusetts","02215"
"LB-546416","251 Bowdoin St, Dorchester, MA 02122","02122",42.3069933,-71.0661865,"277","Bowdoin Street","Boston","Massachusetts","02122"
"LB-546420","251 Bowdoin St, Dorchester, MA 02122","02122",42.3069933,-71.0661865,"277","Bowdoin Street","Boston","Massachusetts","02122"
"LB-98921","150 Bowdoin St, Boston, MA 02108","02108",42.3582665,-71.0626268,"150","Bowdoin Street","Boston","Massachusetts","02108"
"LB-545988","381 Blue Hill Ave, Dorchester, MA 02121","02121","","","","","","","None"
"LB-99225","160 State St, Boston, MA 02109","02109",42.3593767,-71.0538549,"160","State Street","Boston","Massachusetts","02109"
"LB-99182","150 Northern Ave, Boston, MA 02210","02210",42.3520026,-71.0437765,"85","Northern Avenue","Boston","Massachusetts","02210"
"LB-99626","79 Harrison Ave, Boston, MA 02111","02111",42.3510185,-71.0616281,"79","Harrison Avenue","Boston","Massachusetts","02111"
"LB-101620","39 Dalton St, Boston, MA 02116","02116",42.3461794,-71.0834767,"39","Dalton Street","Boston","Massachusetts","02199"
"LB-166870","100 Logan Airport Terminal A, East Boston, MA 02128","02128",42.3645933,-71.0216434,"1","Harborside Drive","Boston","Massachusetts","02128"
"LB-99453","289 Dorchester St, South Boston, MA 02127","02127",42.3320428,-71.0527712,"289","Dorchester Street","Boston","Massachusetts","01125"
"LB-99117","110 Causeway St, Boston, MA 02114","02114",42.3659293,-71.0614468,"110","Causeway Street","Boston","Massachusetts","02114"
"LB-543928","408 Newbury St, Boston, MA 02115","02115",42.3479344,-71.0887258,"408","Newbury Street","Boston","Massachusetts","02115"
"LB-544694","577A-583 Washington St, Brighton, MA 02135","02135","","","","","","","None"
"LB-544701","648 Beacon St, Boston, MA 02215","02215",42.3464645,-71.1059639,"910","Beacon Street","Boston","Massachusetts","02215"
"LB-544061","403 Washington St, Brighton, MA 02135","02135",42.3512152,-71.1694072,"648","Washington Street","Boston","Massachusetts","02135"
"LB-101847","1922 Beacon St, Brighton, MA 02135","02135",42.3365297,-71.1494505,"1922","Beacon Street","Boston","Massachusetts","02447"
"LB-544699","1 Beacon St, Boston, MA 02108","02108",42.3574589,-71.0652642,"34 1/2","Beacon Street","Boston","Massachusetts","02108"
"LB-543917","271 Meridian St, East Boston, MA 02128","02128",42.3799816,-71.0392407,"391","Meridian Street","Boston","Massachusetts","02128"
"LB-543920","1 David Ortiz Drive, Boston, MA 02215","02215",42.3470612,-71.1011857,"1","David Ortiz Drive","Boston","Massachusetts","02215"
"LB-99393","776 Boylston St, Boston, MA 02199","02199",42.3486759,-71.0816572,"776","Boylston Street","Boston","Massachusetts","02116"
"LB-542584","19 - 21 Kingston St, Boston, MA 02111","02111",42.3520316,-71.0593274,"120","Kingston Street","Boston","Massachusetts","02111"
"LB-100232","1740 Dorchester Ave, Dorchester, MA 02124","02124",42.2907303,-71.0627198,"1740","Dorchester Avenue","Boston","Massachusetts","02124"
"LB-542481","12 Hemenway St, Boston, MA 02115","02115",42.3464394,-71.0890519,"12","Hemenway Street","Boston","Massachusetts","02115"
"LB-542993","815 Columbus Ave, Boston, MA 02118","02118",42.3460751,-71.0749751,"","Columbus Avenue","Boston","Massachusetts","02117"
"LB-99031","750 - 754 Adams St, Dorchester, MA 02122","02122","","","","","","","None"
"LB-99074","295 - 297 Franklin St, Boston, MA 02110","02110",42.3567067,-71.0537404,"260","Franklin Street","Boston","Massachusetts","02109"
"LB-542519","45 Beach St, Boston, MA 02111","02111",42.3513308,-71.0609509,"45","Beach Street","Boston","Massachusetts","02111"
"LB-541587","2306 Washington St, Roxbury, MA 02119","02119",42.3158813,-71.0982345,"3064","Washington Street","Boston","Massachusetts","02119"
"LB-529347","500 Terminal Rd, East Boston, MA 02128","02128",42.3675505,-71.0182872,"400","Terminal Road","Boston","Massachusetts","02128"
"LB-301847","50 Northern Ave, Boston, MA 02210","02210",42.3535931,-71.0461764,"50","Northern Avenue","Boston","Massachusetts","02210"
"LB-101978","106 South St, Boston, MA 02111","02111",42.3510745,-71.057113,"102,104,106","South Street","Boston","Massachusetts","02111"
"LB-99480","Logan Airport, Terminal B, East Boston, MA 02128","02128","","","","","","","None"
"LB-400460","Logan Airport, Terminal C, East Boston, MA 02128","02128","","","","","","","None"
"LB-471196","65 Lewis St, East Boston, MA 02128","02128",42.3674449,-71.0425629,"65","Lewis Street","Boston","Massachusetts","02128"
"LB-375375","Logan Airport, Terminal B, East Boston, MA 02128","02128","","","","","","","None"
"LB-99193","138 Portland St, Boston, MA 02114","02114",42.3636748,-71.0613186,"142","Portland Street","Boston","Massachusetts","02114"
"LB-101979","3694 Washington St, Jamaica Plain, MA 02130","02130",42.303155,-71.1107444,"3593-3615","Washington Street","Boston","Massachusetts","02130"
"LB-99481","Logan Airport, Terminal C, East Boston, MA 02128","02128","","","","","","","None"
"LB-542483","49 Gardner St, Allston, MA 02134","02134",42.353501,-71.1286343,"49","Gardner Street","Boston","Massachusetts","02134"
"LB-541493","Logan Airport, Terminal A, East Boston, MA 02128","02128","","","","","","","None"
"LB-98790","96 Fenway, Boston, MA 02115","02115",42.3418673,-71.0912516,"360","Huntington Avenue","Boston","Massachusetts","02115"
"LB-523577","10 Old Colony Ave, South Boston, MA 02127","02127",42.3378061,-71.0565542,"10","Old Colony Avenue","Boston","Massachusetts","02127"
"LB-541567","156 Bunker Hill St, Charlestown, MA 02129","02129",42.3782712,-71.0608879,"36","Concord Street","Boston","Massachusetts","02129"
"LB-99765","251 Massachusetts Ave, Boston, MA 02115","02115",42.3438426,-71.0863458,"251","Massachusetts Avenue","Boston","Massachusetts","02115"
"LB-542492","21 Drydock Ave, Boston, MA 02210","02210",42.3443383,-71.0312473,"21","Drydock Avenue","Boston","Massachusetts","02210"
"LB-99081","21-27 Temple Pl, Boston, MA 02111","02111",42.3552282,-71.0620613,"26,28","Temple Place","Boston","Massachusetts","02111"
"LB-99794","107 State St, Boston, MA 02109","02109",42.3590745,-71.0549706,"107","State Street","Boston","Massachusetts","02109"
"LB-541139","261 North St, Boston, MA 02109","02109",42.3637027,-71.0517832,"261,261A","North Street","Boston","Massachusetts","02113"
"LB-99429","11A Allstate Rd, Dorchester, MA 02125","02125",42.3260826,-71.0636053,"","Allstate Road","Boston","Massachusetts","01125"
"LB-99351","24 Fleet St, Boston, MA 02113","02113",42.364688,-71.052727,"24,24B","Fleet Street","Boston","Massachusetts","02113"
"LB-99760","450 Commercial St, Boston, MA 02109","02109",42.367319,-71.0533747,"450,452,454","Commercial Street","Boston","Massachusetts","02113"
"LB-539176","1222 Commonwealth Ave, Allston, MA 02134","02134",42.3500982,-71.1306257,"1222","Commonwealth Avenue","Boston","Massachusetts","02134"
"LB-540593","152-154 Liverpool St, East Boston, MA 02128","02128",42.3707234,-71.0421069,"5-29","Liverpool Street","Boston","Massachusetts","02128"
"LB-540652","115 Federal St, Boston, MA 02110","02110",42.3561453,-71.056645,"30-36","Federal Street","Boston","Massachusetts","02110"
"LB-101909","295 Old Colony Ave, South Boston, MA 02127","02127",42.329905,-71.0529837,"295","Old Colony Avenue","Boston","Massachusetts","01125"
"LB-540656","115 Federal St, Boston, MA 02110","02110",42.3561453,-71.056645,"30-36","Federal Street","Boston","Massachusetts","02110"
"LB-99416","14-16 Bromfield St, Boston, MA 02108","02108",42.3569556,-71.0607521,"53,55","Bromfield Street","Boston","Massachusetts","02108"
"LB-540602","115 Federal St, Boston, MA 02110","02110",42.3561453,-71.056645,"30-36","Federal Street","Boston","Massachusetts","02110"
"LB-99513","15-17 Northern Ave, Boston, MA 02110","02110",42.3539926,-71.0480589,"12","Northern Avenue","Boston","Massachusetts","02210"
"LB-98900","4 Avery St., Boston, MA 02111","02111",42.3531469,-71.0630373,"4","Avery Street","Boston","Massachusetts","02111"
"LB-99739","1330 Boylston St., Boston, MA 02215","02215",42.3441314,-71.0982686,"1334","Boylston Street","Boston","Massachusetts","02215"
"LB-539140","100 Hanover St., Boston, MA 02108","02108",42.3625573,-71.0573822,"100","Hanover Street","Boston","Massachusetts","02108"
"LB-138053","154 Maverick St., East Boston, MA 02128","02128",42.3699087,-71.0379066,"154","Maverick Street","Boston","Massachusetts","02128"
"LB-382644","100 Terminal Rd., East Boston, MA 02128","02128",42.3675505,-71.0182872,"400","Terminal Road","Boston","Massachusetts","02128"
"LB-162574","67 Prince St., Boston, MA 02113","02113",42.3652024,-71.0552463,"67","Prince Street","Boston","Massachusetts","02113"
"LB-539167","4196 Washington St., Roslindale, MA 02131","02131",42.2870709,-71.127147,"4196","Washington Street","Boston","Massachusetts","02131"
"LB-99741","253 Shawmut Ave., Roxbury, MA 02118","02118",42.3371017,-71.0784027,"539","Shawmut Avenue","Boston","Massachusetts","02118"
"LB-519106","900 Beacon St., Boston, MA 02215","02215",42.3468335,-71.105759,"900","Beacon Street","Boston","Massachusetts","02215"
"LB-99412","11B Allstate Rd., Dorchester, MA 02125","02125",42.3260588,-71.0631137,"11B","Allstate Road","Boston","Massachusetts","01125"
"LB-537658","900 Beacon St., Boston, MA 02215","02215",42.3468335,-71.105759,"900","Beacon Street","Boston","Massachusetts","02215"
"LB-538165","625 Huntington Ave., Boston, MA 02115","02115",42.3363279,-71.1003898,"621","Huntington Avenue","Boston","Massachusetts","02115"
"LB-537664","35 - 45 Lewis St., East Boston, MA 02128","02128","","","","","","","None"
"LB-536889","45 Worcester St., Roxbury, MA 02118","02118","","","","","","","None"
"LB-99109","230 Congress St., Boston, MA 02110","02110",42.3544529,-71.0542958,"230","Congress Street","Boston","Massachusetts","02110"
"LB-101929","368 Warren St., Roxbury, MA 02119","02119",42.3178057,-71.0821958,"","Warren Street","Boston","Massachusetts","02119"
"LB-533624","1415 Tremont St., Mission Hill, MA 02120","02120",42.3338184,-71.1037788,"1631","Tremont Street","Boston","Massachusetts","02120"
"LB-537162","39 Dalton St., Boston, MA 02116","02116",42.3461794,-71.0834767,"39","Dalton Street","Boston","Massachusetts","02199"
"LB-99275","280 - 306 Washington St., Brighton, MA 02135","02135","","","","","","","None"
"LB-537659","330 C St., South Boston, MA 02127","02127",42.3422773,-71.0498178,"330","C Street","Boston","Massachusetts","02205"
"LB-99088","250 Hanover St., Boston, MA 02113","02113",42.3635008,-71.0549453,"250","Hanover Street","Boston","Massachusetts","02113"
"LB-534040","131 Seaport Bl., Boston, MA 02210","02210","","","","","","","None"
"LB-537305","205 Portland St., Boston, MA 02114","02114",42.3647161,-71.0619242,"205","Portland Street","Boston","Massachusetts","02114"
"LB-98952","909 Boylston St., Boston, MA 02115","02115",42.3483854,-71.0843034,"909","Boylston Street","Boston","Massachusetts","02115"
"LB-101666","125 Brookline Ave., Boston, MA 02215","02215",42.3458864,-71.100584,"125","Brookline Avenue","Boston","Massachusetts","02215"
"LB-99334","1117 - 1125 Blue Hill Ave., Dorchester, MA 02124","02124","","","","","","","None"
"LB-536747","4 Glenway St., Dorchester, MA 02121","02121",42.3018446,-71.0849725,"4","Glenway Street","Boston","Massachusetts","02121"
"LB-98801","41 Beacon St., Boston, MA 02108","02108",42.3571037,-71.0665311,"41","Beacon Street","Boston","Massachusetts","02108"
"LB-99557","1799 Commonwealth Ave., Brighton, MA 02135","02135",42.3463029,-71.1412151,"1515","Commonwealth Avenue","Boston","Massachusetts","02135"
"LB-100634","99A Cambridge St., Charlestown, MA 02129","02129",42.3839455,-71.0741487,"24","Cambridge Street","Boston","Massachusetts","02129"
"LB-532283","786 Adams St., Dorchester, MA 02122","02122",42.2829212,-71.0556726,"786","Adams Street","Boston","Massachusetts","02122"
"LB-126385","90 Causeway St., Boston, MA 02114","02114",42.3657266,-71.0616706,"90","Causeway Street","Boston","Massachusetts","02114"
"LB-99821","10 Bosworth St., Boston, MA 02108","02108",42.3572066,-71.0607119,"3","Bosworth Street","Boston","Massachusetts","02102"
"LB-530949","55 Anderson St., Boston, MA 02114","02114",42.3603273,-71.0678018,"27","Anderson Street","Boston","Massachusetts","02114"
"LB-99383","91 Park Plz., Boston, MA 02116","02116",42.3515011,-71.0693963,"50","Park Plaza","Boston","Massachusetts","02116"
"LB-375676","43 Northern Av., Boston, MA 02210","02210",42.3520026,-71.0437765,"85","Northern Avenue","Boston","Massachusetts","02210"
"LB-532274","33  39 Savin Hill Ave., Dorchester, MA 02125","02125",42.3121586,-71.0547003,"90","Savin Hill Avenue","Boston","Massachusetts","02125"
"LB-98947","25 Thomson Pl., Boston, MA 02210","02210",42.3509722,-71.0473039,"25","Thomson Place","Boston","Massachusetts","02210"
"LB-532296","1587 Blue Hill Ave., Mattapan, MA 02126","02126",42.2695687,-71.0940406,"1587","Blue Hill Avenue","Boston","Massachusetts","02126"
"LB-99209","332 W. Broadway, South Boston, MA 02127","02127",42.3385078,-71.0497479,"332","West Broadway","Boston","Massachusetts","02127"
"LB-98789","426 Stuart St., Boston, MA 02116","02116",42.3485609,-71.0747675,"426","Stuart Street","Boston","Massachusetts","02117"
"LB-526461","383 Neponset Ave., Boston, MA 02122","02122",42.2866122,-71.0447934,"383","Neponset Avenue","Boston","Massachusetts","02122"
"LB-101983","53 Huntington Ave., Boston, MA 02199","02199",42.3478301,-71.079493,"","Huntington Avenue","Boston","Massachusetts","02199"
"LB-438888","1151B Blue Hill Ave., Dorchester, MA 02124","02124","","","","","","","None"
"LB-533009","66 Staniford St., Boston, MA 02114","02114",42.3629292,-71.0640963,"64;66;68;70;72;74","Staniford Street","Boston","Massachusetts","02222"
"LB-532186","190 N. Beacon St., Brighton, MA 02135","02135",42.3557045,-71.147939,"190","North Beacon Street","Boston","Massachusetts","02135"
"LB-138680","175  0 Cambridge St., Boston, MA 02114","02114","","","","","","","None"
"LB-530943","869 E Broadway, South Boston, MA 02127","02127",42.335532,-71.0290938,"869","East Broadway","Boston","Massachusetts","02127"
"LB-454368","100 Hanover St., Boston, MA 02108","02108",42.3625573,-71.0573822,"100","Hanover Street","Boston","Massachusetts","02108"
"LB-99597","187 Main St., Charlestown, MA 02129","02129",42.3783324,-71.0679676,"315","Main Street","Boston","Massachusetts","02129"
"LB-99220","100 Faneuil Hall Marketplace, Boston, MA 02109","02109","","","","","","","None"
"LB-99816","60 Seaport Blvd, Boston, MA 02210","02210",42.3529334,-71.0469809,"60","Seaport Boulevard","Boston","Massachusetts","02210"
"LB-101658","154 Berkeley St., Boston, MA 02116","02116",42.3491758,-71.072462,"154","Berkeley Street","Boston","Massachusetts","02116"
"LB-531157","605 Tremont St., Roxbury, MA 02118","02118",42.3356687,-71.0869956,"","Tremont Street","Boston","Massachusetts","02115"
"LB-526924","661 Tremont St., Roxbury, MA 02118","02118",42.3356687,-71.0869956,"","Tremont Street","Boston","Massachusetts","02115"
"LB-311978","420 D St., Boston, 02210","02210",42.3439557,-71.0448248,"401-403","D Street","Boston","Massachusetts","02210"
"LB-99435","342 W Broadway, South Boston, MA 02127","02127",42.3376545,-71.0490301,"368","West Broadway","Boston","Massachusetts","02127"
"LB-529957","Copley 233, LLC, 233 W. Newton St., Boston, MA 02116","02116","","","","","","","None"
"LB-101933","3096-3104 Washington St., Roxbury, MA 02119","02119","","","","","","","None"
"LB-99332","116 Huntington Ave., Boston, MA 02116","02116",42.3467494,-71.0796207,"116","Huntington Avenue","Boston","Massachusetts","02116"
"LB-99272","74-78 Warrenton St., Boston, MA 02116","02116","","","","","","","None"
"LB-529383","2 Avenue de Lafayette, Boston, MA 02111","02111",42.353684,-71.0612964,"2","Avenue De Lafayette","Boston","Massachusetts","02111"
"LB-99313","89 Guest St., Brighton, MA 02135","02135",42.3566205,-71.1438739,"89","Guest Street","Boston","Massachusetts","02135"
"LB-99102","745 Boylston St., Boston, MA 02116","02116",42.3494951,-71.0806451,"745","Boylston Street","Boston","Massachusetts","02116"
"LB-99319","1 Dalton St., Boston, MA 02115","02115",42.3457147,-71.0839368,"1","Dalton Street","Boston","Massachusetts","02115"
"LB-520580","647 Boylston St., Boston, MA 02116","02116",42.3500754,-71.0784141,"647","Boylston Street","Boston","Massachusetts","02116"
"LB-99231","70 Causeway St., Boston, MA 02114","02114",42.3655863,-71.0618222,"100","Causeway Street","Boston","Massachusetts","02114"
"LB-528250","100 Hood Park Dr., Charlestown, MA 02129","02129",42.3794515,-71.073175,"100","Hood Park Drive","Boston","Massachusetts","02129"
"LB-99213","645 - 647 Tremont St., Boston, MA 02118","02118","","","","","","","None"
"LB-28587","44 Winter St., Boston, MA 02108","02108",42.3559505,-71.0617737,"44","Winter Street","Boston","Massachusetts","02108"
"LB-99284","3712 Washington St., Jamaica Plain, MA 02130","02130",42.303155,-71.1107444,"3593-3615","Washington Street","Boston","Massachusetts","02130"
"LB-525486","1906 Centre St., Boston, MA 02132","02132",42.2848764,-71.1563565,"1906-1908","Centre Street","Boston","Massachusetts","02132"
"LB-99658","300 Northern Ave., Boston, MA 02210","02210",42.348071,-71.0358234,"300","Northern Avenue","Boston","Massachusetts","02210"
"LB-494097","140 Tremont St., Boston, MA 02111","02111",42.3556963,-71.0625498,"140","Tremont Street","Boston","Massachusetts","02111"
"LB-529161","474 Saratoga St., East Boston, MA 02128","02128",42.3801487,-71.0272906,"474","Saratoga Street","Boston","Massachusetts","02128"
"LB-379517","3840 Washington St., Jamaica Plain, MA 02130","02130",42.303155,-71.1107444,"3593-3615","Washington Street","Boston","Massachusetts","02130"
"LB-99621","695 - 697 Centre St., Jamaica Plain, MA 02130","02130","","","","","","","None"
"LB-101899","591 Hyde Park Ave., Roslindale, MA 02131","02131",42.2802891,-71.1191494,"591","Hyde Park Avenue","Boston","Massachusetts","02131"
"LB-528816","20 Charlesgate West, Boston, MA 02215","02215",42.3481992,-71.0932666,"20","Charlesgate West","Boston","Massachusetts","02115"
"LB-99265","4014 Washington St., Roslindale, MA 02131","02131",42.2918488,-71.1221116,"4014","Washington Street","Boston","Massachusetts","02131"
"LB-202281","225 Albany Street, Roxbury, MA 02118","02118",42.3306863,-71.0778208,"903","Albany Street","Boston","Massachusetts","02118"
"LB-137352","71 - 73 Broad Street, Boston, MA 02109","02109",42.3590659,-71.0545793,"5,7,9","Broad Street","Boston","Massachusetts","02109"
"LB-460883","1033 Massachusetts Ave., Roxbury, MA 02118","02118",42.3301551,-71.0697088,"927;929;931","Massachusetts Avenue","Boston","Massachusetts","02118"
"LB-525352","10 District Ave., Dorchester, MA 02125","02125",42.3254625,-71.0625426,"27","District Avenue","Boston","Massachusetts","02125"
"LB-99813","102 Meridian St., East Boston, MA 02128","02128",42.3727313,-71.0392539,"102","Meridian Street","Boston","Massachusetts","02128"
"LB-471213","85 Northern Ave., Boston, MA 02210","02210",42.3516589,-71.0439706,"85","Northern Avenue","Boston","Massachusetts","02210"
"LB-524539","206 Faneuil Hall Marketplace, Boston, MA 02109","02109","","","","","","","None"
"LB-525354","10 District Ave., Dorchester, MA 02125","02125",42.3254625,-71.0625426,"27","District Avenue","Boston","Massachusetts","02125"
"LB-100455","299 Hancock St., Dorchester, MA 02125","02125",42.3082087,-71.0586785,"299","Hancock Street","Boston","Massachusetts","02122"
"LB-98988","387 - 397A Chelsea St., East Boston, MA 02128","02128","","","","","","","None"
"LB-101858","216 Border St., East Boston, MA 02128","02128",42.3789834,-71.0400533,"331;333;335","Border Street","Boston","Massachusetts","02128"
"LB-525853","570R Warren St., Dorchester, MA 02119","02119","","","","","","","None"
"LB-101623","Hiren Boston LLC, 33 W Howell St., Dorchester, MA 02125","02125","","","","","","","None"
"LB-101578","Guzbin LLC, 411 Chelsea St., East Boston, MA 02128","02128","","","","","","","None"
"LB-99768","Casa Giacomo's LLC, 431 Columbus Ave., Boston, MA 02116","02116","","","","","","","None"
"LB-523575","Land of Beer MA LLC, 700 Atlantic Ave., Boston, MA 02110","02110","","","","","","","None"
"LB-99796","The Tasting Room LLC, 101 Summer St., Boston MA 02111","02111","","","","","","","None"
"LB-202968","Common Vines LLC, 100 Summer St., Boston, MA 02110","02110","","","","","","","None"
"LB-146396","Sofia's Food Enterprise, Corp., 22 Central Sq., East Boston, MA 02128","02128","","","","","","","None"
"LB-99232","Bertuccis Restaurants, LLC, 683 VFW PW, Chestnut Hill, MA 02467","02467","","","","","","","None"
"LB-523378","850 River St., Hyde Park, MA 02136","02136",42.2535401,-71.1294832,"1409","River Street","Boston","Massachusetts","02136"
"LB-99292","11 Fan Pier Blvd., Boston, MA 02210","02210",42.3541329,-71.0457126,"11","Fan Pier Boulevard","Boston","Massachusetts","02210"
"LB-99662","145 Meridian St., East Boston, MA 02128","02128",42.3736915,-71.0388596,"145","Meridian Street","Boston","Massachusetts","02128"
"LB-99414","3 McKinley Sq., Boston, MA 02109","02109",42.3590801,-71.0536495,"3","McKinley Square","Boston","Massachusetts","02109"
"LB-100016","951 Bennington St., East Boston, MA 02128","02128",42.3858836,-71.008343,"951","Bennington Street","Boston","Massachusetts","02128"
"LB-523576","10 Old Colony Av., South Boston, MA 02127","02127",42.3378061,-71.0565542,"10","Old Colony Avenue","Boston","Massachusetts","02127"
"LB-101646","185 - 187 State St., Boston, MA 02109","02109",42.359398,-71.0532633,"175","State Street","Boston","Massachusetts","02109"
"LB-100965","360 Washington St., Brighton, MA 02135","02135",42.3490005,-71.1532975,"360","Washington Street","Boston","Massachusetts","02135"
"LB-523591","1 Harborside Dr., East Boston, MA 02128","02128",42.3611052,-71.0247381,"1","Harborside Drive","Boston","Massachusetts","02128"
"LB-98942","41 - 45 Stanhope St., Boston, MA 02116","02116",42.3482754,-71.07353,"45","Stanhope Street","Boston","Massachusetts","02117"
"LB-523573","152 Hampden St., Roxbury, MA 02119","02119",42.3277529,-71.0748973,"152","Hampden Street","Boston","Massachusetts","02118"
"LB-523393","4166 Washington St., Boston, MA 02131","02131",42.287896,-71.1263706,"4166;4168","Washington Street","Boston","Massachusetts","02131"
"LB-99055","360 Harrison Ave., Roxbury, MA 02118","02118",42.3320639,-71.0793557,"","Harrison Avenue","Boston","Massachusetts","02118"
"LB-522286","25 District Ave., Dorchester, MA 02125","02125",42.3257458,-71.0621649,"25","District Avenue","Boston","Massachusetts","02125"
"LB-99922","1110 Boylston St., Boston, MA 02215","02215",42.3468136,-71.0886276,"1110","Boylston Street","Boston","Massachusetts","02215"
"LB-202298","52 Temple Pl., Boston, MA 02111","02111",42.3551101,-71.0616179,"52","Temple Place","Boston","Massachusetts","02111"
"LB-99617","10 Huntington Ave., Boston, MA 02116","02116",42.3484788,-71.0772279,"10","Huntington Avenue","Boston","Massachusetts","02116"
"LB-523593","39A District Av., Dorchester, MA 02125","02125",42.3254625,-71.0625426,"27","District Avenue","Boston","Massachusetts","02125"
"LB-99044","300 Harrison Ave., Roxbury, MA 02118","02118",42.3456805,-71.0627115,"300","Harrison Avenue","Boston","Massachusetts","02118"
"LB-98999","115 Federal St., Boston, MA 02110","02110",42.3561453,-71.056645,"30-36","Federal Street","Boston","Massachusetts","02110"
"LB-98958","0 Block C Seaport Sq., Boston, MA 02210","02210","","","","","","","None"
"LB-99175","28  30 Kingston St., Boston, MA 02111","02111",42.3520316,-71.0593274,"120","Kingston Street","Boston","Massachusetts","02111"
"LB-522275","1 Congress St., Boston, MA  02114","02114",42.3603713,-71.0579762,"1","Congress Street","Boston","Massachusetts","02201"
"LB-494682","1739 Dorchester Ave., Dorchester, MA 02124","02124",42.2817949,-71.0654075,"2020","Dorchester Avenue","Boston","Massachusetts","02124"
"LB-99378","800 Boylston St., Boston, MA 02199","02199",42.3471718,-71.0825069,"800","Boylston Street","Boston","Massachusetts","02199"
"LB-100346","535 Boylston St., Boston, MA 02116","02116",42.3508034,-71.0756278,"535","Boylston Street","Boston","Massachusetts","02116"
"LB-99355","800 Boylston St., Boston, MA 02199","02199",42.3471718,-71.0825069,"800","Boylston Street","Boston","Massachusetts","02199"
"LB-522274","1520  Tremont Street, Mission Hill, MA  02120","02120",42.3322196,-71.0997853,"1520;1520A","Tremont Street","Boston","Massachusetts","20052"
"LB-522273","138  Cambridge St., Boston, MA  02114","02114",42.3610246,-71.0639676,"138","Cambridge Street","Boston","Massachusetts","02114"
"LB-139202","506 Park Dr., Boston, MA 02215","02215",42.3475266,-71.1059876,"506","Park Drive","Boston","Massachusetts","02215"
"LB-99217","61 Brookline Ave., Boston, MA 02215","02215",42.3471979,-71.0991032,"61","Brookline Avenue","Boston","Massachusetts","02215"
"LB-99878","735 William T Morrissey Bl., Dorchester, MA 02122","02122","","","","","","","None"
"LB-520394","100 Hood Park Dr., Charlestown, MA 02129","02129",42.3794515,-71.073175,"100","Hood Park Drive","Boston","Massachusetts","02129"
"LB-99534","1029 Commonwealth Ave., Boston, MA 02215","02215",42.3523082,-71.1217073,"1027, 1029,1031,1033","Commonwealth Avenue","Boston","Massachusetts","02215"
"LB-123506","Logan Airport F 2 Terminal A, East Boston, MA 02128","02128","","","","","","","None"
"LB-99367","197 N. Harvard St., Allston, MA 02134","02134",42.3635867,-71.1294978,"197","North Harvard Street","Boston","Massachusetts","02134"
"LB-519072","44 Winter St., Boston, MA 02108","02108",42.3559505,-71.0617737,"44","Winter Street","Boston","Massachusetts","02108"
"LB-520240","111  Francis St., Boston, MA 02215","02215",42.3373329,-71.1097826,"","Tremont Street","Boston","Massachusetts","02120"
"LB-457688","388 Centre St., Jamaica Plain, MA 02130","02130",42.321793,-71.1096494,"388","Centre Street","Boston","Massachusetts","02130"
"LB-102053","13 Chelsea St., Easton Boston, MA 02128","02128","","","","","","","None"
"LB-99512","103 Brighton Ave., Allston, MA 02134","02134",42.3529624,-71.1303578,"103","Brighton Avenue","Boston","Massachusetts","02134"
"LB-519519","500 Logan Airport Terminal E, East Boston, MA 02128","02128",42.3691705,-71.0195653,"","Logan Airport Terminal E","Boston","Massachusetts","02128"
"LB-99638","88 Beach St., Boston, MA 02111","02111",42.3510564,-71.0588291,"88","Beach Street","Boston","Massachusetts","02111"
"LB-99134","1 South Station, Boston, MA 02110","02110",42.3485571,-71.058168,"","South Station Connector","Boston","Massachusetts","02284"
"LB-101955","212 - 216 Columbia Rd., Dorchester, MA 02121","02121","","","","","","","None"
"LB-519530","879   881  Blue Hill Ave., Dorchester, MA, MA 02124","02124","","","","","","","None"
"LB-386592","1620  Commonwealth Ave., Brighton, MA 02135","02135",42.3463029,-71.1412151,"1515","Commonwealth Avenue","Boston","Massachusetts","02135"
"LB-519528","203 Adams St., Dorchester, MA 02122","02122",42.3019049,-71.0601681,"203","Adams Street","Boston","Massachusetts","02122"
"LB-457700","473  River St., Mattapan, MA 02126","02126",42.2682666,-71.0930109,"473","River Street","Boston","Massachusetts","02126"
"LB-519524","619  Tremont St., Boston, MA 02118","02118",42.3427524,-71.0743772,"619","Tremont Street","Boston","Massachusetts","02118"
"LB-101962","643 Cummins Hwy, Mattapan, MA 02126","02126",42.2712617,-71.1044219,"682-686","Cummins Highway","Boston","Massachusetts","02126"
"LB-99639","182 Harvard Ave., Boston, MA 02134","02134",42.3510495,-71.131177,"182","Harvard Avenue","Boston","Massachusetts","02134"
"LB-99714","30 Fleet St., Boston, MA 02113","02113",42.3645392,-71.0525624,"30","Fleet Street","Boston","Massachusetts","02113"
"LB-125132","62 Boylston St., Boston, MA 02116","02116",42.3522327,-71.0643277,"62","Boylston Street","Boston","Massachusetts","02116"
"LB-518353","377 Washington St., Brighton, MA 02135","02135",42.3492998,-71.1542813,"377","Washington Street","Boston","Massachusetts","02135"
"LB-98782","775 Commonwealth Ave., Boston, MA 02215","02215",42.3509672,-71.1089756,"","Harvard Street","Boston","Massachusetts","02215"
"LB-513692","58 Old Colony Ave., South Boston, MA 02127","02127",42.3363602,-71.0558458,"58","Old Colony Avenue","Boston","Massachusetts","02127"
"LB-99528","595 Commonwealth Ave., Boston, MA 02215","02215",42.3496397,-71.0997323,"595","Commonwealth Avenue","Boston","Massachusetts","02215"
"LB-102038","748 Tremont St., Roxbury, MA 02118","02118",42.3356687,-71.0869956,"","Tremont Street","Boston","Massachusetts","02115"
"LB-99641","925 Commonwealth Ave., Boston, MA 02215","02215",42.3527491,-71.1173433,"925","Commonwealth Avenue","Boston","Massachusetts","02215"
"LB-99636","543 E Broadway South Boston, MA 02127","02127",42.3353802,-71.0423819,"543","East Broadway","Boston","Massachusetts","02127"
"LB-98798","925 Commonwealth Ave., Boston, MA 02215","02215",42.3527491,-71.1173433,"925","Commonwealth Avenue","Boston","Massachusetts","02215"
"LB-517950","1 Harborside Dr., East Boston, MA 02128","02128",42.3611052,-71.0247381,"1","Harborside Drive","Boston","Massachusetts","02128"
"LB-101878","604   608 E Broadway South Boston, MA 02127","02127","","","","","","","None"
"LB-98799","225 Bay State Rd., Boston, MA 02215","02215",42.3509191,-71.1036358,"","Harvard Street","Boston","Massachusetts","02215"
"LB-517982","54 Old Colony Ave., South Boston, MA 02127","02127",42.3366409,-71.0558292,"54","Old Colony Avenue","Boston","Massachusetts","01125"
"LB-102017","563 Columbus Ave., Roxbury, MA 02118","02118",42.3311252,-71.0946996,"1234","Columbus Avenue","Boston","Massachusetts","02120"
"LB-9216","435 - 439 S Huntington Ave., Jamaica Plain, MA 02130","02130",42.3207845,-71.1118932,"408","South Huntington Avenue","Boston","Massachusetts","02130"
"LB-513632","1544 Dorchester Ave., Dorchester, MA 02122","02122",42.2978023,-71.0606369,"1544","Dorchester Avenue","Boston","Massachusetts","02122"
"LB-99164","800 Boylston St., Boston, MA 02199","02199",42.3471718,-71.0825069,"800","Boylston Street","Boston","Massachusetts","02199"
"LB-99399","300 Pier 4 Bl., Boston, MA 02210","02210","","","","","","","None"
"LB-101987","75 Blossom Ct., Boston, MA 02109","02109",42.3649433,-71.0666686,"75","Blossom Court","Boston","Massachusetts","02114"
"LB-100281","487 Cambridge St., Allston, MA 02134","02134",42.353793,-71.1372699,"487","Cambridge Street","Boston","Massachusetts","02134"
"LB-515942","157 Sutherland Rd., Brighton, MA 02135","02135",42.3410998,-71.1468396,"157","Sutherland Road","Boston","Massachusetts","02135"
"LB-515672","32 Cambridge St., Charlestown, MA 02129","02129",42.3839455,-71.0741487,"24","Cambridge Street","Boston","Massachusetts","02129"
"LB-515980","32 Cambridge St., Charlestown, MA 02129","02129",42.3839455,-71.0741487,"24","Cambridge Street","Boston","Massachusetts","02129"
"LB-515596","2136 Washington St., Roxbury, MA 02119","02119",42.3315913,-71.0817771,"2136;2140","Washington Street","Boston","Massachusetts","02119"
"LB-99085","255 Hanover St., Boston, MA 02113","02113",42.3631954,-71.0547841,"253,255","Hanover Street","Boston","Massachusetts","02113"
"LB-102049","1 Park Ln., Boston, MA 02210","02210",42.3481104,-71.0380731,"1","Park Lane","Boston","Massachusetts","02210"
"LB-465482","957 Commonwealth Ave., Boston, MA 02215","02215",42.352076,-71.1188741,"957","Commonwealth Avenue","Boston","Massachusetts","02215"
"LB-98784","1 Federal St., Boston, MA 02110","02110",42.3563347,-71.0569829,"1","Federal Street","Boston","Massachusetts","02110"
"LB-99811","115A Salem St., Boston, MA 02113","02113",42.364631,-71.0555266,"114","Salem Street","Boston","Massachusetts","02113"
"LB-99782","550 Tremont St., Roxbury, MA 02116","02116",42.3356687,-71.0869956,"","Tremont Street","Boston","Massachusetts","02115"
"LB-148628","360 Longwood Ave., Boston, MA 02215","02215",42.3385953,-71.1082313,"1","Joslin Place","Boston","Massachusetts","02215"
"LB-515642","32 Cambridge St., Charlestown, MA 02129","02129",42.3839455,-71.0741487,"24","Cambridge Street","Boston","Massachusetts","02129"
"LB-98936","1270 Boylston St., Boston, MA 02215","02215",42.3441473,-71.0994082,"1350","Boylston Street","Boston","Massachusetts","02215"
"LB-439777","59 Meridian St., East Boston, MA 02128","02128",42.3717506,-71.038814,"59","Meridian Street","Boston","Massachusetts","02128"
"LB-515583","3204 Washington St., Jamaica Plain, MA 02130","02130",42.3125279,-71.1013924,"3204","Washington Street","Boston","Massachusetts","02130"
"LB-515576","207 Market St., Brighton, MA 02135","02135",42.3550606,-71.1497916,"218","Market Street","Boston","Massachusetts","02135"
"LB-139777","100 Boardman St., East Boston, MA 02128","02128",42.3897529,-71.0122151,"100","Boardman Street","Boston","Massachusetts","02128"
"LB-363642","Logan Airport Terminal B East Boston, MA 02128","02128",42.364416,-71.0195614,"31","Logan Airport Terminal B","Boston","Massachusetts","02128"
"LB-397007","Logan Airport Terminal A East Boston, MA 02128","02128",42.3649131,-71.0204236,"","Logan Airport Terminal A","Boston","Massachusetts","02128"
"LB-102042","869 Blue Hill Ave., Dorchester, MA 02124","02124",42.295605,-71.087944,"861-869","Blue Hill Avenue","Boston","Massachusetts","02124"
"LB-512447","1403 Dorchester Ave., Dorchester, MA 02122","02122",42.3031342,-71.0597423,"1403,1405","Dorchester Avenue","Boston","Massachusetts","02122"
"LB-99469","Logan Airport, Terminal E East Boston, MA 02128","02128","","","","","","","None"
"LB-512506","800 Boylston St., Boston, MA 02199","02199",42.3471718,-71.0825069,"800","Boylston Street","Boston","Massachusetts","02199"
"LB-494977","57 Hemenway St., Boston, MA 02115","02115",42.3450082,-71.0898571,"57","Hemenway Street","Boston","Massachusetts","02115"
"LB-398570","Logan Airport Terminal B East Boston, MA 02128","02128",42.364416,-71.0195614,"31","Logan Airport Terminal B","Boston","Massachusetts","02128"
"LB-101648","240 Mount Vernon St., Dorchester, MA 02125","02125",42.3201511,-71.047833,"240","Mount Vernon Street","Boston","Massachusetts","02125"
"LB-99424","355-359 Congress St., Boston, MA 02210","02210","","","","","","","None"
"LB-99067","90 Exeter St., Boston, MA 02116","02116",42.3482396,-71.0787107,"90","Exeter Street","Boston","Massachusetts","02116"
"LB-98982","378A Centre St., Jamaica Plain, MA 02130","02130",42.3087556,-71.1223939,"917","Centre Street","Boston","Massachusetts","02130"
"LB-495221","83 Charles St., Boston, MA 02114","02114",42.3584546,-71.0704576,"81","Charles Street","Boston","Massachusetts","02114"
"LB-493009","24 Blue Hill Ave., Boston, MA 02119","02119",42.3243012,-71.0754802,"24","Blue Hill Avenue","Boston","Massachusetts","02119"
"LB-99511","433 Washington St., Brighton, MA 02135","02135",42.3493421,-71.1567888,"433","Washington Street","Boston","Massachusetts","02135"
"LB-99642","100 Huntington Ave., Boston, MA 02116","02116",42.3475381,-71.0765803,"100","Huntington Avenue","Boston","Massachusetts","02116"
"LB-99201","237-275 Washington St., Boston, MA 02108","02108","","","","","","","None"
"LB-373394","1 Harborside Dr., East Boston, MA 02128","02128",42.3611052,-71.0247381,"1","Harborside Drive","Boston","Massachusetts","02128"
"LB-99374","1883  - 1889 Centre St., West Roxbury, MA 02132","02132","","","","","","","None"
"LB-101615","1271 - 1275 Boylston St., Boston, MA 02215","02215","","","","","","","None"
"LB-99866","101 Causeway St., Boston, MA 02114","02114",42.3648886,-71.0619016,"101","Causeway Street","Boston","Massachusetts","02114"
"LB-414874","100 Terminal Rd., East Boston, MA 02128","02128",42.3675505,-71.0182872,"400","Terminal Road","Boston","Massachusetts","02128"
"LB-408105","Logan Airport Terminal C East Boston, MA 02128","02128",42.3671734,-71.0179369,"1","Harborside Drive","Boston","Massachusetts","02128"
"LB-402436","Logan Airport, Terminal E East Boston, MA 02128","02128","","","","","","","None"
"LB-383184","200 Terminal Rd., East Boston, MA 02128","02128",42.3675505,-71.0182872,"400","Terminal Road","Boston","Massachusetts","02128"
"LB-493810","125 High St., Boston, MA 02110","02110",42.3550474,-71.053416,"125","High Street","Boston","Massachusetts","02110"
"LB-414876","100 Terminal Rd., East Boston, MA 02128","02128",42.3675505,-71.0182872,"400","Terminal Road","Boston","Massachusetts","02128"
"LB-462639","364 W Broadway South Boston, MA 02127","02127",42.3376545,-71.0490301,"368","West Broadway","Boston","Massachusetts","02127"
"LB-383161","200 Terminal Rd., East Boston, MA 02128","02128",42.3675505,-71.0182872,"400","Terminal Road","Boston","Massachusetts","02128"
"LB-492568","14B  Birch Street, Roslindale, MA  02131","02131",42.2840362,-71.1333207,"119","Birch Street","Boston","Massachusetts","02131"
"LB-421001","80  Boylston Street, Boston, MA  02116","02116",42.3520163,-71.0650278,"76,78,80,82,84","Boylston Street","Boston","Massachusetts","02116"
"LB-99300","33 - 35  Batterymarch Street, Boston, MA  02109","02109",42.3575717,-71.0535726,"","Batterymarch Street","Boston","Massachusetts","02110"
"LB-99203","29  Faneuil Hall Square, Boston, MA  02109","02109",42.3602062,-71.0562036,"","","Boston","Massachusetts","02201"
"LB-101952","63  Charles Street, Boston, MA  02114","02114",42.3579229,-71.0701984,"63","Charles Street","Boston","Massachusetts","02114"
"LB-102031","341  Hanover Street, Boston, MA  02113","02113",42.3644623,-71.0536053,"343","Hanover Street","Boston","Massachusetts","02113"
"LB-492447","62 William C Kelley Square, East Boston, MA  02128","02128",42.3746405,-71.0389564,"13","William C. Kelley Square","Boston","Massachusetts","02128"
"LB-102033","266 - 268  Shawmut Avenue, Roxbury, MA  02118","02118",42.3371017,-71.0784027,"539","Shawmut Avenue","Boston","Massachusetts","02118"
"LB-101581","149  Charles Street, Boston, MA  02114","02114",42.3604302,-71.070636,"149","Charles Street","Boston","Massachusetts","02114"
"LB-493025","32  Cambridge Street, Charlestown, MA  02129","02129",42.3839455,-71.0741487,"24","Cambridge Street","Boston","Massachusetts","02129"
"LB-9972","74 - 78  Warrenton Street, Boston, MA  02116","02116","","","","","","","None"
"LB-99519","200 Faneuil Hall Marketplace, Boston, MA 02109","02109","","","","","","","None"
"LB-491679","1912 Beacon St, Brighton, MA 02135","02135",42.3365877,-71.1488136,"1912","Beacon Street","Boston","Massachusetts","02135"
"LB-468655","3193 - 3201 Washington St, Jamaica Plain, MA 02130","02130","","","","","","","None"
"LB-99593","1321 Boylston St, Boston, MA 02215","02215",42.3444645,-71.0990561,"1321","Boylston Street","Boston","Massachusetts","02215"
"LB-99668","1746 - 1748 Washington St, Roxbury, MA 02118","02118",42.3329262,-71.0810342,"","Washington Street","Boston","Massachusetts","02118"
"LB-99737","119 Salem St, Boston, MA 02113","02113",42.3645456,-71.0553615,"119,121","Salem Street","Boston","Massachusetts","02113"
"LB-99343","81 Fairmount Ave, Hyde Park, MA 02136","02136",42.2544735,-71.1201764,"83","Fairmount Avenue","Boston","Massachusetts","02136"
"LB-99801","15 1/2 Boston Fish Pier, Boston, MA 02210","02210",42.3503962,-71.0385521,"","Seaport Boulevard","Boston","Massachusetts","02210"
"LB-99370","13 - 15 West St, Boston, MA 02111","02111",42.3547129,-71.0624364,"16","West Street","Boston","Massachusetts","02102"
"LB-99819","336 Sumner St, East Boston, MA 02128","02128",42.3672898,-71.035729,"336","Sumner Street","Boston","Massachusetts","02128"
"LB-456046","132 Chestnut Hill Ave., Brighton, MA 02135","02135",42.3429108,-71.1531329,"","Chestnut Hill Avenue","Boston","Massachusetts","02135"
"LB-489905","185 Talbot Ave., Dorchester, MA 02124","02124",42.2918769,-71.0776513,"215","Talbot Avenue","Boston","Massachusetts","02124"
"LB-99585","314 Newbury St., Boston, MA 02115","02115",42.3485997,-71.0853232,"314","Newbury Street","Boston","Massachusetts","02115"
"LB-99020","8 Park Pz., Boston, MA 02116","02116","","","","","","","None"
"LB-445823","1403 Washington St., Boston, MA 02118","02118",42.3451605,-71.0652447,"","Washington Street","Boston","Massachusetts","02118"
"LB-489605","611 Columbia Rd., Dorchester, MA 02125","02125",42.3174748,-71.0640523,"611","Columbia Road","Boston","Massachusetts","02125"
"LB-313582","55 Boston Wharf Rd., Boston, MA 02210","02210",42.3513142,-71.0456374,"55","Boston Wharf Road","Boston","Massachusetts","02210"
"LB-99059","501 E Eighth St., South Boston, MA 02127","02127",42.3312526,-71.0412714,"501","East Eighth Street","Boston","Massachusetts","02127"
"LB-489600","4 Park Pz., Boston, MA 02116","02116","","","","","","","None"
"LB-99757","429 W Broadway South Boston, MA 02127","02127",42.3362671,-71.0474628,"429;431","West Broadway","Boston","Massachusetts","02127"
"LB-101940","610 Washington St., Brighton, MA 02135","02135",42.3504919,-71.1678757,"610","Washington Street","Boston","Massachusetts","02135"
"LB-486465","169 Brighton Ave., Allston, MA 02134","02134",42.3532737,-71.1329086,"169","Brighton Avenue","Boston","Massachusetts","02134"
"LB-99224","1 Washington Mall., Boston, MA 02108","02108",42.3592856,-71.057998,"1","Washington Street","Boston","Massachusetts","02108"
"LB-99623","140 Tremont St., Boston, MA 02111","02111",42.3556963,-71.0625498,"140","Tremont Street","Boston","Massachusetts","02111"
"LB-101548","1155  - 1175 Tremont St., Boston, MA 02119","02119","","","","","","","None"
"LB-485386","951 Dorchester Ave., Dorchester, MA 02125","02125",42.3173451,-71.0567193,"981","Dorchester Avenue","Boston","Massachusetts","02125"
"LB-101157","313 Old Colony Ave., South Boston, MA 02127","02127",42.3290037,-71.0520943,"","Old Colony Avenue","Boston","Massachusetts","01125"
"LB-485681","44 N Beacon St., Allston, MA 02134","02134",42.3536117,-71.1377864,"","North Beacon Street","Boston","Massachusetts","02134"
"LB-483837","113 Autumn Ln., Boston, MA 02210","02210",42.3506658,-71.0452953,"","Autumn Lane","Boston","Massachusetts","02210"
"LB-138356","19 Stuart St., Boston, MA 02116","02116",42.3511012,-71.0633625,"19","Stuart Street","Boston","Massachusetts","02111"
"LB-101596","1 Hamilton Pl., Boston, MA 02108","02108",42.3562342,-71.0608194,"1","Hamilton Place","Boston","Massachusetts","02108"
"LB-130805","291 Saint Botolph St., Boston, MA 02115","02115",42.340468,-71.0868892,"360","Huntington Avenue","Boston","Massachusetts","02115"
"LB-98995","50 Lovejoy Wh., Boston, MA 02114","02114","","","","","","","None"
"LB-101930","2169 Washington St., Roxbury, MA 02119","02119",42.3158813,-71.0982345,"3064","Washington Street","Boston","Massachusetts","02119"
"LB-396125","206 - 208 Newbury St., Boston, MA 02116","02116",42.3505265,-71.0783948,"160","Newbury Street","Boston","Massachusetts","02116"
"LB-460302","383 Dorchester Ave., South Boston, MA 02127","02127",42.3349506,-71.0575918,"383","Dorchester Avenue","Boston","Massachusetts","02127"
"LB-483678","264 Hyde Park Ave., Jamaica Plain, MA 02130","02130",42.2925352,-71.1175141,"262","Hyde Park Avenue","Boston","Massachusetts","02130"
"LB-144137","319 Hanover St., Boston, MA 02113","02113",42.3640476,-71.0540381,"319","Hanover Street","Boston","Massachusetts","02113"
"LB-483679","100 Terminal Rd., East Boston, MA 02128","02128",42.3675505,-71.0182872,"400","Terminal Road","Boston","Massachusetts","02128"
"LB-461216","8C Allstate Rd., Dorchester, MA 02125","02125",42.3252017,-71.0641637,"","Allstate Road","Boston","Massachusetts","01125"
"LB-98906","10 Waterside Ave., Boston, MA 02210","02210","","","","","","","None"
"LB-144278","1345 Boylston St., Boston, MA 02215","02215",42.3441473,-71.0994082,"1350","Boylston Street","Boston","Massachusetts","02215"
"LB-483515","176 Harvard Ave., Boston, MA 02134","02134",42.3512928,-71.1313402,"176","Harvard Avenue","Boston","Massachusetts","02134"
"LB-483771","1323 Boylston St., Boston, MA  02215","02215",42.3444296,-71.0991801,"1323","Boylston Street","Boston","Massachusetts","02215"
"LB-168877","383 Dorchester Ave., South Boston, MA 02127","02127",42.3349506,-71.0575918,"383","Dorchester Avenue","Boston","Massachusetts","02127"
"LB-99323","30 Hyde Park Ave., Jamaica Plain, MA 02130","02130","","","","","","","None"
"LB-115683","Logan Airport Terminal A East Boston, MA 02128","02128",42.3649131,-71.0204236,"","Logan Airport Terminal A","Boston","Massachusetts","02128"
"LB-102044","1421 Washington St., Roxbury, MA 02118","02118",42.3329262,-71.0810342,"","Washington Street","Boston","Massachusetts","02118"
"LB-377260","Logan Airport Terminal B East Boston, MA 02128","02128",42.364416,-71.0195614,"31","Logan Airport Terminal B","Boston","Massachusetts","02128"
"LB-482858","13 Meridian St., East Boston, MA 02128","02128",42.3706043,-71.0387471,"13,15","Meridian Street","Boston","Massachusetts","02128"
"LB-482853","2136 Washington St., Roxbury, MA 02119","02119",42.3315913,-71.0817771,"2136;2140","Washington Street","Boston","Massachusetts","02119"
"LB-101883","7 Edgewater Dr., Mattapan, MA 02126","02126",42.2640862,-71.0972855,"95","Edgewater Drive","Boston","Massachusetts","02126"
"LB-101945","370 Western Ave., Brighton, MA 02135","02135",42.3608854,-71.1375785,"370","Western Avenue","Boston","Massachusetts","02135"
"LB-481528","2 Dry Dock Ave., Boston, MA 02210","02210","","","","","","","None"
"LB-482865","199 Sumner St., East Boston, MA 02128","02128",42.3689328,-71.0401751,"199","Sumner Street","Boston","Massachusetts","02128"
"LB-101927","655   659 Vfw Pkwy., Boston, MA 02467","02467","","","","","","","None"
"LB-101976","3345 Washington St., Jamaica Plain, MA 02130","02130",42.3096859,-71.1046118,"3345","Washington Street","Boston","Massachusetts","02130"
"LB-476649","101 Brighton Ave., Boston, MA 02134","02134",42.3530101,-71.1302572,"101","Brighton Avenue","Boston","Massachusetts","02134"
"LB-482871","809   811 Harrison Ave., Roxbury, MA 02118","02118","","","","","","","None"
"LB-98872","Logan Airport, Terminal E East Boston, MA 02128","02128","","","","","","","None"
"LB-101862","563 Boylston St., Boston, MA 02215","02215",42.3506357,-71.0762548,"563","Boylston Street","Boston","Massachusetts","02116"
"LB-101910","678 Parker St., Roxbury, MA 02120","02120","","","","","","","None"
"LB-482017","105 W First St., South Boston, MA 02127","02127",42.3428867,-71.0530501,"105","West First Street","Boston","Massachusetts","02127"
"LB-480459","14 Brighton Ave., Boston, MA 02134","02134",42.3520942,-71.125784,"14","Brighton Avenue","Boston","Massachusetts","02134"
"LB-99226","5 North Sq., Boston, MA 02113","02113",42.3639965,-71.0535585,"5","North Square","Boston","Massachusetts","02113"
"LB-101573","1254 Boylston S.t, Boston, MA 02215","02215","","","","","","","None"
"LB-99679","1325 Boylston St., Boston, MA 02215","02215",42.3446424,-71.0994648,"1325","Boylston Street","Boston","Massachusetts","02215"
"LB-481088","559 Washington St., Brighton, MA 02135","02135",42.3494463,-71.1636997,"559","Washington Street","Boston","Massachusetts","02135"
"LB-101627","47 - 51 Huntington Ave., Boston, MA 02116","02116","","","","","","","None"
"LB-99270","64 C St., South Boston,, MA 02127","02127",42.3370827,-71.0557947,"64","C Street","Boston","Massachusetts","02127"
"LB-101613","15 Arlington St., Boston, MA 02116","02116",42.352827,-71.0715847,"3","Newbury Street","Boston","Massachusetts","02116"
"LB-98991","150 State St., Boston, MA 02109","02109",42.3594131,-71.054075,"150,152","State Street","Boston","Massachusetts","02109"
"LB-99234","60 Seaport Blvd., Boston, MA 02210","02210",42.3529334,-71.0469809,"60","Seaport Boulevard","Boston","Massachusetts","02210"
"LB-102028","23 Beacon St., Boston, MA 02108","02108",42.3581156,-71.0625209,"23","Beacon Street","Boston","Massachusetts","02108"
"LB-101882","143 P St., South Boston, MA 02127","02127",42.3341866,-71.0271245,"116","P Street","Boston","Massachusetts","02127"
"LB-480054","151 Hanover St., Boston, MA 02108","02108",42.3617169,-71.0572686,"145","Hanover Street","Boston","Massachusetts","02108"
"LB-480104","121 Salem St., Boston, MA 02113","02113",42.3645456,-71.0553615,"119,121","Salem Street","Boston","Massachusetts","02113"
"LB-99627","635 Hyde Park Av., Hyde Park, MA 02131","02131",42.2785643,-71.1194568,"635-641","Hyde Park Avenue","Boston","Massachusetts","02131"
"LB-98943","359 Boylston St., Boston, MA 02116","02116",42.3519215,-71.0716764,"359-361","Boylston Street","Boston","Massachusetts","02116"
"LB-469490","1 South Station Boston, MA 02110","02110",42.3485571,-71.058168,"","South Station Connector","Boston","Massachusetts","02284"
"LB-405976","190 N Beacon St., Brighton, MA 02135","02135",42.3557045,-71.147939,"190","North Beacon Street","Boston","Massachusetts","02135"
"LB-99738","101 Seaport Blvd., Boston, MA 02210","02210",42.3512252,-71.0453952,"101","Seaport Boulevard","Boston","Massachusetts","02210"
"LB-99248","1619 Tremont St., Roxbury, MA 02120","02120",42.3314792,-71.0948944,"","Tremont Street","Boston","Massachusetts","20052"
"LB-405538","190 N Beacon St., Brighton, MA 02135","02135",42.3557045,-71.147939,"190","North Beacon Street","Boston","Massachusetts","02135"
"LB-480008","132 Meridian St., Boston, MA 02128","02128",42.3736987,-71.0392114,"132,134","Meridian Street","Boston","Massachusetts","02128"
"LB-99097","83 - 87 Harvard Ave., Allston, MA 02134","02134","","","","","","","None"
"LB-476655","1448 Dorchester Ave., Dorchester, MA 02122","02122",42.3011294,-71.059742,"1448","Dorchester Avenue","Boston","Massachusetts","02122"
"LB-476651","64 Salem St., Boston, MA 02113","02113",42.3634173,-71.0561317,"64","Salem Street","Boston","Massachusetts","02113"
"LB-99113","401 Park Dr., Boston, MA 02215","02215",42.3440899,-71.1030535,"401","Park Drive","Boston","Massachusetts","02215"
"LB-476657","Logan Airport, Terminal E East Boston, MA 02128","02128","","","","","","","None"
"LB-98903","197 Portland St., Boston, MA 02114","02114",42.3644568,-71.0617544,"197","Portland Street","Boston","Massachusetts","02114"
"LB-99413","25 Kingston St., Boston, MA 02111","02111",42.3536873,-71.0591516,"25","Kingston Street","Boston","Massachusetts","02111"
"LB-99428","1375 Washington St., Roxbury, MA 02118","02118",42.3329262,-71.0810342,"","Washington Street","Boston","Massachusetts","02118"
"LB-99743","468 Commonwealth Ave., Boston, MA 02215","02215",42.3485849,-71.0934838,"","Commonwealth Avenue","Boston","Massachusetts","02215"
"LB-475186","180  190 Hyde Park Ave., Jamaica Plain, MA 02130","02130",42.2946774,-71.1167848,"180-190","Hyde Park Avenue","Boston","Massachusetts","02130"
"LB-99397","240 Commercial St., Boston, MA 02109","02109",42.3638568,-71.0514839,"240-246","Commercial Street","Boston","Massachusetts","02109"
"LB-98780","217 Commonwealth Ave., Boston, MA 02116","02116",42.3513649,-71.0818412,"217","Commonwealth Avenue","Boston","Massachusetts","02116"
"LB-101892","99  103 Harvard Ave., Allston, MA 02134","02134",42.3508359,-71.1312553,"183","Harvard Avenue","Boston","Massachusetts","02134"
"LB-418523","55 Berkeley St., Boston, MA 02116","02116",42.3465207,-71.0703721,"55","Berkeley Street","Boston","Massachusetts","02117"
"LB-475185","1930 Beacon St., Boston, MA 02135","02135",42.3364151,-71.1498959,"1928-1930","Beacon Street","Boston","Massachusetts","02135"
"LB-100484","600A Washington St., Brighton, MA 02135","02135",42.3512152,-71.1694072,"648","Washington Street","Boston","Massachusetts","02135"
"LB-472291","627 Tremont St., Boston, MA 02118","02118",42.3426298,-71.0746641,"627","Tremont Street","Boston","Massachusetts","02118"
"LB-476043","81  85 Guest St., Brighton, MA 02135","02135","","","","","","","None"
"LB-102010","1065 Commonwealth Ave., Allston, MA 02134","02134",42.3527227,-71.1235576,"1065","Commonwealth Avenue","Boston","Massachusetts","02215"
"LB-475881","Well Coffee House, Boston, 62 William C Kelly Sq., East Boston, MA 02128","02128","","","","","","","None"
"LB-475763","532 River St., Boston, MA 02126","02126",42.2670787,-71.0946006,"532","River Street","Boston","Massachusetts","02126"
"LB-99410","6 Long Wh., Boston, MA 02110","02110","","","","","","","None"
"LB-470762","89  Brighton Ave., Allston, MA  02134","02134",42.3531928,-71.1299181,"89","Brighton Avenue","Boston","Massachusetts","02134"
"LB-471191","120  Spring St., West Roxbury, MA  02132","02132",42.2764889,-71.1653889,"120","Spring Street","Boston","Massachusetts","02132"
"LB-101953","7-11  Charles St., Boston, MA  02114","02114",42.3601352,-71.0708162,"144","Charles Street","Boston","Massachusetts","02114"
"LB-100385","350  Benning St.., East Boston, MA  02128","02128","","","","","","","None"
"LB-471206","85  Northern Ave., Boston, MA  02210","02210",42.3516589,-71.0439706,"85","Northern Avenue","Boston","Massachusetts","02210"
"LB-471203","85  Northern Ave., Boston, MA  02210","02210",42.3516589,-71.0439706,"85","Northern Avenue","Boston","Massachusetts","02210"
"LB-100267","483 E Broadway, South Boston, MA  02127","02127",42.335274,-71.0455091,"481;483;485;487","East Broadway","Boston","Massachusetts","02127"
"LB-303415","291  Adams St., Boston, MA  02122","02122",42.2988357,-71.0575405,"2,9","Adams Street","Boston","Massachusetts","02122"
"LB-470781","114  South St., Boston, MA  02130","02130",42.305997,-71.1147634,"114","South Street","Boston","Massachusetts","02130"
"LB-472011","40  Beach St., Boston, MA  02111","02111",42.351571,-71.0615754,"40","Beach Street","Boston","Massachusetts","02111"
"LB-471208","85  Northern Ave., Boston, MA  02210","02210",42.3516589,-71.0439706,"85","Northern Avenue","Boston","Massachusetts","02210"
"LB-471198","284  Amory St., Jamaica Plain, MA  02130","02130",42.3144172,-71.1040271,"284","Amory Street","Boston","Massachusetts","02130"
"LB-101907","239  Newbury St., Boston, MA  02116","02116",42.3505265,-71.0783948,"160","Newbury Street","Boston","Massachusetts","02116"
"LB-469475","77 Stoughton St., Boston, MA 02125","02125",42.315812,-71.0626613,"75,77,79","Stoughton Street","Boston","Massachusetts","02125"
"LB-446045","10 Old Colony Av., South Boston, MA 02127","02127",42.3378061,-71.0565542,"10","Old Colony Avenue","Boston","Massachusetts","02127"
"LB-468444","505 Tremont St., Boston, MA 02116","02116",42.3435615,-71.0724028,"570","Tremont Street","Boston","Massachusetts","02118"
"LB-469978","32 Bromfield St., Boston, MA 02108","02108",42.356662,-71.0602891,"32","Bromfield Street","Boston","Massachusetts","02108"
"LB-466919","300 Cambridge St., Boston, MA 02114","02114",42.3609942,-71.0683995,"300","Cambridge Street","Boston","Massachusetts","02114"
"LB-464488","500 Logan Airport Terminal E, East Boston, MA 02128","02128",42.3691705,-71.0195653,"","Logan Airport Terminal E","Boston","Massachusetts","02128"
"LB-100663","152 - 156 Dudley St., Roxbury, MA 02119","02119","","","","","","","None"
"LB-101875","741 Centre St., Jamaica Plain, MA 02130","02130",42.3108101,-71.1148076,"741","Centre Street","Boston","Massachusetts","02130"
"LB-100496","605 - 607 Washington St., Dorchester, MA 02124","02124","","","","","","","None"
"LB-98924","9 Bowdoin St., Boston,, MA 02114","02114",42.3610023,-71.0631984,"9","Bowdoin Street","Boston","Massachusetts","02114"
"LB-99525","10 - 32 Harry Agganis Way, Boston, MA 02215","02215",42.3531777,-71.1166972,"33","Harry Agganis Way","Boston","Massachusetts","02215"
"LB-468377","1234 Soldiers Field Rd., Brighton, MA 02134","02134",42.3634756,-71.1363168,"1234","Soldiers Field Road","Boston","Massachusetts","02135"
"LB-369939","500 Logan Airport Terminal E, East Boston, MA 02128","02128",42.3691705,-71.0195653,"","Logan Airport Terminal E","Boston","Massachusetts","02128"
"LB-99011","138 Brighton Ave., Allston, MA 02134","02134",42.3528003,-71.1316912,"138","Brighton Avenue","Boston","Massachusetts","02134"
"LB-432438","10 Old Colony Av., South Boston, MA 02127","02127",42.3378061,-71.0565542,"10","Old Colony Avenue","Boston","Massachusetts","02127"
"LB-101901","418 Lagrange St., West Roxbury, MA 02132","02132",42.2761851,-71.1517273,"222","Lagrange Street","Boston","Massachusetts","02132"
"LB-99649","763 Centre St., Jamaica Plain, MA 02130","02130",42.310245,-71.115202,"763","Centre Street","Boston","Massachusetts","02130"
"LB-98968","138 Cambridge St., Boston, MA 02114","02114",42.3610246,-71.0639676,"138","Cambridge Street","Boston","Massachusetts","02114"
"LB-469486","131 W Broadway, South Boston, MA 02127","02127",42.3408147,-71.0543269,"131","West Broadway","Boston","Massachusetts","02127"
"LB-468219","3698 Washington St., Jamaica Plain, MA 02130","02130",42.303155,-71.1107444,"3593-3615","Washington Street","Boston","Massachusetts","02130"
"LB-101880","474 E Eighth St., South Boston, MA 02127","02127",42.3314086,-71.0394625,"550","East Eighth Street","Boston","Massachusetts","02127"
"LB-99029","271 Dartmouth St., Boston, MA 02116","02116",42.3506853,-71.0774037,"271","Dartmouth Street","Boston","Massachusetts","02116"
"LB-98967","108 Cambridge St., Charlestown, MA 02129","02129",42.3821725,-71.0793661,"108","Cambridge Street","Boston","Massachusetts","02129"
"LB-99773","2 Tyler St., Boston, MA 02111","02111",42.3512159,-71.0603737,"2","Tyler Street","Boston","Massachusetts","02111"
"LB-99063","225 Northern Ave., Boston, MA 02210","02210",42.3484812,-71.0386608,"225","Northern Avenue","Boston","Massachusetts","02210"
"LB-99241","240A Newbury St., Boston, MA 02116","02116",42.3494438,-71.0822465,"240A","Newbury Street","Boston","Massachusetts","02116"
"LB-99857","12 Dade St., Roxbury, MA 02119","02119",42.3320488,-71.0825299,"12;24","Dade Street","Boston","Massachusetts","02119"
"LB-468134","500 Logan Airport Terminal E East Boston, MA 02128","02128",42.3691705,-71.0195653,"","Logan Airport Terminal E","Boston","Massachusetts","02128"
"LB-101981","336 K St., South Boston, MA 02127","02127",42.3326625,-71.0373364,"323","K Street","Boston","Massachusetts","02127"
"LB-99025","571  581 Washington St., Boston, MA 02111","02111","","","","","","","None"
"LB-468323","200 State St., Boston, MA 02109","02109",42.3595921,-71.0530504,"200","State Street","Boston","Massachusetts","02109"
"LB-98923","49 Melcher St., Boston, MA 02210","02210",42.3493872,-71.0503734,"49","Melcher Street","Boston","Massachusetts","02210"
"LB-466920","Logan Airport, Terminal E, East Boston, MA  02128","02128","","","","","","","None"
"LB-99296","80 W. Broadway, Boston, MA  02127","02127",42.3418744,-71.0551567,"80","West Broadway","Boston","Massachusetts","02127"
"LB-99195","87 Prince Street, Boston, MA  02113","02113",42.3123089,-71.1211914,"87","Prince Street","Boston","Massachusetts","02130"
"LB-467591","87 A ST, South Boston, MA  02127","02127",42.3424313,-71.0546178,"87","A Street","Boston","Massachusetts","02127"
"LB-99116","439 Tremont Street, Boston, MA  02116","02116",42.3468371,-71.0691398,"439","Tremont Street","Boston","Massachusetts","02118"
"LB-466351","157 Seaport Blvd., Boston, MA  02210","02210",42.3497419,-71.0420754,"157","Seaport Boulevard","Boston","Massachusetts","02210"
"LB-99142","900 Boylston Street, Boston, MA  02199","02199",42.3477603,-71.0851912,"900","Boylston Street","Boston","Massachusetts","02199"
"LB-99004","266 Commercial St., Boston, MA 02109","02109",42.3643062,-71.0513521,"266","Commercial Street","Boston","Massachusetts","02109"
"LB-465784","485 Harrison Ave., Roxbury, MA 02118","02118",42.3418929,-71.0666351,"485","Harrison Avenue","Boston","Massachusetts","02118"
"LB-101662","655 Boylston St., Boston, MA 02116","02116",42.3500527,-71.0785936,"655","Boylston Street","Boston","Massachusetts","02116"
"LB-461004","449 W Broadway South Boston, MA 02127","02127",42.3359444,-71.0468001,"449","West Broadway","Boston","Massachusetts","02127"
"LB-99709","54 Salem St., Boston, MA 02113","02113",42.363198,-71.056283,"52,54,56","Salem Street","Boston","Massachusetts","02113"
"LB-99108","279A Newbury St., Boston, MA 02115","02115",42.3492887,-71.0843668,"279A","Newbury Street","Boston","Massachusetts","02115"
"LB-101977","45 William T Morrissey Blvd., Dorchester, MA 02125","02125",42.3183987,-71.0506931,"45","William T. Morrissey Boulevard","Boston","Massachusetts","02125"
"LB-460881","565 Sumner St., East Boston, MA 02128","02128",42.3639106,-71.0284498,"565","Sumner Street","Boston","Massachusetts","02128"
"LB-99837","11 1/2 Thacher Ct., Boston, MA 02113","02113",42.3654618,-71.0578688,"5","Thacher Court","Boston","Massachusetts","02113"
"LB-463819","21 Drydock Ave., Boston, MA 02210","02210",42.3443383,-71.0312473,"21","Drydock Avenue","Boston","Massachusetts","02210"
"LB-463538","12 Old Colony Ave., South Boston, MA 02127","02127",42.3376711,-71.0566058,"12","Old Colony Avenue","Boston","Massachusetts","02127"
"LB-99805","122 Harvard Ave., Allston, MA 02134","02134",42.3523797,-71.1317386,"122","Harvard Avenue","Boston","Massachusetts","02134"
"LB-349943","945 Saratoga St., East Boston, MA 02128","02128",42.3865867,-71.0091576,"945","Saratoga Street","Boston","Massachusetts","02128"
"LB-463450","87 A St., South Boston, MA 02127","02127",42.3424313,-71.0546178,"87","A Street","Boston","Massachusetts","02127"
"LB-99688","306 Northern Ave., Boston, MA 02210","02210",42.3471071,-71.0341176,"306","Northern Avenue","Boston","Massachusetts","02210"
"LB-463019","234 Newbury St., Boston, MA 02116","02116",42.3496386,-71.0815943,"234","Newbury Street","Boston","Massachusetts","02116"
"LB-461795","724 Dudley St., Dorchester, MA 02125","02125",42.3177768,-71.0667516,"744,746,748","Dudley Street","Boston","Massachusetts","02125"
"LB-462625","258 W Broadway South Boston, MA 02127","02127",42.3394006,-71.0515018,"258","West Broadway","Boston","Massachusetts","02127"
"LB-102023","818  820 Huntington Ave., Boston, MA 02115","02115","","","","","","","None"
"LB-99587","48 Gloucester St., Boston, MA 02115","02115",42.348686,-71.0840755,"48","Gloucester Street","Boston","Massachusetts","02115"
"LB-364807","9 District Av., Dorchester, MA 02125","02125",42.3254625,-71.0625426,"27","District Avenue","Boston","Massachusetts","02125"
"LB-439874","55 Temple Pl., Boston, MA 02111","02111",42.3548306,-71.0617822,"55","Temple Place","Boston","Massachusetts","02111"
"LB-459546","1283 River St., Boston, MA 02136","02136",42.2559187,-71.1245106,"1283","River Street","Boston","Massachusetts","02136"
"LB-462626","45 Lewis St., East Boston, MA 02128","02128",42.3669211,-71.0416032,"45","Lewis Street","Boston","Massachusetts","02128"
"LB-101645","101 Harborside Dr., East Boston, MA 02128","02128",42.3685106,-71.0291754,"101","Harborside Drive","Boston","Massachusetts","02128"
"LB-462624","96 Peterborough St., Boston, MA 02116","02116",42.3430483,-71.0992983,"96","Peterborough Street","Boston","Massachusetts","02215"
"LB-432370","36 First Ave., Charlestown, MA 02129","02129",42.3749581,-71.0539507,"","Chelsea Street","Boston","Massachusetts","02129"
"LB-464954","Logan Airport Terminal A East Boston, MA 02128","02128",42.3649131,-71.0204236,"","Logan Airport Terminal A","Boston","Massachusetts","02128"
"LB-99215","528 Commonwealth Ave., Boston, MA 02115","02115",42.3485601,-71.0961765,"528","Commonwealth Avenue","Boston","Massachusetts","02215"
"LB-378411","370 Congress St., Boston, MA 02127","02127",42.350433,-71.0476885,"370","Congress Street","Boston","Massachusetts","02210"
"LB-461761","570 Warren St., Dorchester, MA 02121","02121","","","","","","","None"
"LB-99647","1721 Washington St., Roxbury, MA 02118","02118",42.3329262,-71.0810342,"","Washington Street","Boston","Massachusetts","02118"
"LB-115958","Logan Airport, Terminal A East Boston, MA 02128","02128","","","","","","","None"
"LB-98949","885 Boylston St., Boston, MA 02116","02116",42.3485273,-71.0834675,"885","Boylston Street","Boston","Massachusetts","02116"
"LB-463022","169 Saint Botolph St., Boston, MA 02115","02115",42.3433723,-71.0829467,"169","Saint Botolph Street","Boston","Massachusetts","02199"
"LB-463290","15 Monsignor Albert A. Jacobbe Rd., East Boston, MA 02128","02128",42.3681119,-71.0408091,"15","Monsignor Albert A Jacobbe Road","Boston","Massachusetts","02128"
"LB-99380","35 Stanhope St., Boston, MA 02116","02116",42.3484832,-71.0732342,"35","Stanhope Street","Boston","Massachusetts","02116"
"LB-98797","256 Freeport St., Dorchester, MA 02122","02122",42.3036228,-71.052788,"256","Freeport Street","Boston","Massachusetts","02125"
"LB-464470","99  101 Border St., East Boston, MA 02128","02128",42.3789834,-71.0400533,"331;333;335","Border Street","Boston","Massachusetts","02128"
"LB-464981","100 High St., Boston, MA 02110","02110",42.3544401,-71.0556228,"100","High Street","Boston","Massachusetts","02110"
"LB-99648","530 Tremont St., Boston, MA 02116","02116",42.3445175,-71.0701905,"530","Tremont Street","Boston","Massachusetts","02118"
"LB-99572","132 Newbury St., Boston, MA 02116","02116",42.3509475,-71.0766978,"132","Newbury Street","Boston","Massachusetts","02116"
"LB-130760","348 Harrison Ave., Boston, MA 02118","02118",42.3454666,-71.0628246,"348","Harrison Avenue","Boston","Massachusetts","02118"
"LB-461201","191 Talbot Ave., Dorchester, MA 02124","02124",42.2918769,-71.0776513,"215","Talbot Avenue","Boston","Massachusetts","02124"
"LB-461399","38 Brooks St., Brighton, MA 02134","02134",42.3561595,-71.1622165,"38","Brooks Street","Boston","Massachusetts","02135"
"LB-101595","140 Clarendon St., Boston, MA 02116","02116",42.3485849,-71.0744787,"140","Clarendon Street","Boston","Massachusetts","02116"
"LB-461207","246A W Broadway Boston, MA 02127","02127",42.3396141,-71.0516742,"246","West Broadway","Boston","Massachusetts","02127"
"LB-461398","235 Victory Rd., Dorchester, MA 02122","02122",42.2997019,-71.0443964,"235","Victory Road","Boston","Massachusetts","02122"
"LB-434284","152 Hampden St., Roxbury, MA 02119","02119",42.3277529,-71.0748973,"152","Hampden Street","Boston","Massachusetts","02118"
"LB-460457","834 Blue Hill Ave., Dorchester, MA 02124","02124","","","","","","","None"
"LB-451413","271 Meridian St., East Boston, MA 02128","02128",42.3799816,-71.0392407,"391","Meridian Street","Boston","Massachusetts","02128"
"LB-456339","114 Western Ave., Allston, MA 02134","02134",42.3631743,-71.1244446,"114","Western Avenue","Boston","Massachusetts","02134"
"LB-390565","300 Logan Airport Terminal B East Boston, MA 02128","02128",42.364416,-71.0195614,"31","Logan Airport Terminal B","Boston","Massachusetts","02128"
"LB-379141","300 Logan Airport Terminal C East Boston, MA 02128","02128",42.3671734,-71.0179369,"1","Harborside Drive","Boston","Massachusetts","02128"
"LB-101965","1568 Dorchester Ave., Dorchester, MA 02122","02122",42.2973827,-71.0610034,"1565","Dorchester Avenue","Boston","Massachusetts","02122"
"LB-410009","Logan Airport 300 Terminal C East Boston, MA 02128","02128","","","","","","","None"
"LB-100604","39 Savin Hill Ave., Dorchester, MA 02125","02125",42.3128064,-71.0574938,"39","Savin Hill Avenue","Boston","Massachusetts","02125"
"LB-460821","50 Liberty Dr., Boston, MA 02210","02210",42.3542066,-71.0444979,"50","Liberty Drive","Boston","Massachusetts","02210"
"LB-460996","115 Salem St., Boston, MA 02113","02113",42.3644152,-71.055371,"115","Salem Street","Boston","Massachusetts","02113"
"LB-460885","7 Charles St., Boston, MA 02114","02114",42.356511,-71.0693173,"7","Charles Street","Boston","Massachusetts","02114"
"LB-447856","516 Gallivan Blvd., Dorchester, MA 02124","02124",42.2827993,-71.0555485,"516","Gallivan Boulevard","Boston","Massachusetts","02122"
"LB-101964","1088 Dorchester Ave., Dorchester, MA 02125","02125",42.3135227,-71.0569605,"1088","Dorchester Avenue","Boston","Massachusetts","02125"
"LB-459978","","None","","","","","","","None"
"LB-98804","82-84 Boston St., Dorchester, MA 02125","02125",42.3237507,-71.0601394,"175","Boston Street","Boston","Massachusetts","02125"
"LB-98899","240A Newbury St., Boston, MA 02116","02116",42.3494438,-71.0822465,"240A","Newbury Street","Boston","Massachusetts","02116"
"LB-458127","151 Tremont St., Boston, MA 02111","02111",42.354508,-71.0632911,"151","Tremont Street","Boston","Massachusetts","02111"
"LB-140277","362 K St., South Boston, MA 02127","02127",42.3313502,-71.0370604,"362","K Street","Boston","Massachusetts","02127"
"LB-458141","625 Huntington Ave., Boston, MA 02115","02115",42.3363279,-71.1003898,"621","Huntington Avenue","Boston","Massachusetts","02115"
"LB-99814","333 Border St., East Boston, MA 02128","02128",42.3790099,-71.0398691,"331;333;335","Border Street","Boston","Massachusetts","02128"
"LB-101630","20 - 60 North St., Boston, MA 02109","02109","","","","","","","None"
"LB-458000","682 Cummins Hwy., Mattapan, MA 02126","02126",42.2715221,-71.1041784,"682-686","Cummins Highway","Boston","Massachusetts","02126"
"LB-458001","377 Centre St., Jamaica Plain, MA 02130","02130",42.3223246,-71.1090904,"377","Centre Street","Boston","Massachusetts","02130"
"LB-457991","264 Huntington Ave., Boston, MA 02115","02115",42.2688532,-71.1177645,"264","Huntington Avenue","Boston","Massachusetts","02137"
"LB-99725","2A Prince St., Boston, MA 02113","02113",42.3640568,-71.0536873,"2A;4;4A","Prince Street","Boston","Massachusetts","02113"
"LB-99123","8 Lincoln St., Brighton, MA 02135","02135",42.3586092,-71.1457464,"30","Lincoln Street","Boston","Massachusetts","02135"
"LB-99240","111 Waldemar Ave., East Boston, MA 02128","02128",42.3944387,-71.0002906,"111","Waldemar Avenue","Boston","Massachusetts","02128"
"LB-457699","32 Bromfield St., Boston, MA 02108","02108",42.356662,-71.0602891,"32","Bromfield Street","Boston","Massachusetts","02108"
"LB-457684","899 Congress St., Boston, MA 02210","02210",42.3480183,-71.0374154,"899","Congress Street","Boston","Massachusetts","02210"
"LB-400360","Logan Airport Terminal C East Boston, MA 02128","02128",42.3671734,-71.0179369,"1","Harborside Drive","Boston","Massachusetts","02128"
"LB-353657","50 Lewis St., East Boston, MA 02128","02128",42.367264,-71.0407879,"50","Lewis Street","Boston","Massachusetts","02128"
"LB-142550","411 D St., Boston, MA 02210","02210",42.3447376,-71.0435166,"413","D Street","Boston","Massachusetts","02210"
"LB-98876","Logan Airport Terminal C East Boston, MA 02128","02128",42.3671734,-71.0179369,"1","Harborside Drive","Boston","Massachusetts","02128"
"LB-456653","266 Newbury St., Boston, MA 02116","02116",42.3491798,-71.0831909,"266","Newbury Street","Boston","Massachusetts","02116"
"LB-456543","3698 Washington St., Jamaica Plain, MA 02130","02130",42.303155,-71.1107444,"3593-3615","Washington Street","Boston","Massachusetts","02130"
"LB-456760","10 Shattuck St., Boston, MA 02115","02115",42.3354375,-71.1044172,"25","Shattuck Street","Boston","Massachusetts","02115"
"LB-126410","Logan Airport, Terminal B East Boston, MA 02128","02128","","","","","","","None"
"LB-456202","1448 Dorchester Ave., Dorchester, MA 02122","02122",42.3011294,-71.059742,"1448","Dorchester Avenue","Boston","Massachusetts","02122"
"LB-456201","33 Hancock St., Dorchester, MA 02125","02125",42.3142964,-71.065836,"33","Hancock Street","Boston","Massachusetts","02125"
"LB-99263","15 Union St., Boston, MA 02108","02108",42.3608866,-71.0566798,"17,21","Union Street","Boston","Massachusetts","02109"
"LB-99347","110 Dorchester St., South Boston, MA 02127","02127",42.335126,-71.0459636,"110;112","Dorchester Street","Boston","Massachusetts","02127"
"LB-456206","1231 River St., Hyde Park, MA 02136","02136",42.2561487,-71.1229106,"1231-1237","River Street","Boston","Massachusetts","02136"
"LB-102050","31 Saint James Ave., Boston, MA 02116","02116",42.3511124,-71.0711073,"31","Saint James Avenue","Boston","Massachusetts","02116"
"LB-454336","600 D St., South Boston, MA 02210","02210",42.3484478,-71.0398301,"600","D Street","Boston","Massachusetts","02210"
"LB-454719","281 Huntington Ave., Boston, MA 02115","02115",42.2681814,-71.1179429,"281","Huntington Avenue","Boston","Massachusetts","02137"
"LB-456210","3840 Washington St., Jamaica Plain, MA 02130","02130",42.303155,-71.1107444,"3593-3615","Washington Street","Boston","Massachusetts","02130"
"LB-454197","148 Brookline Ave., Boston, MA 02215","02215",42.344574,-71.1008236,"148","Brookline Avenue","Boston","Massachusetts","02215"
"LB-99082","147 Hanover St., Boston, MA 02108","02108",42.3617706,-71.0569489,"147","Hanover Street","Boston","Massachusetts","02108"
"LB-454178","742 - 744 Columbus Ave., Mission Hill, MA 02120","02120","","","","","","","None"
"LB-454607","296 Washington St., Brighton, MA 02135","02135",42.3512152,-71.1694072,"648","Washington Street","Boston","Massachusetts","02135"
"LB-454572","1616 Dorchester Ave., Dorchester, MA 02122","02122",42.2953804,-71.0613816,"1616","Dorchester Avenue","Boston","Massachusetts","02122"
"LB-99850","639 Tremont St., Roxbury, MA 02118","02118",42.3356687,-71.0869956,"","Tremont Street","Boston","Massachusetts","02115"
"LB-102000","303 Columbus Ave., Boston, MA 02116","02116",42.3466997,-71.0745397,"303","Columbus Avenue","Boston","Massachusetts","02116"
"LB-454582","1 Peabody Sq., Dorchester, MA 02124","02124",42.286105,-71.0637074,"1","Peabody Square","Boston","Massachusetts","02124"
"LB-99051","140 Seaport Blvd., Boston, MA 02210","02210",42.3526687,-71.0475604,"55,57","Seaport Boulevard","Boston","Massachusetts","02210"
"LB-99061","172 - 174 W Broadway South Boston, MA 02127","02127",42.3376545,-71.0490301,"368","West Broadway","Boston","Massachusetts","02127"
"LB-101652","821 Washington St., Boston, MA 02111","02111",42.3488946,-71.0642452,"821","Washington Street","Boston","Massachusetts","02111"
"LB-101924","607 Tremont St., Roxbury, MA 02118","02118",42.3356687,-71.0869956,"","Tremont Street","Boston","Massachusetts","02115"
"LB-454574","230 W Broadway South Boston, MA 02127","02127",42.339809,-71.0519,"230","West Broadway","Boston","Massachusetts","02127"
"LB-454191","329 Huntington Ave., Boston, MA 02115","02115",42.2667987,-71.1170339,"329","Huntington Avenue","Boston","Massachusetts","02136"
"LB-98913","148  STATE ST, BOSTON, MA  02109","02109",42.3593344,-71.054186,"148","State Street","Boston","Massachusetts","02110"
"LB-451118","2565 Washington St., Roxbury, MA 02119","02119",42.3264869,-71.087901,"2565","Washington Street","Boston","Massachusetts","02119"
"LB-132","","None","","","","","","","None"
"LB-99863","636 Beacon St., Boston, MA 02215","02215",42.3494682,-71.0952586,"636","Beacon Street","Boston","Massachusetts","02215"
"LB-447650","1 Beacon St., Boston, MA 02108","02108",42.3574589,-71.0652642,"34 1/2","Beacon Street","Boston","Massachusetts","02108"
"LB-99159","12 Farnsworth St., Boston, MA 02210","02210",42.3514058,-71.0488056,"12-22","Farnsworth Street","Boston","Massachusetts","02210"
"LB-454552","215  NEWBURY ST, BOSTON, MA  02116","02116",42.3501525,-71.0812865,"215","Newbury Street","Boston","Massachusetts","02116"
"LB-447705","604 Blue Hill Ave., Dorchester, MA 02121","02121","","","","","","","None"
"LB-451414","1651 Washington St., Boston, MA 02118","02118",42.3378849,-71.0753844,"1651","Washington Street","Boston","Massachusetts","02118"
"LB-451415","857 Dorchester Ave., Dorchester, MA 02125","02125",42.3214818,-71.0569268,"857","Dorchester Avenue","Boston","Massachusetts","02125"
"LB-451073","1016 Bennington St., East Boston, MA 02128","02128",42.3852178,-71.0112134,"740","Bennington Street","Boston","Massachusetts","02128"
"LB-451411","40 Main St., Boston, MA 02129","02129",42.3840238,-71.072606,"544-548A","Main Street","Boston","Massachusetts","02129"
"LB-99653","476 Commonwealth Ave., Boston, MA 02215","02215",42.348539,-71.0938604,"476","Commonwealth Avenue","Boston","Massachusetts","02215"
"LB-98894","144   150  MERIDIAN ST, EAST BOSTON, MA  02128","02128","","","","","","","None"
"LB-448085","83  CHARLES ST, BOSTON, MA  02114","02114",42.3584546,-71.0704576,"81","Charles Street","Boston","Massachusetts","02114"
"LB-447983","2254  DORCHESTER AVE, DORCHESTER, MA  02124","02124",42.2734965,-71.0675553,"2254","Dorchester Avenue","Boston","Massachusetts","02124"
"LB-145840","98  VAN NESS ST, BOSTON, MA  02215","02215",42.344749,-71.1000918,"98","Van Ness Street","Boston","Massachusetts","02215"
"LB-448043","526  BEACON ST, BOSTON, MA  02215","02215",42.3505672,-71.0908465,"526","Beacon Street","Boston","Massachusetts","02215"
"LB-448032","20 - 22  MAVERICK ST, EAST BOSTON, MA  02128","02128",42.3717603,-71.0426195,"","Maverick Street","Boston","Massachusetts","02128"
"LB-447982","200  TERMINAL ST, CHARLESTOWN, MA  02129","02129",42.3831977,-71.0497382,"200","Terminal Street","Boston","Massachusetts","02129"
"LB-126408","LOGAN AIRPORT, TERMINAL B, EAST BOSTON, MA  02128","02128","","","","","","","None"
"LB-447786","584  COLUMBUS AVE, ROXBURY, MA  02118","02118",42.3311252,-71.0946996,"1234","Columbus Avenue","Boston","Massachusetts","02120"
"LB-447787","552  TREMONT ST, ROXBURY, MA  02118","02118",42.3356687,-71.0869956,"","Tremont Street","Boston","Massachusetts","02115"
"LB-318030","LOGAN AIRPORT, TERMINAL E, EAST BOSTON, MA  02128","02128","","","","","","","None"
"LB-167065","400  TREMONT ST, BOSTON, MA  02116","02116",42.3435615,-71.0724028,"570","Tremont Street","Boston","Massachusetts","02118"
"LB-99522","290  NORTHERN AVE, BOSTON, MA  02210","02210",42.3485027,-71.0359348,"290","Northern Avenue","Boston","Massachusetts","02210"
"LB-99441","1  HUNTINGTON AVE, BOSTON, MA  02116","02116",42.3486669,-71.0783165,"1","Huntington Avenue","Boston","Massachusetts","02116"
"LB-124583","500  LOGAN AIRPORT TERMINAL E, EAST BOSTON, MA  02128","02128",42.3691705,-71.0195653,"","Logan Airport Terminal E","Boston","Massachusetts","02128"
"LB-99766","329  HUNTINGTON AVE, BOSTON, MA  02115","02115",42.2667987,-71.1170339,"329","Huntington Avenue","Boston","Massachusetts","02136"
"LB-99221","129  SOUTH ST, BOSTON, MA  02111","02111",42.3511781,-71.0574655,"129","South Street","Boston","Massachusetts","02284"
"LB-106825","LOGAN AIRPORT, TERMINAL B, EAST BOSTON, MA  02128","02128","","","","","","","None"
"LB-447464","295-311  BLUE HILL AVE, DORCHESTER, MA  02121","02121","","","","","","","None"
"LB-98873","LOGAN AIRPORT, TERMINAL C, EAST BOSTON, MA  02128","02128","","","","","","","None"
"LB-447212","33  ARCH ST, BOSTON, MA  02110","02110",42.3561471,-71.0582667,"33","Arch Street","Boston","Massachusetts","02110"
"LB-99398","367 E EIGHTH ST, SOUTH BOSTON, MA  02127","02127",42.3311071,-71.0463461,"367","East Eighth Street","Boston","Massachusetts","02127"
"LB-99533","13  HUDSON ST, BOSTON, MA  02111","02111",42.3508156,-71.0602511,"13;13A","Hudson Street","Boston","Massachusetts","02111"
"LB-138888","709 E BROADWAY, SOUTH BOSTON, MA  02127","02127",42.3354805,-71.0370145,"709","East Broadway","Boston","Massachusetts","02127"
"LB-99537","108  L ST, SOUTH BOSTON, MA  02127","02127",42.3340361,-71.0351147,"106-108","L Street","Boston","Massachusetts","02127"
"LB-446829","110  MERIDIAN ST, BOSTON, MA  02128","02128",42.372913,-71.0392471,"108,110","Meridian Street","Boston","Massachusetts","02128"
"LB-447230","50  LIBERTY DR, BOSTON, MA  02210","02210",42.3542066,-71.0444979,"50","Liberty Drive","Boston","Massachusetts","02210"
"LB-99375","105 HUNTINGTON AVE, BOSTON, MA  02199","02199",42.3473051,-71.079389,"53","Huntington Avenue","Boston","Massachusetts","02116"
"LB-446824","22 CENTRAL SQ, EAST BOSTON, MA  02128","02128",42.374708,-71.0387836,"","William C. Kelley Square","Boston","Massachusetts","02128"
"LB-446699","1 MILK ST, BOSTON, MA  02109","02109",42.3567715,-71.058636,"322,328","Washington Street","Boston","Massachusetts","02110"
"LB-445763","292 TALBOT AVE, BOSTON, MA  02124","02124",42.2918769,-71.0776513,"215","Talbot Avenue","Boston","Massachusetts","02124"
"LB-99832","375 CHESTNUT HILL AV, BRIGHTON, MA  02135","02135",42.334969,-71.1508137,"375","Chestnut Hill Avenue","Boston","Massachusetts","02026"
"LB-423824","198 WESTERN AVE, ALLSTON, MA  02134","02134",42.3631369,-71.1316343,"212;230","Western Avenue","Boston","Massachusetts","02134"
"LB-446159","63 BROAD ST, BOSTON, MA  02109","02109",42.3577581,-71.0539716,"63,65","Broad Street","Boston","Massachusetts","02109"
"LB-445759","479 BLUE HILL AVE, DORCHESTER, MA  02121","02121",42.3087987,-71.0833406,"479","Blue Hill Avenue","Boston","Massachusetts","02121"
"LB-98940","50 GLOUCESTER ST, BOSTON, MA  02115","02115",42.3486304,-71.0840477,"50","Gloucester Street","Boston","Massachusetts","02115"
"LB-99685","200 PIER 4 BLVD, BOSTON, MA  02210","02210","","","","","","","None"
"LB-99544","900 BEACON ST, BOSTON, MA  02215","02215",42.3468335,-71.105759,"900","Beacon Street","Boston","Massachusetts","02215"
"LB-446060","83 HARVARD AVE, BOSTON, MA  02134","02134",42.2593727,-71.1221926,"83","Harvard Avenue","Boston","Massachusetts","02137"
"LB-446813","103 BRIGHTON AVE, ALLSTON, MA  02134","02134",42.3529624,-71.1303578,"103","Brighton Avenue","Boston","Massachusetts","02134"
"LB-99285","541 TREMONT ST, BOSTON, MA  02116","02116",42.3443729,-71.0713814,"541","Tremont Street","Boston","Massachusetts","02118"
"LB-101932","3086  WASHINGTON ST, ROXBURY, MA  02119","02119",42.3158813,-71.0982345,"3064","Washington Street","Boston","Massachusetts","02119"
"LB-99439","97  MOUNT VERNON ST, BOSTON, MA  02108","02108",42.3580849,-71.0697321,"97","Mount Vernon Street","Boston","Massachusetts","02108"
"LB-445633","50  HOOD PARK DR, CHARLESTOWN, MA  02129","02129",42.3800946,-71.0721512,"50","Hood Park Drive","Boston","Massachusetts","02129"
"LB-445438","805  HARRISON AVE, ROXBURY, MA  02118","02118",42.3320639,-71.0793557,"","Harrison Avenue","Boston","Massachusetts","02118"
"LB-445469","1616  DORCHESTER AVE, DORCHESTER, MA  02122","02122",42.2953804,-71.0613816,"1616","Dorchester Avenue","Boston","Massachusetts","02122"
"LB-445817","365  CENTRE ST, JAMAICA PLAIN, MA  02130","02130",42.3225384,-71.1082921,"365","Centre Street","Boston","Massachusetts","02130"
"LB-102014","1245  VFW PKWY, WEST ROXBURY, MA  02132","02132",42.277434,-71.1726495,"1245","Veterans of Foreign Wars Parkway","Boston","Massachusetts","02132"
"LB-101982","103  CAUSEWAY ST, BOSTON, MA  02114","02114",42.3649264,-71.0618256,"103","Causeway Street","Boston","Massachusetts","02114"
"LB-98785","1  BEACON ST, BOSTON, MA  02108","02108",42.3574589,-71.0652642,"34 1/2","Beacon Street","Boston","Massachusetts","02108"
"LB-98934","1  SCIENCE PARK, BOSTON, MA  02114","02114",42.3677082,-71.0711399,"1","Science Park","Boston","Massachusetts","02114"
"LB-138939","560  TREMONT ST, ROXBURY, MA  02118","02118",42.3356687,-71.0869956,"","Tremont Street","Boston","Massachusetts","02115"
"LB-443718","181  HARVARD AVE, BOSTON, MA  02134","02134",42.3509583,-71.1315246,"181","Harvard Avenue","Boston","Massachusetts","02134"
"LB-443334","15  JAN KARSKI WY, DORCHESTER, MA  02125","02125",42.3259626,-71.0607854,"15","Jan Karski Way","Boston","Massachusetts","02125"
"LB-409585","20B  DISTRICT AVE, DORCHESTER, MA  02125","02125",42.3254625,-71.0625426,"27","District Avenue","Boston","Massachusetts","02125"
"LB-443717","14  TYLER ST, BOSTON, MA  02111","02111",42.350879,-71.0605761,"14","Tyler Street","Boston","Massachusetts","02111"
"LB-101631","250  FRANKLIN ST, BOSTON, MA  02110","02110",42.3567067,-71.0537404,"260","Franklin Street","Boston","Massachusetts","02109"
"LB-465319","421 Bowdoin St., Boston, MA 02122","02122",42.3104632,-71.0620728,"421","Bowdoin Street","Boston","Massachusetts","02122"
"LB-99799","65 Atlantic Ave., Boston, MA 02110","02110",42.362888,-71.0512112,"65","Atlantic Avenue","Boston","Massachusetts","02110"
"LB-465575","25 Massachusetts Ave., Boston, MA 02115","02115",42.3505195,-71.089579,"25;27","Massachusetts Avenue","Boston","Massachusetts","02115"
"LB-139771","1795 Commonwealth Ave., Brighton, MA 02135","02135",42.340631,-71.1514904,"1795","Commonwealth Avenue","Boston","Massachusetts","02135"
"LB-465569","5  9 Hudson St., Boston, MA 02111","02111",42.3497805,-71.060454,"66","Hudson Street","Boston","Massachusetts","02111"
"LB-99254","520 Tremont St., Roxbury, MA 02118","02118",42.3356687,-71.0869956,"","Tremont Street","Boston","Massachusetts","02115"
"LB-101943","474 Columbus Ave., Roxbury, MA 02118","02118",42.3311252,-71.0946996,"1234","Columbus Avenue","Boston","Massachusetts","02120"
"LB-465562","4254 Washington St., Boston, MA 02131","02131",42.2755885,-71.1402569,"4635","Washington Street","Boston","Massachusetts","02131"
"LB-99219","10 Dunbar Ave., Dorchester, MA 02124","02124",42.286263,-71.0718201,"10","Dunbar Avenue","Boston","Massachusetts","02124"
"LB-102061","613 E BROADWAY, SOUTH BOSTON, MA 02127","02127",42.3353719,-71.0398106,"613","East Broadway","Boston","Massachusetts","02127"
"LB-99505","73 MAIN ST., CHARLESTOWN, MA 02129","02129",42.3783324,-71.0679676,"315","Main Street","Boston","Massachusetts","02129"
"LB-102011","1700 COMMONWEALTH AVE, BRIGHTON, MA 02135","02135",42.3411717,-71.1467445,"1700","Commonwealth Avenue","Boston","Massachusetts","02135"
"LB-139598","1171 HYDE PARK AVE, HYDE PARK, MA 02136","02136",42.2588884,-71.1237797,"1171","Hyde Park Avenue","Boston","Massachusetts","02137"
"LB-438557","360 CENTRE ST., JAMAICA PLAIN, MA 02130","02130",42.3222829,-71.1078437,"360","Centre Street","Boston","Massachusetts","02130"
"LB-99487","73 - 83  MAIN ST., CHARLESTOWN, MA 02129","02129","","","","","","","None"
"LB-318110","1971 DORCHESTER AVE, DORCHESTER, MA 02124","02124",42.2834505,-71.0651482,"1971","Dorchester Avenue","Boston","Massachusetts","02124"
"LB-438577","1098  COMMONWEALTH AVE, BOSTON, MA  02215","02215",42.3518417,-71.1243464,"1098","Commonwealth Avenue","Boston","Massachusetts","02134"
"LB-99086","296  HANOVER ST, BOSTON, MA  02113","02113",42.3641226,-71.0542967,"296","Hanover Street","Boston","Massachusetts","02113"
"LB-99588","50  DALTON ST, BOSTON, MA  02115","02115",42.3469541,-71.0855811,"50","Dalton Street","Boston","Massachusetts","02115"
"LB-99436","284  AMORY ST, JAMAICA PLAIN, MA  02130","02130",42.3144172,-71.1040271,"284","Amory Street","Boston","Massachusetts","02130"
"LB-101653","1   2  AVERY ST, BOSTON, MA  02111","02111",42.3532575,-71.06272,"","Avery Street","Boston","Massachusetts","02111"
"LB-99836","264  NEWBURY ST, BOSTON, MA  02116","02116",42.3492009,-71.0831139,"264","Newbury Street","Boston","Massachusetts","02116"
"LB-385719","25  JAN KARSKI WY, DORCHESTER, MA  02125","02125",42.3247716,-71.0613181,"","Jan Karski Way","Boston","Massachusetts","01125"
"LB-99160","290  CONGRESS ST, BOSTON, MA  02110","02110",42.3529918,-71.0526392,"290","Congress Street","Boston","Massachusetts","02110"
"LB-436900","188  HIGH ST, BOSTON, MA  02110","02110",42.3559919,-71.0532496,"125","High Street","Boston","Massachusetts","02110"
"LB-353653","1269  MASSACHUSETTS AVE, DORCHESTER, MA  02125","02125",42.3215054,-71.062601,"1269","Massachusetts Avenue","Boston","Massachusetts","02125"
"LB-437348","1476   1478  DORCHESTER AVE, DORCHESTER, MA  02122","02122","","","","","","","None"
"LB-436364","54  BENNINGTON ST, EAST BOSTON, MA  02128","02128",42.3757014,-71.0370187,"54","Bennington Street","Boston","Massachusetts","02128"
"LB-99835","13   15  MERIDIAN ST, EAST BOSTON, MA  02128","02128",42.3799816,-71.0392407,"391","Meridian Street","Boston","Massachusetts","02128"
"LB-144189","264  HYDE PARK AVE, JAMAICA PLAIN, MA  02130","02130",42.2925352,-71.1175141,"262","Hyde Park Avenue","Boston","Massachusetts","02130"
"LB-436833","645  SUMMER ST, BOSTON, MA  02127","02127",42.3390132,-71.0355189,"776","Summer Street","Boston","Massachusetts","02127"
"LB-99774","445  HANOVER ST, BOSTON, MA  02113","02113",42.3661366,-71.0526131,"443","Hanover Street","Boston","Massachusetts","02113"
"LB-436114","76  BENNINGTON ST, EAST BOSTON, MA  02128","02128",42.3760328,-71.0362365,"76","Bennington Street","Boston","Massachusetts","02128"
"LB-98832","500 MORTON ST, DORCHESTER, MA  02124","02124",42.2760531,-71.0743885,"1130","Morton Street","Boston","Massachusetts","02124"
"LB-434853","1 NASSAU ST, BOSTON, MA  02111","02111",42.3486703,-71.0629127,"1","Nassau Street","Boston","Massachusetts","02111"
"LB-436069","206 - 208 W BROADWAY, SOUTH BOSTON, MA  02127","02127",42.3376545,-71.0490301,"368","West Broadway","Boston","Massachusetts","02127"
"LB-436142","355 WASHINGTON ST, BOSTON, MA  02135","02135",42.3566215,-71.0593451,"355","Washington Street","Boston","Massachusetts","02108"
"LB-101624","10 HUNTINGTON AVE, BOSTON, MA  02116","02116",42.3484788,-71.0772279,"10","Huntington Avenue","Boston","Massachusetts","02116"
"LB-436384","175  CAMBRIDGE ST, BOSTON, MA  02114","02114",42.3613534,-71.0661321,"","Cambridge Street","Boston","Massachusetts","02114"
"LB-434635","197A  MASSACHUSETTS AVE, BOSTON, MA  02115","02115",42.3452332,-71.087046,"197a","Massachusetts Avenue","Boston","Massachusetts","02115"
"LB-434845","7 - 9  BURROUGHS ST, JAMAICA PLAIN, MA  02130","02130",42.3130581,-71.1164664,"42","Burroughs Street","Boston","Massachusetts","02130"
"LB-100500","2360A  WASHINGTON ST, ROXBURY, MA  02119","02119","","","","","","","None"
"LB-434068","44  CONCORD SQ, ROXBURY, MA  02118","02118","","","","","","","None"
"LB-311737","971  TREMONT ST, MISSION HILL, MA  02120","02120",42.3338184,-71.1037788,"1631","Tremont Street","Boston","Massachusetts","02120"
"LB-1","","None","","","","","","","None"
"LB-98985","63  CHATHAM ST, BOSTON, MA  02109","02109",42.3595995,-71.0539916,"63","Chatham Street","Boston","Massachusetts","02109"
"LB-98911","1  FRANKLIN ST, BOSTON, MA  02110","02110",42.3555958,-71.059424,"1","Franklin Street","Boston","Massachusetts","02110"
"LB-99001","4  COLUMBUS AVE, BOSTON, MA  02116","02116",42.3509739,-71.0686497,"4","Columbus Avenue","Boston","Massachusetts","02117"
"LB-432435","536  CENTRE ST, JAMAICA PLAIN, MA  02130","02130",42.3087556,-71.1223939,"917","Centre Street","Boston","Massachusetts","02130"
"LB-430860","198  BUNKER HILL ST, CHARLESTOWN, MA  02129","02129",42.3786583,-71.0619749,"198","Bunker Hill Street","Boston","Massachusetts","02129"
"LB-423916","80  BOYLSTON ST, BOSTON, MA  02116","02116",42.3520163,-71.0650278,"76,78,80,82,84","Boylston Street","Boston","Massachusetts","02116"
"LB-430934","1  DESIGN CENTER PL, BOSTON, MA  02210","02210",42.3442158,-71.0325468,"1","Design Center Place","Boston","Massachusetts","02210"
"LB-424338","225  CENTRE ST, JAMAICA PLAIN, MA  02130","02130",42.3229068,-71.0993363,"225","Centre Street","Boston","Massachusetts","02119"
"LB-431060","1  LOVEJOY WH, BOSTON, MA  02114","02114","","","","","","","None"
"LB-429465","506   512A  PARK DR, BOSTON, MA  02215","02215","","","","","","","None"
"LB-99865","45  BEACH ST, BOSTON, MA  02111","02111",42.3513308,-71.0609509,"45","Beach Street","Boston","Massachusetts","02111"
"LB-429466","1  HARBORSIDE DR, EAST BOSTON, MA  02128","02128",42.3611052,-71.0247381,"1","Harborside Drive","Boston","Massachusetts","02128"
"LB-99377","1260  BOYLSTON ST, BOSTON, MA  02215","02215",42.3447479,-71.0959609,"1260","Boylston Street","Boston","Massachusetts","02215"
"LB-430877","115  JERSEY ST, BOSTON, MA  02215","02215",42.3461209,-71.098595,"4","Jersey Street","Boston","Massachusetts","02115"
"LB-424993","429  COLUMBUS AVE, BOSTON, MA  02116","02116",42.3440917,-71.0777133,"429","Columbus Avenue","Boston","Massachusetts","02116"
"LB-425550","375W  ATLANTIC AVE, BOSTON, MA  02110","02110","","","","","","","None"
"LB-429164","296  CAMBRIDGE ST, BOSTON, MA  02114","02114",42.3609376,-71.0684776,"300","Cambridge Street","Boston","Massachusetts","02114"
"LB-425549","375W  ATLANTIC AVE, BOSTON, MA  02110","02110","","","","","","","None"
"LB-425528","230 W BROADWAY, SOUTH BOSTON, MA  02127","02127",42.339809,-71.0519,"230","West Broadway","Boston","Massachusetts","02127"
"LB-101934","313   315  WASHINGTON ST, BRIGHTON, MA  02135","02135","","","","","","","None"
"LB-99711","115  SALEM ST, BOSTON, MA  02113","02113",42.3644152,-71.055371,"115","Salem Street","Boston","Massachusetts","02113"
"LB-101656","44  CHARLES RIVER AVE, CHARLESTOWN, MA  02129","02129",42.3706247,-71.0605272,"34-44","Charles River Avenue","Boston","Massachusetts","02129"
"LB-101918","1650  SOLDIERS FIELD RD, BRIGHTON, MA  02135","02135",42.3594891,-71.1522422,"1650","Soldiers Field Road","Boston","Massachusetts","02135"
"LB-427987","105  SAVIN HILL AVE, DORCHESTER, MA  02125","02125",42.3116415,-71.0541501,"105","Savin Hill Avenue","Boston","Massachusetts","02125"
"LB-427915","1  DESIGN CENTER PL, BOSTON, MA  02210","02210",42.3442158,-71.0325468,"1","Design Center Place","Boston","Massachusetts","02210"
"LB-383185","1478   1484  TREMONT ST, MISSION HILL, MA  02120","02120","","","","","","","None"
"LB-415855","892  RIVER ST, HYDE PARK, MA  02136","02136",42.2618386,-71.1093143,"892","River Street","Boston","Massachusetts","02136"
"LB-99376","215  CHARLES ST, BOSTON, MA  02114","02114",42.3619187,-71.0701194,"215","Charles Street","Boston","Massachusetts","02114"
"LB-99364","31  SAINT JAMES AVE, BOSTON, MA  02116","02116",42.3511124,-71.0711073,"31","Saint James Avenue","Boston","Massachusetts","02116"
"LB-424586","57  FAIRMOUNT AVE, BOSTON, MA  02136","02136",42.2549487,-71.1204241,"57","Fairmount Avenue","Boston","Massachusetts","02136"
"LB-424504","257  NEWBURY ST, BOSTON, MA  02116","02116",42.3496926,-71.0831439,"257","Newbury Street","Boston","Massachusetts","02116"
"LB-99200","246  TREMONT ST, BOSTON, MA  02116","02116",42.3507183,-71.064658,"246","Tremont Street","Boston","Massachusetts","02116"
"LB-425339","3531  WASHINGTON ST, JAMAICA PLAIN, MA  02130","02130",42.3053331,-71.1088099,"3531","Washington Street","Boston","Massachusetts","02130"
"LB-98930","353A FANEUIL HALL MARKETPLACE, BOSTON, MA  02109","02109","","","","","","","None"
